 2021  1 1  730  1.7 L  34.765  53.007  8.8  Teh 17 0.4 2.8LTeh                1
 GAP=173   Teh             7.4     6.0  8.7                                    E
 Action:ARG 24-08-11 12:34 OP:OBSP STATUS:               ID:20210101073001     I
 STAT SP IPHASW D HRMM SECON CODA AMPLIT PERI AZIMU VELO AIN AR TRES W  DIS CAZ7
 DMV  SZ E    0    731 17.10      1187.6 0.60                                   
 ANJ  SZ E    0    730 40.16      2390.3 0.28                                   
 SFB  BZ E    0    730 17.84      2955.2 0.24                                   
 KRSH BZ E    0    730 38.58      5235.5 0.28                                   
 SHM  SZ E    0    730 45.30       -99.0 0.24                                   
 KLH  SZ E    0    731  5.47      1695.6 0.28                                   
 FIR  BZ E    0    730 39.72      1027.4 0.24                                   
 QOM  SZ E    0    730 56.24      3906.1 0.24                                   
 QAMS SZ E    0    730 59.24      4807.8 0.32                                   
 LAS  SZ E    0    730 37.10      2872.2 0.20                                   
 HSB  BZ E    0    731  2.26       976.9 0.36                                   
 PRN  SZ E    0    731  4.12      2922.6 0.56                                   
 VRN  BZ E    0    730 43.28      1720.2 0.24                                   
 ANAR BZ E    0    731  0.14       500.1 0.32                                   
 GLO  SZ E    0    731  8.26      1338.5 0.68                                   
 MZPU BZ E    0    730 41.54       639.0 0.32                                   
 LAS  SZ EPg  0    730 14.90                                    0.90   69.0 356 
 SFB  BZ EPg  0    730 17.00                                    0.40   84.0 237 
 FIR  BZ EPg  0    730 19.50                                    0.00    100 347 
 ANJ  SZ EPg  0    730 20.90                                   -0.70    114  46 
 SHM  SZ EPg  0    730 22.20                                   -0.30    117  12 
 KRSH BZ EPg  0    730 22.50                                   -0.10    119 223 
 VRN  BZ EPg  0    730 23.00                                    0.30    120 283 
 DMV  SZ EPg  0    730 24.00                                    0.10    127 316 
 HSB  BZ EPg  0    730 31.20                                   -0.70    175 296 
 QOM  SZ EPg  0    730 31.80                                   -0.70    178 273 
 PRN  SZ EPg  0    730 32.30                                    0.40    175 340 
 ANAR BZ EPn  0    730 32.90                                    0.00    187 159 
 QAMS SZ EPn  0    730 33.30                                    0.20    187 233 
 KLH  SZ EPn  0    730 36.40                                    0.10    208 220 
 GLO  SZ EPn  0    730 36.40                                    0.30    207  21 
 ZEF  SZ EPn  0    730 37.40                                    0.10    217 197 
 MZPU BZ EPn  0    730 38.70                                    0.00    227 325 
                                                                                

 2021  1 4 1656 49.4 L                       Teh 13 0.5 2.6LTeh                1
 GAP=      Teh                                                                 E
 Action:ARG 24-08-11 12:34 OP:OBSP STATUS:               ID:20210104165649     I
 STAT SP IPHASW D HRMM SECON CODA AMPLIT PERI AZIMU VELO AIN AR TRES W  DIS CAZ7
 SFB  BZ E    0   1657 37.10      1569.0 0.20                                   
 QAMS SZ E    0   1658  3.86       349.2 0.36                                   
 GLO  SZ E    0   1657 36.52       801.4 0.48                                   
 FIR  BZ E    0   1657 22.20       907.3 0.24                                   
 VRN  BZ E    0   1657 18.28       499.9 0.24                                   
 KRSH BZ E    0   1657 46.16      2951.5 0.44                                   
 DMV  SZ E    0   1657 16.10       892.7 0.20                                   
 PRN  SZ E    0   1657 18.78      1468.3 0.16                                   
 ZEF  SZ E    0   1658 22.24       148.6 0.36                                   
 KLH  SZ E    0   1658 10.78       272.7 0.24                                   
 ANJ  SZ EPg  0   1656 56.20                                   -0.40   38.0  39 
 LAS  SZ EPg  0   1657  1.90                                    0.80   66.0 288 
 SHM  SZ EPg  0   1657  2.50                                   -0.20   75.0 334 
 FIR  BZ EPg  0   1657  6.20                                    0.20   95.0 301 
 GLO  SZ EPg  0   1657 14.60                                    0.10    145   6 
 DMV  SZ EPg  0   1657 15.50                                   -0.30    153 286 
 SFB  BZ EPg  0   1657 16.30                                   -0.60    160 234 
 VRN  BZ EPn  0   1657 17.90                                   -0.90    177 263 
 PRN  SZ EPg  0   1657 18.20                                    0.40    165 315 
 KRSH BZ EPn  0   1657 21.30                                   -0.30    195 226 
 QAMS SZ EPn  0   1657 30.80                                    0.40    263 232 
 KLH  SZ EPn  0   1657 33.30                                    0.30    283 223 
 ZEF  SZ EPn  0   1657 33.70                                    0.70    283 206 
                                                                                

 2021  1 5  856 59.8 L  36.263  53.597  7.5  Teh  7 0.3 2.5LTeh                1
 GAP=123   Teh             8.9     7.2  9.7                                    E
 Action:ARG 24-08-11 12:34 OP:OBSP STATUS:               ID:20210105085659     I
 STAT SP IPHASW D HRMM SECON CODA AMPLIT PERI AZIMU VELO AIN AR TRES W  DIS CAZ7
 ANJ  SZ E    0    857 29.56      1226.3 0.20                                   
 GLO  SZ E    0    857 14.54     22421.7 0.24                                   
 DMV  SZ E    0    857 30.46       485.6 0.32                                   
 PRN  SZ E    0    857 21.92      2496.6 0.20                                   
 SHM  SZ E    0    857 20.04       -99.0 0.24                                   
 GLO  SZ EPg  0    857  6.30                                    0.10   34.0  39 
 SHM  SZ EPg  0    857 10.30                                   -0.10   58.0 209 
 ANJ  SZ EPg  0    857 16.20                                   -0.10   93.0 162 
 FIR  BZ EPg  0    857 17.80                                   -0.10    103 228 
 SHM  SZ ESg  0    857 18.70                                    0.30   58.0 209 
 PRN  SZ EPg  0    857 20.00                                    0.50    113 269 
 DMV  SZ EPg  0    857 26.90                                   -0.70    160 242 
 VRN  BZ EPn  0    857 35.90                                    0.20    220 231 
 FIR  BZ E    0    857 31.68      1531.4 0.16                                   
                                                                                

 2021  110 2238 53.8 L                       Teh 16 0.3 2.9LTeh                1
 GAP=      Teh                                                                 E
 Action:ARG 24-08-11 12:34 OP:OBSP STATUS:               ID:20210110223853     I
 STAT SP IPHASW D HRMM SECON CODA AMPLIT PERI AZIMU VELO AIN AR TRES W  DIS CAZ7
 QOM  SZ E    0   2240 10.96       862.5 0.20                                   
 SNQR BZ E    0   2239 36.68       282.3 0.20                                   
 FIR  BZ E    0   2240 38.38       131.4 0.28                                   
 KLH  SZ E    0   2240 53.38       110.2 0.28                                   
 SFB  BZ E    0   2240  0.66       103.4 0.40                                   
 SNJK BZ E    0   2239 33.80       418.6 0.32                                   
 AZR  SZ E    0   2240 28.34       825.6 0.32                                   
 SAQZ BZ E    0   2240 16.14       -99.0 0.32                                   
 ZNJK BZ EPg  0   2239  3.30                                    0.40   50.0 275 
 GLO  SZ E    0   2241  7.86       354.4 0.56                                   
 GIDE BZ EPg  0   2239  5.90                                    0.00   68.0  61 
 GZV  SZ EPg  0   2239  9.80                                   -0.10   91.0 107 
 LHJ2 BZ EPg  0   2239 10.20                                   -0.10   94.0  50 
 HGHA BZ EPg  0   2239 16.60                                   -0.10    131 196 
 HSH  SZ EPn  0   2239 25.30                                   -0.50    192 294 
 MZPU BZ EPn  0   2239 28.70                                    0.30    209  95 
 SNJK BZ EPn  0   2239 32.50                                    0.70    235 236 
 SNQR BZ EPn  0   2239 32.90                                   -0.10    245 217 
 QOM  SZ EPn  0   2239 34.30                                   -0.10    258 140 
 SAQZ BZ EPn  0   2239 37.20                                    0.20    278 263 
 DMV  SZ EPn  4   2239 37.30                                    0.40    277 114 
 PRN  SZ EPn  0   2239 37.70                                    0.50    281  98 
 SFB  BZ EPn  0   2239 48.70                                    0.40    371 132 
 QAMS SZ EPn  0   2239 49.20                                    0.00    376 148 
 GLO  SZ EPn  4   2239 55.00                                    1.60    411  91 
 QABG BZ E    0   2239 26.52      6353.8 0.12                                   
 HGHA BZ E    0   2239 34.10      2824.2 0.24                                   
 PRN  SZ E    0   2240 19.62      1268.7 0.24                                   
 GZV  SZ E    0   2239 24.06      6862.3 0.16                                   
 MZPU BZ E    0   2239 57.58      2037.6 0.48                                   
 DMV  SZ E    0   2240 18.68       316.0 0.52                                   
                                                                                

 2021  114 1120 39.5 L  36.522  53.042 19.7  Teh 44 0.4 3.9LTeh                1
 GAP=54    Teh             5.6     4.5  5.5                                    E
 Action:ARG 24-08-11 12:34 OP:OBSP STATUS:               ID:20210114112039     I
 STAT SP IPHASW D HRMM SECON CODA AMPLIT PERI AZIMU VELO AIN AR TRES W  DIS CAZ7
 SHM  SZ E    0   1121  7.28       -99.0 0.24                                   
 PRN  SZ E    0   1121  2.96      6018.0 0.20                                   
 TEH  BZ E    0   1121 34.30     16402.4 0.52                                   
 DMV  SZ E    0   1121  3.28     41147.6 0.32                                   
 HSB  BZ E    0   1121 14.84      8816.0 0.36                                   
 GZV  SZ E    0   1121 54.56     10859.8 0.28                                   
 LAS  SZ E    0   1121  1.70     64538.3 0.12                                   
 TEHA BZ E    0   1121 39.58     12907.0 0.64                                   
 SRB  SZ E    0   1122 43.38       870.1 0.20                                   
 MRVT BZ E    0   1122  7.12       -99.0 0.28                                   
 QAMS SZ E    0   1122 18.24      3867.4 0.28                                   
 MZPU BZ E    0   1121 20.16     46162.7 0.20                                   
 ANJ  SZ E    0   1121 24.11     17855.5 0.16                                   
 QOM  SZ E    0   1121 53.86      9456.1 0.32                                   
 VRN  BZ E    0   1121 40.48     16105.4 0.32                                   
 KRSH BZ E    0   1122  2.48      8142.8 0.24                                   
 MND  BZ E    0   1121 45.28      7866.8 0.24                                   
 GAS1 BZ E    0   1122 23.66      1104.9 0.40                                   
 SFR  SZ E    0   1122 56.16       984.9 0.56                                   
 HRS  SZ E    0   1122  1.84       519.5 0.24                                   
 DOBD BZ E    0   1122 50.44       540.9 0.36                                   
 PRN  SZ EPg  0   1120 52.10                                    0.10   70.0 244 
 GLO  SN EPg  0   1120 52.30                                    0.20   71.0  91 
 SHM  SZ EPg  0   1120 54.10                                    0.00   82.0 165 
 KLH  SZ E    0   1122 16.33      2304.6 0.28                                   
 FIR  BZ EPg  0   1120 57.00                                   -0.10    101 195 
 LAS  SZ EPg  0   1121  1.20                                   -0.00    127 183 
 MZPU BZ EPg  0   1121  1.80                                   -0.30    132 266 
 PRN  SN ESg  0   1121  2.40                                    0.00   70.0 244 
 DMV  SZ EPg  0   1121  3.10                                   -0.10    139 221 
 ANJ  SZ EPg  0   1121  3.20                                   -0.40    141 146 
 TKDS BZ E    0   1121 48.80       690.9 0.48                                   
 TEH  BZ EPg  0   1121  8.20                                   -0.20    171 241 
 TEHA BZ EPg  4   1121  8.30                                   -0.20    172 240 
 TNSJ BZ E    0   1122 45.96      1749.0 0.88                                   
 VRN  BZ EPn  0   1121 12.40                                    0.20    207 215 
 HSB  BN EPg  0   1121 13.30                                    0.40    199 233 
 LAS  SN ESg  0   1121 17.10                                    0.00    127 183 
 SFB  BZ EPn  4   1121 17.70                                    0.00    251 197 
 TPRV BZ E    0   1123 20.52       526.9 0.44                                   
 GZV  SZ EPn  0   1121 17.80                                   -0.30    253 267 
 QOM  SZ EPn  4   1121 18.60                                    0.00    258 224 
 SHRO BZ EPn  0   1121 20.90                                    0.50    273 102 
 KRSH BZ EPn  4   1121 23.00                                   -0.20    295 196 
 QABG BZ EPn  0   1121 27.50                                    0.70    324 255 
 QAMS SE EPn  4   1121 28.90                                   -0.30    343 206 
 ANAR BZ EPn  4   1121 32.80                                   -0.20    375 170 
 KLH  SZ EPn  4   1121 33.60                                   -0.20    380 201 
 ZNJK BZ EPn  0   1121 35.10                                    0.30    390 274 
 TAPT BZ EPn  0   1121 37.50                                   -0.40    415 115 
 SBZV BZ EPn  0   1121 37.60                                    0.20    410  91 
 TNSJ BZ EPn  0   1121 39.80                                   -0.20    431 130 
 TSHB BZ EPn  0   1121 41.30                                   -0.10    443 134 
 SFR  SZ EPn  0   1121 42.70                                    0.60    447  81 
 CHK  SZ EPn  4   1121 47.40                                   -0.00    490 165 
 TKDS BE EPn  4   1121 47.70                                    0.10    493 130 
 SRB  SZ EPn  0   1121 48.00                                   -0.50    499 288 
 TPRV BZ EPn  4   1121 49.90                                    0.00    511 138 
 DOBD BZ EPn  0   1121 51.40                                    0.30    520 164 
 RAM  SZ EPn  4   1121 52.50                                    0.60    526 187 
 HRS  SZ EPn  0   1121 56.20                                   -0.80    567 292 
 BAF  SZ EPn  4   1122  0.50                                    0.20    595 156 
 PQL  BZ EPn  0   1122  2.20                                   -0.20    612 322 
 MYA  SZ EPn  0   1122  5.20                                    0.00    633  90 
 AFRZ BZ EPn  4   1122  6.60                                    0.10    644 120 
 XNQ  BZ EPn  4   1122  8.70                                   -0.90    669 322 
 QSAR BZ EPn  4   1122 11.40                                   -0.80    692 325 
 KOO  SN EPn  4   1122 15.00                                    0.10    712 128 
 MON  SZ EPn  4   1122 15.10                                    0.40    709 119 
 BSRN BZ EPn  4   1122 20.00                                    0.30    751 130 
 DAH  SZ EPn  4   1122 20.40                                    0.30    753 122 
                                                                                

 2021  114 1810 58.6 L  35.955  53.278  5.3  Teh  9 0.3 2.6LTeh                1
 GAP=138   Teh             1.8     1.4  1.7                                    E
 Action:ARG 24-08-11 12:34 OP:OBSP STATUS:               ID:20210114181058     I
 STAT SP IPHASW D HRMM SECON CODA AMPLIT PERI AZIMU VELO AIN AR TRES W  DIS CAZ7
 GLO  SZ E    0   1811 27.94      6306.4 0.32                                   
 PRN  SZ E    0   1811 37.10      3075.7 0.16                                   
 MZPU BZ E    0   1811 55.22       935.9 0.28                                   
 DMV  SZ E    0   1811 44.48      1395.5 0.28                                   
 SFB  BZ E    0   1812  4.62       567.3 0.28                                   
 VRN  BZ E    0   1811 59.58       745.5 0.32                                   
 SHM  SZ EPg  0   1811  2.10                                   -0.20   18.0 176 
 FIR  BZ EPg  0   1811  9.10                                   -0.10   59.0 232 
 GLO  SZ EPg  0   1811 12.30                                   -0.10   78.0  40 
 PRN  SZ EPg  0   1811 14.20                                    0.00   89.0 290 
 DMV  SZ EPg  0   1811 19.60                                    0.10    120 249 
 MZPU BZ EPg  0   1811 26.70                                    0.20    162 289 
 VRN  BZ EPg  0   1811 28.70                                   -0.10    177 233 
 SFB  BZ EPn  0   1811 32.20                                    0.20    202 208 
 KRSH BZ EPn  0   1811 38.30                                    0.80    245 205 
                                                                                

 2021  117  239  4.9 L                       Teh  5 0.4 2.9LTeh                1
 GAP=      Teh                                                                 E
 Action:ARG 24-08-11 12:34 OP:OBSP STATUS:               ID:20210117023904     I
 STAT SP IPHASW D HRMM SECON CODA AMPLIT PERI AZIMU VELO AIN AR TRES W  DIS CAZ7
 HSB  BZ E    0    239 19.98      2147.6 0.44                                   
 DMV  SZ E    0    239 30.40     14960.1 0.36                                   
 PRN  SZ EPg  0    239 11.40                                   -0.80   39.0 305 
 FIR  BZ EPg  0    239 13.10                                   -0.10   44.0 173 
 LAS  SZ EPg  0    239 19.00                                    0.40   77.0 162 
 GLO  SZ EPn  0    239 25.10                                    0.50    114  63 
 QOM  SZ EPg  0    239 39.70                                    0.10    199 229 
                                                                                

