 2021 0308 1124 49.4 L  36.558  51.928 10.0  Teh 10 0.4 2.5LTeh                1
 GAP=189                                                                       E
 Iranian Seismological Center, Institute of Geophysics, University of Tehran   6
 STAT SP IPHASW D HRMM SECON CODA AMPLIT PERI AZIMU VELO SNR AR TRES  W DIS CAZ7
 SHM  SZ E    0   1125 41.16       -99.0 0.44                           148 124
 LAS  SN E    0   1125 40.24      1197.4 0.16                           160 144
 VRN  BZ E    0   1125 20.94       956.7 0.12                           174 186
 GLO  SZ E    0   1125 46.16      1224.8 0.28                           171  92
 QOM  SZ E    0   1125 24.72       857.8 0.16                           206 203
 PRN  SZ E    0   1125  7.60     13196.7 0.12                          51.0 134
 MZPU BZ E    0   1125  2.68      5846.3 0.36                          35.0 248
 DMV  SZ E    0   1125 24.20       680.9  0.2                           109 175
 FIR  BZ E    0   1125 28.36       803.0 0.24                           126 144
 GZV  SZ E    0   1125 38.42      1232.4 0.44                           154 263
 MZPU BZ EPg  0   1124 55.8                                     -0.3   35.0 248
 PRN  SZ EPg  0   1124 58.7                                     -0.0   51.0 134
 MZPU BE ESg  0   1125 1.8                                       0.0   35.0 248
 DMV  SZ EPg  0   1125 8.9                                       0.3    109 175
 FIR  BZ EPg  0   1125 11.7                                      0.3    126 144
 SHM  SZ EPg  0   1125 15.2                                      0.2    148 124
 GZV  SZ EPg  0   1125 15.9                                     -0.3    154 263
 GLO  SZ EPg  0   1125 19.0                                      0.1    171  92
 VRN  BZ EPg  0   1125 19.2                                     -0.3    174 186
 QOM  SZ EPg  0   1125 24.0                                     -0.7    206 203

 2021 0311 1353 15.3 L  35.744  52.135 10.0  Teh 13 0.4 2.7LTeh                1
 GAP=68                                                                        E
 Iranian Seismological Center, Institute of Geophysics, University of Tehran   6
 STAT SP IPHASW D HRMM SECON CODA AMPLIT PERI AZIMU VELO SNR AR TRES  W DIS CAZ7
 PRN  SZ E    0   1353 34.76     11913.5 0.12                          58.0  18
 LAS  SZ E    0   1353 45.18      1888.3  0.2                          85.0 118
 MZPU BZ E    0   1353 32.04      3178.5 0.16                          93.0 327
 FIR  BZ E    0   1353 35.20     11410.4 0.12                          57.0 101
 VRN  BZ E    0   1353 45.22      4499.3 0.08                          91.0 204
 DMV  SZ E    0   1353 23.38     87811.6 0.16                          21.0 207
 TEH  BZ E    0   1353 39.90      4984.4 0.16                          67.0 271
 SFB  BZ E    0   1353 44.54      1560.6 0.08                           155 176
 HSB  BZ E    0   1353 41.62      2475.8 0.16                          85.0 247
 ANJ  SZ E    0   1353 45.57      1140.6 0.12                           164 100
 KRSH BZ E    0   1354 15.18      1804.3 0.28                           197 180
 QOM  SZ E    0   1353 58.28      1885.6 0.16                           140 225
 DMV  SZ EPg  0   1353 19.4                                     -0.3   21.0 207
 FIR  BZ EPg  0   1353 25.7                                     -0.0   57.0 101
 PRN  SZ EPg  0   1353 26.0                                      0.3   58.0  18
 TEH  BZ EPg  0   1353 27.4                                      0.1   67.0 271
 HSB  BZ EPg  0   1353 30.2                                      0.0   85.0 247
 LAS  SZ EPg  0   1353 30.9                                      0.7   85.0 118
 MZPU BZ EPg  0   1353 31.5                                     -0.0   93.0 327
 VRN  BZ EPg  0   1353 31.7                                      0.5   91.0 204
 SHM  SZ EPg  0   1353 32.5                                     -1.0    104  86
 TEH  BN ESg  0   1353 36.2                                      0.0   67.0 271
 QOM  SZ EPg  0   1353 38.9                                     -0.4    140 225
 SFB  BZ EPg  0   1353 42.0                                      0.2    155 176
 ANJ  SZ EPg  0   1353 43.8                                      0.4    164 100
 KRSH BZ EPg  0   1353 48.5                                     -0.3    197 180

 2021 0312 1652  7.0 L  37.472  53.730 12.2  Teh 17 0.4 3.2LTeh                1
 GAP=204                                                                       E
 Iranian Seismological Center, Institute of Geophysics, University of Tehran   6
 STAT SP IPHASW D HRMM SECON CODA AMPLIT PERI AZIMU VELO SNR AR TRES  W DIS CAZ7
 ANJ  SZ E    0   1652 48.25      1611.5 0.16                           223 176
 MND  BZ E    0   1652 54.52      4173.9  0.2                           149 100
 DMV  SZ E    0   1653 24.98      1040.7 0.32                           259 216
 SFR  SZ E    0   1653  6.23       401.9 0.16                           382  96
 MRVT BZ E    0   1653 16.36       -99.0 0.28                           209  84
 LAS  SZ E    0   1653 18.28      1596.0  0.2                           242 197
 FIR  BZ E    0   1653  9.58      2191.3 0.32                           221 204
 SHM  SZ E    0   1653  4.16       -99.0 0.28                           189 192
 SLJL BZ E    0   1653 45.42       -99.0 0.32                           368  86
 MZPU BZ E    0   1653 18.86      1500.0 0.36                           224 240
 GLO  SE EPg  0   1652 27.1                                      0.3    108 175
 SFB  BZ E    0   1653 57.80       335.8 0.24                           371 202
 TNSJ BZ E    0   1654 20.82       -99.0 0.84                           468 145
 MND  BZ EPg  0   1652 33.3                                     -0.0    149 100
 PRN  SZ EPn  0   1652 37.8                                     -0.8    184 223
 SHM  SZ EPn  0   1652 38.9                                     -0.6    189 192
 MRVT BZ EPn  0   1652 41.8                                     -0.2    209  84
 FIR  BZ EPn  0   1652 43.6                                     -0.2    221 204
 ANJ  SZ EPn  0   1652 43.9                                      0.1    223 176
 MZPU BE EPn  0   1652 44.5                                      0.5    224 240
 LAS  SZ EPn  0   1652 46.2                                      0.1    242 197
 SHRO BZ EPn  0   1652 48.4                                     -0.1    262 128
 DMV  SZ EPn  0   1652 49.0                                      0.5    259 216
 SFB  BZ EPn  4   1653 1.9                                      -0.1    371 202
 SLJL BZ EPn  0   1653 1.9                                      -0.0    368  86
 TNSJ BZ EPn  0   1653 14.4                                      0.4    468 145
 ANAR BZ EPn  4   1653 14.7                                     -0.1    475 180
 PAY  SN EPn  0   1653 15.8                                     -0.1    482 102

 2021 0314 2048 31.9 L  34.328  52.363 10.0  Teh 15 0.5 2.7LTeh                1
 GAP=87                                                                        E
 Iranian Seismological Center, Institute of Geophysics, University of Tehran   6
 STAT SP IPHASW D HRMM SECON CODA AMPLIT PERI AZIMU VELO SNR AR TRES  W DIS CAZ7
 KRSH BZ E    0   2048 47.56      5159.4 0.28                          45.0 208
 PRN  SZ E    0   2049  8.16       965.0 0.28                           212 359
 LAS  SZ E    0   2049 11.45      1872.6 0.08                           129  25
 SFB  BZ E    0   2048 38.94      9647.8  0.2                          12.0 283
 QAMS SZ E    0   2049  6.00      3354.9 0.08                           111 234
 ANAR BZ E    0   2049 26.92       651.1 0.28                           179 135
 RAM  SN E    0   2050  0.20       240.4  0.4                           279 180
 DMV  SZ E    0   2048 57.00      1069.4 0.12                           142 348
 ZEF  SZ E    0   2049 21.10      1223.2 0.24                           159 181
 ANJ  SZ E    0   2049 28.68      1636.9 0.16                           190  48
 FIR  BZ E    0   2049 19.82       584.6 0.24                           150  14
 HSB  BZ E    0   2049 22.14       980.0 0.24                           158 321
 VRN  BZ E    0   2049  3.22       782.3 0.16                          94.0 322
 QOM  SZ E    0   2049 12.18      3025.9 0.12                           132 296
 KLH  SZ E    0   2049 11.68      7062.4 0.16                           133 213
 SFB  BZ EPg  0   2048 35.4                                      0.6   12.0 283
 KRSH BZ EPg  0   2048 40.5                                      0.3   45.0 208
 VRN  BZ EPg  0   2048 49.2                                      0.8   94.0 322
 QAMS SZ EPg  0   2048 50.9                                     -0.3    111 234
 QOM  SZ EPg  0   2048 54.3                                     -0.4    132 296
 LAS  SZ EPg  0   2048 54.5                                      0.3    129  25
 KLH  SZ EPg  0   2048 54.9                                     -0.2    133 213
 DMV  SZ EPg  0   2048 56.1                                     -0.4    142 348
 FIR  BZ EPg  0   2048 57.2                                     -0.7    150  14
 ZEF  SZ EPg  0   2048 58.7                                     -0.6    159 181
 HSB  BZ EPg  0   2048 59.0                                     -0.1    158 321
 ANAR BZ EPn  0   2049 2.2                                       0.6    179 135
 ANJ  SZ EPn  0   2049 3.2                                      -0.3    190  48
 PRN  SZ EPn  0   2049 6.9                                       0.4    212 359

 2021 0318 2342 23.2 L  36.481  51.685 10.0  Teh 10 0.3 2.6LTeh                1
 GAP=183                                                                       E
 Iranian Seismological Center, Institute of Geophysics, University of Tehran   6
 STAT SP IPHASW D HRMM SECON CODA AMPLIT PERI AZIMU VELO SNR AR TRES  W DIS CAZ7
 PRN  SZ E    0   2342 44.76      9695.5 0.12                          64.0 114
 VRN  BZ E    0   2342 52.02      1018.6 0.08                           165 179
 GLO  SZ E    0   2343 23.08      1811.2 0.28                           192  89
 LAS  SZ E    0   2342 53.20       461.9 0.16                           168 136
 MZPU BZ EPg  0   2342 26.7                                      0.4   11.0 246
 DMV  SZ E    0   2342 56.20      1254.4 0.36                           105 163
 QOM  SZ E    0   2342 56.86       812.5 0.36                           190 197
 GZV  SZ E    0   2343  5.14       976.4 0.36                           132 266
 PRN  SZ EPg  0   2342 34.3                                     -0.4   64.0 114
 FIR  BZ E    0   2342 47.82       968.5 0.08                           134 134
 DMV  SZ EPg  0   2342 41.8                                      0.1    105 163
 HSB  BZ EPg  0   2342 44.5                                      0.3    122 198
 GZV  SZ EPg  0   2342 45.9                                     -0.2    132 266
 FIR  BZ EPg  0   2342 46.2                                     -0.3    134 134
 VRN  BZ EPg  0   2342 51.3                                     -0.2    165 179
 LAS  SZ EPg  0   2342 52.4                                      0.3    168 136
 GLO  SZ EPn  0   2342 55.4                                      0.3    192  89
 QOM  SZ EPg  0   2342 55.4                                     -0.5    190 197
 DMV  SE ESg  0   2342 55.9                                      0.0    105 163

 2021 0319 1957 36.5 L  34.505  52.057 14.1  Teh 10 0.4 2.5LTeh                1
 GAP=106                                                                       E
 Iranian Seismological Center, Institute of Geophysics, University of Tehran   6
 STAT SP IPHASW D HRMM SECON CODA AMPLIT PERI AZIMU VELO SNR AR TRES  W DIS CAZ7
 SFB  BZ E    0   1957 45.68      5663.5  0.2                          24.0 135
 DMV  SZ E    0   1957 58.10      1174.6 0.16                           119 359
 KLH  SZ E    0   1958 17.67      1657.1 0.12                           139 199
 QAMS SZ E    0   1958  9.68      3172.5 0.08                           105 216
 ANAR BZ E    0   1958 40.10       335.5 0.32                           213 133
 QOM  SZ E    0   1958  7.30      2434.9 0.08                          98.0 293
 KRSH BZ E    0   1957 55.30      4934.2 0.24                          60.0 173
 SFB  BZ EPg  0   1957 41.7                                      0.2   24.0 135
 KRSH BZ EPg  0   1957 47.2                                     -0.1   60.0 173
 VRN  BZ EPg  0   1957 48.3                                      0.7   62.0 331
 QOM  SZ EPg  0   1957 53.8                                      0.3   98.0 293
 QAMS SZ EPg  0   1957 54.8                                      0.1    105 216
 DMV  SZ EPg  0   1957 57.1                                      0.1    119 359
 HSB  BZ EPg  0   1957 57.7                                     -0.2    126 326
 KLH  SZ EPg  0   1957 59.7                                     -0.5    139 199
 FIR  BZ EPg  0   1957 59.9                                     -0.7    141  27
 QOM  SE ESg  0   1958 6.1                                       0.0   98.0 293
 ANAR BZ EPn  0   1958 10.8                                      0.3    213 133

 2021 0320 0554 16.0 L  35.369  51.589 17.1  Teh  9 0.4 2.8LTeh                1
 GAP=66                                                                        E
 Iranian Seismological Center, Institute of Geophysics, University of Tehran   6
 STAT SP IPHASW D HRMM SECON CODA AMPLIT PERI AZIMU VELO SNR AR TRES  W DIS CAZ7
 HSB  BZ E    0   0554 25.92     49469.6 0.08                          29.0 285
 HSB  BZ EPg  0   0554 21.6                                     -0.4   29.0 285
 DMV  SZ E    0   0554 32.82     26429.2 0.16                          46.0  60
 VRN  BZ E    0   0554 31.92     17562.1 0.24                          43.0 163
 TEH  BZ E    0   0554 31.98     43557.1 0.08                          46.0 337
 VRN  BZ EPg  0   0554 24.5                                      0.4   43.0 163
 DMV  SZ EPg  0   0554 25.0                                      0.2   46.0  60
 TEH  BZ EPg  0   0554 25.5                                      0.9   46.0 337
 QOM  SZ E    0   0554 38.80     30076.8 0.16                          76.0 219
 QOM  SZ EPg  0   0554 29.0                                     -0.3   76.0 219
 MZPU BZ E    0   0554 54.22      1778.8 0.24                           119 359
 DMV  SN ESg  0   0554 31.1                                      0.0   46.0  60
 PRN  SZ E    0   0554 52.56      3890.7 0.24                           118  35
 SFB  BZ E    0   0554 54.60      3016.2  0.2                           128 152
 MZPU BZ EPg  0   0554 36.1                                     -0.3    119 359
 PRN  SZ EPg  0   0554 36.2                                     -0.1    118  35
 SFB  BZ EPg  0   0554 37.8                                      0.1    128 152
 ANJ  SZ E    0   0555 17.59      2177.6 0.12                           211  86
 ANJ  SZ EPn  0   0554 49.6                                     -0.0    211  86

 2021 0320 0636 33.2 L  36.095  52.030  5.3  Teh 30 0.4 3.4LTeh                1
 GAP=107                                                                       E
 Iranian Seismological Center, Institute of Geophysics, University of Tehran   6
 STAT SP IPHASW D HRMM SECON CODA AMPLIT PERI AZIMU VELO SNR AR TRES  W DIS CAZ7
 PRN  SZ E    0   0636 44.26    162115.0 0.12                          32.0  60
 ANJ  SZ E    0   0637 32.90      4147.8 0.24                           184 112
 GLO  SZ E    0   0637 43.00      6363.2 0.72                           168  74
 MZPU BZ E    0   0636 52.68     48725.5 0.44                          56.0 313
 GZV  SZ E    0   0637  5.02      6215.0 0.36                           166 282
 TEH  BZ E    0   0636 57.36     49998.5 0.36                          69.0 237
 QOM  SZ E    0   0637  4.30      8859.2  0.2                           164 213
 VRN  BZ E    0   0637 13.32      5800.2 0.24                           125 193
 QABG BZ E    0   0637 13.30      2456.9 0.24                           225 260
 HRS  SZ E    0   0637 47.43       219.9 0.36                           507 301
 KLH  SZ E    0   0638  1.06      1662.9 0.28                           311 188
 HAGD BZ E    0   0637 23.24       -99.0 0.24                           298 243
 SRB  SZ E    0   0637 40.42       638.2  0.2                           434 298
 PRN  SZ EPg  0   0636 39.4                                      0.1   32.0  60
 RDH  LZ EPg  0   0636 40.5                                     -0.2   40.0 195
 MZPU BE EPg  0   0636 43.2                                     -0.4   56.0 313
 DMV  SZ EPg  0   0636 43.8                                     -0.1   57.0 180
 TEH  BZ EPg  0   0636 46.2                                      0.4   69.0 237
 FIR  BN EPg  0   0636 47.8                                     -0.4   83.0 127
 PIR  SZ E    0   0638 30.03       338.7 0.56                           393 196
 HSB  BZ EPg  0   0636 51.0                                     -0.1  100.0 223
 MZPU BN ESg  0   0636 51.3                                      0.0   56.0 313
 DMV  SE ESg  0   0636 52.0                                      0.0   57.0 180
 LAS  SE EPg  0   0636 53.9                                      0.0    116 133
 VRN  BZ EPg  4   0636 55.2                                     -0.3    125 193
 QOM  SZ EPg  4   0637 1.0                                      -1.4    164 213
 GZV  SZ EPn  0   0637 1.4                                       0.3    166 282
 GLO  SE EPn  0   0637 2.1                                       0.7    168  74
 HSB  BN ESg  0   0637 3.6                                       0.0  100.0 223
 ANJ  SZ EPn  0   0637 4.5                                       0.6    184 112
 SFB  BZ EPn  4   0637 6.1                                       0.6    194 174
 KRSH BZ EPn  4   0637 11.7                                     -0.2    236 178
 HGHA BZ EPn  0   0637 19.6                                      0.3    295 258
 ZNJK BZ EPn  0   0637 20.6                                      0.2    307 283
 MND  BZ EPn  0   0637 22.9                                      0.1    326  66
 SHRO BZ EPn  0   0637 26.9                                     -0.1    359  91
 ZEF  SZ EPn  4   0637 27.0                                      0.1    356 175
 MRVT BZ EPn  0   0637 31.8                                     -0.5    401  63
 SNQR BZ EPn  4   0637 35.3                                      0.2    422 252
 SRB  SZ EPn  0   0637 36.3                                     -0.2    434 298
 GRMI BZ EPn  4   0637 40.2                                     -1.2    474 311
 HRS  SZ EPn  4   0637 45.3                                     -0.2    507 301
 SLJL BZ EPn  0   0637 50.4                                     -0.6    550  70

