 2021 0130 1642 32.8 L  36.954  50.504 19.0  Teh  9 0.5 2.9LTeh                1
 GAP=197                                                                       E
 Iranian Seismological Center, Institute of Geophysics, University of Tehran   6
 STAT SP IPHASW D HRMM SECON CODA AMPLIT PERI AZIMU VELO SNR AR TRES  W DIS CAZ7
 GZV  SN E    0   1642 58.10     21085.1  0.2                          68.0 202
 SRB  SZ E    0   1643 27.12       467.8 0.16                           270 292
 DMV  SZ E    0   1643 38.40       650.8 0.56                           205 138
 HSB  BZ E    0   1643 27.52      1984.4 0.32                           182 157
 CSN1 BZ E    0   1643  8.92      4421.5 0.08                           142 299
 LHJ2 BZ EPg  0   1642 42.0                                     -0.2   46.0 301
 SFB  BZ E    0   1644 16.44       186.7 0.48                           329 151
 CSN1 BZ EPg  0   1642 58.6                                      0.7    142 299
 HSB  BZ EPg  0   1643 4.5                                      -0.3    182 157
 DMV  SZ EPn  0   1643 6.7                                      -0.2    205 138
 HGHA BZ EPn  0   1643 7.7                                      -0.9    220 223
 QOM  SZ EPn  0   1643 11.6                                      0.8    240 168
 SRB  SZ EPn  0   1643 14.3                                     -0.4    270 292

 2021 0206 0431 19.7 L  35.537  51.912 19.0  Teh 31 0.3 3.3LTeh                1
 GAP=43                                                                        E
 Iranian Seismological Center, Institute of Geophysics, University of Tehran   6
 STAT SP IPHASW D HRMM SECON CODA AMPLIT PERI AZIMU VELO SNR AR TRES  W DIS CAZ7
 QABG BZ E    0   0432 22.14      2735.8 0.28                           212 276
 VRN  BZ E    0   0431 39.48     29927.3 0.28                          62.0 196
 TEH  BZ E    0   0431 37.24     75314.2 0.24                          53.0 297
 LAS  SZ E    0   0431 54.80     13040.9  0.2                          97.0 100
 TEHA BZ E    0   0431 37.48     48028.3 0.28                          53.0 296
 GLO  SZ E    0   0432 30.30      4579.2 0.68                           203  58
 GZV  SZ E    0   0432 12.28      4807.8 0.32                           180 302
 SHM  SZ E    0   0432  4.10       -99.0 0.24                           128  76
 MZPU BZ E    0   0431 38.24      7717.1 0.36                           105 343
 BAF  SE E    0   0433 34.55       234.1 0.24                           554 141
 PRN  SZ E    0   0431 49.46     14253.5  0.2                          87.0  26
 TPRV BZ E    0   0433 55.04       310.9 0.84                           520 121
 RAM  SZ E    0   0432 31.04       354.8 0.52                           416 174
 HGHA BZ E    0   0432 15.12      1295.8 0.32                           277 270
 ANAR BZ E    0   0432 15.14       673.2 0.28                           309 147
 DMV  SZ EPg  0   0431 23.6                                     -0.4   12.0  68
 DMV  SN ESg  0   0431 27.4                                      0.0   12.0  68
 DOBD BZ E    0   0432 31.18       192.7 0.32                           461 148
 TEH  BZ EPg  0   0431 29.3                                     -0.1   53.0 297
 TEHA BZ EPg  0   0431 29.6                                      0.2   53.0 296
 HSB  BZ EPg  0   0431 30.2                                     -0.0   59.0 259
 VRN  BZ EPg  0   0431 30.8                                      0.0   62.0 196
 FIR  BZ EPg  0   0431 33.1                                     -0.2   77.0  81
 PRN  SZ EPg  0   0431 35.0                                      0.2   87.0  26
 LAS  SZ EPg  0   0431 36.3                                     -0.0   97.0 100
 MZPU BZ EPg  0   0431 37.8                                      0.1    105 343
 QOM  SZ EPg  0   0431 37.8                                     -0.4    109 225
 SHM  SZ EPg  0   0431 41.3                                     -0.1    128  76
 SFB  BZ EPg  0   0431 41.8                                     -0.5    135 167
 GAR  SZ E    0   0432 23.66       571.9 0.24                           347 178
 GZV  SZ EPn  0   0431 48.8                                     -0.2    180 302
 ANJ  SZ EPn  0   0431 49.1                                     -0.0    182  92
 QABG BZ EPn  0   0431 52.9                                     -0.1    212 276
 GLO  SZ EPn  4   0431 53.1                                      1.3    203  58
 HAGD BZ EPn  0   0431 59.5                                      0.0    265 253
 SHRO BZ EPn  4   0432 13.0                                      0.1    374  81
 BRJ  SZ EPn  0   0432 17.2                                      0.0    407 189
 RAM  SZ EPn  0   0432 18.3                                      0.1    416 174
 KFM  BZ EPn  0   0432 21.0                                      0.5    435 240
 TNSJ BZ EPn  0   0432 23.5                                     -0.5    464 111
 DOBD BZ EPn  0   0432 24.0                                      0.3    461 148
 TAPT BZ EPn  4   0432 26.2                                     -0.3    483  97
 TPRV BZ EPn  0   0432 30.9                                     -0.1    520 121
 TKDS BZ EPn  0   0432 31.8                                      0.4    523 113
 SBZV BZ EPn  4   0432 31.9                                      0.4    523  78
 BAF  SZ EPn  0   0432 35.8                                      0.6    554 141

 2021 0207 2350 30.1 L  35.602  49.825  8.0  Teh 10 0.4 2.7LTeh                1
 GAP=105                                                                       E
 Iranian Seismological Center, Institute of Geophysics, University of Tehran   6
 STAT SP IPHASW D HRMM SECON CODA AMPLIT PERI AZIMU VELO SNR AR TRES  W DIS CAZ7
 GZV  SZ E    0   2351  0.02     10265.9 0.12                          94.0  22
 HGHA BZ E    0   2350 59.50       -99.0 0.24                          89.0 262
 HAGD BZ E    0   2351  5.46       -99.0 0.28                           107 216
 QOM  SZ E    0   2351 16.08      1308.8  0.2                           141 126
 MZPU BZ E    0   2351 26.96       728.9  0.4                           183  59
 DMV  SZ E    0   2351 32.20       940.8 0.36                           200  90
 FIR  BZ E    0   2351 14.88       279.5 0.24                           265  88
 SNQR BZ E    0   2351 11.66       386.0 0.72                           216 248
 HGHA BZ EPg  0   2350 46.1                                      0.3   89.0 262
 GZV  SZ EPg  0   2350 47.0                                      0.3   94.0  22
 HAGD BZ EPg  0   2350 48.5                                     -0.3    107 216
 HSB  BZ EPg  0   2350 53.3                                      0.2    133  97
 QOM  SZ EPg  0   2350 54.1                                     -0.4    141 126
 GZV  SN ESg  0   2350 59.0                                      0.0   94.0  22
 LHJ2 BZ EPg  0   2351 0.2                                       0.0    175   7
 MZPU BZ EPn  0   2351 1.2                                       0.5    183  59
 DMV  SZ EPn  0   2351 4.1                                       0.6    200  90
 SNQR BZ EPn  0   2351 6.3                                       0.6    216 248

 2021 0210 1948 21.4 L  37.154  50.909 24.4  Teh 26 0.4 3.3LTeh                1
 GAP=126                                                                       E
 Iranian Seismological Center, Institute of Geophysics, University of Tehran   6
 STAT SP IPHASW D HRMM SECON CODA AMPLIT PERI AZIMU VELO SNR AR TRES  W DIS CAZ7
 QOM  SZ E    0   1949 36.40       964.4 0.48                           257 177
 DMV  SZ E    0   1949 18.60      1879.1 0.52                           202 150
 QABG BZ E    0   1949 18.16      1511.4 0.24                           200 217
 FIR  BZ E    0   1949 28.12      1058.8 0.36                           236 135
 ZNJK BZ E    0   1949 17.44       -99.0 0.28                           205 256
 LAS  SZ E    0   1949 37.88       646.0  0.4                           270 136
 GZV  SZ E    0   1948 52.38     12418.0 0.24                           105 216
 SHM  SZ E    0   1949 33.70       -99.0 0.32                           260 124
 GIDE BZ E    0   1948 49.30       -99.0 0.28                          92.0 254
 GAS1 BZ E    0   1948 56.90      1750.5 0.24                           228 308
 GLO  SZ E    0   1949  4.12      1974.5 0.28                           271 105
 LHJ2 BZ E    0   1948 47.96     44003.1  0.2                          75.0 271
 QAMS SZ E    0   1950  9.40       308.1 0.44                           382 173
 CSN1 BZ E    0   1948 50.22      8147.5 0.24                           167 286
 VRN  BZ E    0   1949 33.48      1517.7 0.32                           251 163
 GRMI BZ E    0   1949  8.74       -99.0 0.24                           322 306
 GIDE BZ EPg  0   1948 37.8                                      0.3   92.0 254
 MZPU BZ EPg  0   1948 39.2                                      0.8   99.0 143
 GZV  SZ EPg  0   1948 39.7                                      0.2    105 216
 PRN  SZ EPg  0   1948 47.9                                     -0.6    163 128
 CSN1 BZ EPg  0   1948 48.5                                     -0.4    167 286
 QABG BZ EPn  0   1948 52.8                                     -0.4    200 217
 ZNJK BZ EPn  0   1948 53.9                                      0.3    205 256
 DMV  SZ EPg  0   1948 54.4                                     -0.4    202 150
 GAS1 BZ EPn  0   1948 56.1                                     -0.3    228 308
 ASTR BZ EPn  4   1948 57.7                                     -0.5    243 311
 FIR  BZ EPn  4   1948 58.3                                      0.6    236 135
 VRN  BZ EPn  0   1948 59.6                                      0.3    251 163
 QOM  SZ EPn  0   1948 59.7                                     -0.4    257 177
 SHM  SZ EPn  4   1949 1.1                                       0.4    260 124
 GLO  SZ EPn  0   1949 1.8                                      -0.1    271 105
 LAS  SZ EPn  4   1949 2.4                                       0.7    270 136
 SRB  SZ EPn  0   1949 5.7                                       0.5    297 286
 GLBA BZ EPn  0   1949 7.5                                      -0.2    320 317
 GRMI BZ EPn  0   1949 8.2                                       0.0    322 306
 SFB  BZ EPn  0   1949 9.5                                      -0.0    333 158
 QAMS SZ EPn  0   1949 15.5                                     -0.3    382 173
 SHRO BZ EPn  0   1949 27.3                                      0.2    474 104
 SBZV BZ EPn  0   1949 43.8                                      0.5    604  96
 SLJL BZ EPn  0   1949 45.0                                     -0.4    621  83
 KRD  SZ EPn  0   1950 4.0                                       0.4    767  91

 2021 0212 1043 22.3 L  35.922  53.265  8.0  Teh 17 0.3 2.8LTeh                1
 GAP=105                                                                       E
 Iranian Seismological Center, Institute of Geophysics, University of Tehran   6
 STAT SP IPHASW D HRMM SECON CODA AMPLIT PERI AZIMU VELO SNR AR TRES  W DIS CAZ7
 ANJ  SZ E    0   1043 46.12      5855.7 0.12                          77.0 130
 PRN  SZ E    0   1043 52.90      7935.2 0.24                          91.0 293
 LAS  SZ E    0   1043 45.95      3912.7 0.16                          66.0 205
 QOM  SZ E    0   1044  2.56      1058.7 0.16                           233 240
 DMV  SZ E    0   1044  3.94      2046.6 0.32                           118 251
 GLO  SZ E    0   1043 50.02      5167.1 0.24                          82.0  38
 VRN  BZ E    0   1043 53.06      2377.2 0.36                           173 234
 SFB  BZ E    0   1044 20.74      1064.5 0.28                           198 208
 QAMS SZ E    0   1044 10.14       477.5 0.36                           297 216
 HSB  BZ E    0   1043 58.96       739.8 0.28                           188 254
 SHM  SZ EPg  0   1043 25.6                                      0.1   13.0 173
 GZV  SZ E    0   1044 46.06       841.5  0.4                           279 282
 ANAR BZ E    0   1045  1.98       226.1  0.4                           306 172
 MZPU BZ E    0   1044 12.86      1676.2 0.32                           163 291
 KRSH BZ E    0   1044 34.90      1418.8 0.32                           240 206
 FIR  BZ EPg  0   1043 32.5                                      0.0   56.0 236
 LAS  SZ EPg  0   1043 34.3                                      0.2   66.0 205
 ANJ  SZ EPg  0   1043 35.8                                     -0.2   77.0 130
 GLO  SZ EPg  0   1043 36.7                                     -0.2   82.0  38
 PRN  SZ EPg  0   1043 38.1                                     -0.2   91.0 293
 DMV  SZ EPg  0   1043 42.8                                     -0.2    118 251
 MZPU BZ EPg  0   1043 50.5                                      0.1    163 291
 VRN  BZ EPg  0   1043 52.1                                     -0.1    173 234
 HSB  BZ EPn  0   1043 53.8                                      0.2    188 254
 SFB  BZ EPn  0   1043 55.2                                      0.1    198 208
 QOM  SZ EPn  0   1044 0.4                                       0.6    233 240
 KRSH BZ EPn  0   1044 0.8                                       0.1    240 206
 SHRO BZ EPn  0   1044 2.1                                       0.5    248  87
 QAMS SZ EPn  0   1044 7.6                                      -0.2    297 216
 GZV  SZ EPn  2   1044 8.1                                       2.5    279 282
 ANAR BZ EPn  0   1044 8.6                                      -0.3    306 172

 2021 0218 0841 36.7 L  34.305  50.571  8.0  Teh 12 0.5 2.5LTeh                1
 GAP=123                                                                       E
 Iranian Seismological Center, Institute of Geophysics, University of Tehran   6
 STAT SP IPHASW D HRMM SECON CODA AMPLIT PERI AZIMU VELO SNR AR TRES  W DIS CAZ7
 QOM  SZ E    0   0842  4.70      1630.1 0.24                          75.0  37
 VRN  BZ E    0   0842 17.92       976.2 0.28                           131  54
 ZEF  SZ E    0   0842 44.19       164.3 0.28                           226 133
 HGHA BZ E    0   0842 37.66       -99.0 0.28                           204 310
 QABG BZ E    0   0842 33.36       498.5 0.32                           180 330
 HSB  BZ E    0   0842  0.96       -99.0 0.28                           141  27
 DMV  SZ E    0   0842 34.86      1526.3 0.32                           194  43
 SFB  BZ E    0   0842 23.38       411.8 0.32                           154  88
 HAGD BZ E    0   0842 24.74       -99.0 0.28                           143 294
 PIR  SZ E    0   0842 37.74       346.6  0.4                           182 171
 KLH  SZ E    0   0842  2.77      1061.3  0.2                           144 139
 QOM  SZ EPg  0   0841 50.6                                      0.7   75.0  37
 VRN  BZ EPg  0   0841 59.6                                      0.2    131  54
 HSB  BZ EPg  0   0842 0.4                                      -0.8    141  27
 HAGD BZ EPg  0   0842 1.4                                      -0.2    143 294
 KLH  SZ EPg  0   0842 1.5                                      -0.2    144 139
 SFB  BZ EPg  0   0842 3.0                                      -0.2    154  88
 PIR  SZ EPn  0   0842 7.6                                       0.3    182 171
 QABG BZ EPn  0   0842 7.7                                       0.8    180 330
 DMV  SZ EPn  0   0842 9.4                                       0.3    194  43
 HGHA BZ EPn  0   0842 10.7                                      0.0    204 310
 ZEF  SZ EPn  0   0842 14.2                                      0.7    226 133
 LAS  SZ EPn  0   0842 16.4                                      0.2    249  61

