 2021  320  636 33.2 L                       Teh 26 0.4 3.4LTeh                1
 GAP=      Teh                                                                 E
 Action:ARG 24-08-11 12:34 OP:OBSP STATUS:               ID:20210320063633     I
 STAT SP IPHASW D HRMM SECON CODA AMPLIT PERI AZIMU VELO AIN AR TRES W  DIS CAZ7
 PRN  SZ E    0    636 44.26     62115.0 0.12                                   
 ANJ  SZ E    0    637 32.90      4147.8 0.24                                   
 GLO  SZ E    0    637 43.00      6363.2 0.72                                   
 MZPU BZ E    0    636 52.68     48725.5 0.44                                   
 GZV  SZ E    0    637  5.02      6215.0 0.36                                   
 TEH  BZ E    0    636 57.36     49998.5 0.36                                   
 QOM  SZ E    0    637  4.30      8859.2 0.20                                   
 VRN  BZ E    0    637 13.32      5800.2 0.24                                   
 QABG BZ E    0    637 13.30      2456.9 0.24                                   
 HRS  SZ E    0    637 47.43       219.9 0.36                                   
 KLH  SZ E    0    638  1.06      1662.9 0.28                                   
 HAGD BZ E    0    637 23.24       -99.0 0.24                                   
 SRB  SZ E    0    637 40.42       638.2 0.20                                   
 PRN  SZ EPg  0    636 39.40                                    0.10   32.0  60 
 RDH  LZ EPg  0    636 40.50                                   -0.20   40.0 195 
 MZPU BE EPg  0    636 43.20                                   -0.40   56.0 313 
 DMV  SZ EPg  0    636 43.80                                   -0.10   57.0 180 
 TEH  BZ EPg  0    636 46.20                                    0.40   69.0 237 
 FIR  BN EPg  0    636 47.80                                   -0.40   83.0 127 
 PIR  SZ E    0    638 30.03       338.7 0.56                                   
 HSB  BZ EPg  0    636 51.00                                   -0.10    100 223 
 MZPU BN ESg  0    636 51.30                                    0.00   56.0 313 
 DMV  SE ESg  0    636 52.00                                    0.00   57.0 180 
 LAS  SE EPg  0    636 53.90                                    0.00    116 133 
 VRN  BZ EPg  4    636 55.20                                   -0.30    125 193 
 QOM  SZ EPg  4    637  1.00                                   -1.40    164 213 
 GZV  SZ EPn  0    637  1.40                                    0.30    166 282 
 GLO  SE EPn  0    637  2.10                                    0.70    168  74 
 HSB  BN ESg  0    637  3.60                                    0.00    100 223 
 ANJ  SZ EPn  0    637  4.50                                    0.60    184 112 
 SFB  BZ EPn  4    637  6.10                                    0.60    194 174 
 KRSH BZ EPn  4    637 11.70                                   -0.20    235 178 
 HGHA BZ EPn  0    637 19.60                                    0.30    295 258 
 ZNJK BZ EPn  0    637 20.60                                    0.20    307 283 
 MND  BZ EPn  0    637 22.90                                    0.10    326  66 
 SHRO BZ EPn  0    637 26.90                                   -0.10    359  91 
 ZEF  SZ EPn  4    637 27.00                                    0.10    356 175 
 MRVT BZ EPn  0    637 31.80                                   -0.50    401  63 
 SNQR BZ EPn  4    637 35.30                                    0.20    422 252 
 SRB  SZ EPn  0    637 36.30                                   -0.20    434 298 
 GRMI BZ EPn  4    637 40.20                                   -1.20    474 311 
 HRS  SZ EPn  4    637 45.30                                   -0.20    507 301 
 SLJL BZ EPn  0    637 50.40                                   -0.60    550  70 
                                                                                

 2021  325 13 6  3.2 L                       Teh  6 0.5 2.7LTeh                1
 GAP=      Teh                                                                 E
 Action:ARG 24-08-11 12:34 OP:OBSP STATUS:               ID:20210325130603     I
 STAT SP IPHASW D HRMM SECON CODA AMPLIT PERI AZIMU VELO AIN AR TRES W  DIS CAZ7
 HGHA BZ EPg  0   13 6  8.90                                    0.40   27.0 212 
 QABG BZ EPg  0   13 6 11.80                                   -0.80   52.0  88 
 HAGD BZ EPg  0   13 6 20.40                                    0.10   97.0 173 
 ZNJK BZ EPg  0   13 6 22.70                                   -0.10    113 345 
 GZV  SZ EPg  0   13 6 27.30                                    0.80    133  54 
 SNJK BZ EPn  0   13 6 32.60                                   -0.30    177 261 
 HGHA BZ E    0   13 6 12.58       -99.0 0.12                                   
 ZNJK BZ E    0   13 6 37.44       -99.0 0.08                                   
 QABG BN E    0   13 6 24.10       -99.0 0.20                                   
 HAGD BZ E    0   13 6 33.38       -99.0 0.12                                   
 GZV  SZ E    0   13 6 44.76      3168.4 0.16                                   
 SNJK BZ E    0   13 6 54.12       -99.0 0.24                                   
                                                                                

 2021  326  711 21.5 L                       Teh 12 0.5 3.0LTeh                1
 GAP=      Teh                                                                 E
 Action:ARG 24-08-11 12:34 OP:OBSP STATUS:               ID:20210326071121     I
 STAT SP IPHASW D HRMM SECON CODA AMPLIT PERI AZIMU VELO AIN AR TRES W  DIS CAZ7
 SRB  SZ E    0    711 45.42     11796.0 0.24                                   
 GZV  SZ E    0    712 10.20      7077.4 0.36                                   
 PRN  SZ E    0    712 44.30      1536.7 0.12                                   
 SHB  SZ E    0    712 59.19       692.4 0.40                                   
 SNJK BZ E    0    712 48.82       747.2 0.52                                   
 GRMI BZ E    0    712 12.86       -99.0 0.20                                   
 GAS1 BZ E    0    711 53.20     17218.8 0.24                                   
 MZPU BZ E    0    712 43.02       747.8 0.44                                   
 QABG BN E    0    712 25.30       -99.0 0.32                                   
 SAQZ BZ E    0    712 50.16       -99.0 0.48                                   
 GAS1 BZ EPg  0    711 38.50                                    0.60   96.0 343 
 GIDE BZ EPg  0    711 38.80                                    0.60   97.0 137 
 ZNJK BZ EPg  0    711 39.50                                   -0.30    108 204 
 SRB  SZ EPg  0    711 44.50                                    0.20    136 283 
 GZV  SZ EPg  0    711 47.60                                   -0.60    161 144 
 GRMI BZ EPg  0    711 50.00                                   -0.80    178 321 
 HRS  SE EPg  0    711 55.60                                    0.60    205 295 
 MZPU BZ EPn  0    711 58.60                                   -0.20    247 120 
 HGHA BZ EPg  0    711 59.60                                    0.30    232 187 
 SRB  SE ESg  0    712  1.20                                    0.00    136 283 
 SAQZ BZ EPn  0    712  5.20                                   -0.40    303 242 
 SNJK BZ EPn  0    712  6.20                                    0.70    302 219 
 PRN  SZ EPn  0    712  7.10                                   -0.30    318 116 
                                                                                

 2021  327 2111 18.2 L  36.480  51.900  8.2  Teh 26 0.2 3.3LTeh                1
 GAP=32    Teh             5.2     4.2  5.4                                    E
 Action:ARG 24-08-11 12:34 OP:OBSP STATUS:               ID:20210327211118     I
 STAT SP IPHASW D HRMM SECON CODA AMPLIT PERI AZIMU VELO AIN AR TRES W  DIS CAZ7
 TEH  BZ E    0   2111 47.34     16410.7 0.32                                   
 SFB  BZ E    0   2111 59.02      1792.7 0.20                                   
 FIR  BZ E    0   2111 57.86      6467.9 0.16                                   
 MND  BZ E    0   2112 57.36       854.2 0.24                                   
 QOM  SZ E    0   2111 52.20      4421.3 0.24                                   
 ANJ  SZ E    0   2112 23.04      3703.1 0.16                                   
 LAS  SZ E    0   2112  4.55      5569.4 0.44                                   
 GZV  SZ E    0   2112  6.74      7298.3 0.36                                   
 VRN  BZ E    0   2112  9.14      5370.2 0.28                                   
 TKDS BZ E    0   2114 11.74        98.3 1.20                                   
 HGHA BZ E    0   2112 14.16      1126.4 0.32                                   
 SRB  SZ E    0   2112 18.45       356.4 0.16                                   
 DMV  SZ E    0   2111 49.58      8096.3 0.32                                   
 PRN  SZ EPg  0   2111 27.00                                    0.00   48.0 125 
 KLH  SZ E    0   2113  4.41      1221.5 0.64                                   
 RDH  LZ EPg  0   2111 32.70                                    0.10   83.0 179 
 PRN  SN ESg  0   2111 33.20                                    0.00   48.0 125 
 TEH  BZ EPg  0   2111 34.30                                   -0.20   94.0 209 
 DMV  SZ EPg  0   2111 35.70                                   -0.30    102 173 
 FIR  BZ EPg  0   2111 39.20                                    0.10    122 141 
 GZV  SZ EPg  0   2111 44.20                                    0.20    151 266 
 LAS  SZ EPg  4   2111 44.90                                    0.30    156 142 
 VRN  BZ EPg  4   2111 46.40                                    0.10    167 185 
 GLO  SZ EPn  0   2111 47.80                                    0.30    173  89 
 LHJ2 BZ EPg  0   2111 48.40                                   -0.00    180 295 
 QOM  SZ EPn  0   2111 51.30                                   -0.10    198 203 
 ANJ  SZ EPn  0   2111 53.90                                    0.30    214 121 
 SFB  BZ EPn  4   2111 57.10                                    0.50    239 172 
 KRSH BZ EPn  4   2112  1.20                                   -0.60    280 176 
 HGHA BZ EPn  0   2112  3.70                                   -0.10    296 249 
 QAMS SZ EPn  4   2112  4.90                                   -0.50    309 189 
 HAGD BZ EPn  0   2112  5.80                                    0.20    311 234 
 MND  BZ EPn  0   2112  6.60                                   -0.10    322  74 
 GAS1 BZ EPn  0   2112  8.70                                   -0.60    343 309 
 KLH  SZ EPn  0   2112 11.00                                    0.10    353 185 
 ANAR BZ EPn  4   2112 17.30                                    0.40    402 155 
 SRB  SZ EPn  0   2112 17.70                                    0.50    404 293 
 HRS  SZ EPn  0   2112 26.00                                   -0.10    476 297 
 TAPT BN EPn  0   2112 29.60                                   -0.40    508 109 
 TKDS BZ EPn  4   2112 38.00                                    0.00    573 122 
 TPRV BZ EPn  4   2112 39.70                                    0.60    582 130 
                                                                                

 2021  329 2021 37.7 L  35.451  50.816 10.4  Teh 13 0.4 2.7LTeh                1
 GAP=120   Teh             5.3     4.3  5.3                                    E
 Action:ARG 24-08-11 12:34 OP:OBSP STATUS:               ID:20210329202137     I
 STAT SP IPHASW D HRMM SECON CODA AMPLIT PERI AZIMU VELO AIN AR TRES W  DIS CAZ7
 FIR  BZ E    0   2022 33.16      1043.3 0.12                                   
 VRN  BZ E    0   2021 55.46      3817.5 0.08                                   
 QABG BZ E    0   2022 14.48      1682.6 0.20                                   
 GZV  SZ E    0   2022 14.28      2170.4 0.12                                   
 QAMS SZ E    0   2022 38.62      1053.4 0.24                                   
 LAS  SZ E    0   2022 36.84       487.3 0.16                                   
 QOM  SZ E    0   2022  0.26      7667.7 0.12                                   
 DMV  SZ E    0   2022 11.40      3052.6 0.24                                   
 PRN  SZ E    0   2022 27.68      1065.8 0.60                                   
 HSB  BZ EPg  0   2021 46.00                                    0.50   42.0  91 
 KRSH BZ E    0   2022 36.66       647.9 0.28                                   
 SFB  BZ E    0   2022 31.92       727.8 0.20                                   
 QOM  SZ EPg  0   2021 50.90                                    0.60   71.0 161 
 KLH  SZ E    0   2022 48.00       416.2 0.24                                   
 VRN  BZ EPg  0   2021 54.70                                   -0.00   97.0 121 
 DMV  SZ EPg  0   2021 56.70                                   -0.60    112  82 
 QABG BZ EPg  0   2021 57.10                                   -0.70    115 285 
 GZV  SZ EPg  0   2021 58.70                                    0.60    117 333 
 QOM  SE ESg  0   2021 59.70                                    0.00   71.0 161 
 PRN  SZ EPn  0   2022  5.40                                    0.30    164  57 
 FIR  BZ EPn  0   2022  7.20                                   -0.10    178  82 
 SFB  BZ EPn  0   2022  7.30                                   -0.00    178 132 
 LAS  SZ EPn  0   2022  9.60                                   -0.40    195  92 
 QAMS SZ EPn  0   2022 10.30                                   -0.10    197 164 
 KRSH BZ EPn  0   2022 11.00                                   -0.40    204 143 
 KLH  SZ EPn  0   2022 17.30                                    0.60    246 163 
                                                                                

 2021  330  950  4.1 L  35.459  50.857  8.2  Teh 16 0.5 2.8LTeh                1
 GAP=118   Teh             4.0     3.2  4.7                                    E
 Action:ARG 24-08-11 12:34 OP:OBSP STATUS:               ID:20210330095004     I
 STAT SP IPHASW D HRMM SECON CODA AMPLIT PERI AZIMU VELO AIN AR TRES W  DIS CAZ7
 KRSH BZ E    0    951  2.80      1528.7 0.28                                   
 ZEF  SZ E    0    951 33.07       161.1 0.48                                   
 TEH  BZ E    0    950 15.52      5203.0 0.24                                   
 HSB  BZ EPg  0    950 11.50                                    0.30   38.0  93 
 QOM  SZ E    0    950 26.42     12789.6 0.16                                   
 TEH  BZ EPg  0    950 15.10                                    0.40   58.0  56 
 DMV  SZ E    0    950 37.52      6251.3 0.24                                   
 VRN  BZ E    0    950 45.46      1344.3 0.24                                   
 QOM  SZ EPg  0    950 17.20                                    0.40   71.0 165 
 HSB  BN ESg  0    950 17.50                                    0.00   38.0  93 
 QABG BZ E    0    950 41.40      1823.0 0.20                                   
 GZV  SZ E    0    950 40.44      3960.6 0.12                                   
 VRN  BZ EPg  0    950 20.90                                    0.20   94.0 123 
 DMV  SZ EPg  0    950 23.00                                    0.00    107  83 
 QABG BZ EPg  0    950 24.40                                   -0.50    119 284 
 GZV  SZ EPg  0    950 24.90                                    0.00    117 331 
 PRN  SZ E    0    950 53.62      2287.8 0.36                                   
 SFB  BZ E    0    950 57.42      1755.7 0.24                                   
 FIR  BZ E    0    950 55.62      1081.3 0.36                                   
 HGHA BZ E    0    950 58.30       947.3 0.28                                   
 LAS  SZ E    0    951  2.97      1117.1 0.16                                   
 PRN  SZ EPg  0    950 31.60                                   -0.00    159  56 
 QAMS SZ E    0    951  4.74      1935.6 0.32                                   
 SFB  BZ EPg  0    950 33.40                                   -1.10    176 134 
 FIR  BZ EPg  0    950 33.60                                   -0.40    173  83 
 HGHA BZ EPn  0    950 34.90                                    0.40    182 272 
 LAS  SZ EPn  0    950 35.80                                   -0.10    191  92 
 DMV  SN ESg  0    950 36.50                                    0.00    107  83 
 QAMS SZ EPn  0    950 36.70                                   -0.30    197 165 
 KRSH BZ EPn  0    950 37.70                                    0.10    202 144 
 ANAR BZ E    0    951 59.52        95.6 0.36                                   
 ZEF  SZ EPn  0    950 52.10                                    0.40    315 154 
 ANAR BZ EPn  0    950 57.80                                   -0.00    365 133 
                                                                                

