 2021  129 1658 36.6 L  35.639  49.877 10.9  Teh 16 0.4 2.8LTeh                1
 GAP=72    Teh            12.6    10.2 14.4                                    E
 Action:ARG 24-08-11 12:34 OP:OBSP STATUS:               ID:20210129165836     I
 STAT SP IPHASW D HRMM SECON CODA AMPLIT PERI AZIMU VELO AIN AR TRES W  DIS CAZ7
 QABG BZ EPg  0   1658 42.20                                    0.10   27.0 286 
 GZV  SZ E    0   1658 52.90      8327.7 0.08                                   
 HGHA BZ E    0   1659  5.38      4678.8 0.20                                   
 HSB  BZ E    0   1658 58.94      1080.2 0.20                                   
 GZV  SZ EPg  0   1658 52.50                                    0.10   88.0  21 
 HGHA BZ EPg  0   1658 53.10                                   -0.10   94.0 260 
 GIDE BZ E    0   1659 27.28       -99.0 0.92                                   
 HAGD BN EPg  0   1658 56.10                                   -0.40    113 217 
 ZNJK BZ E    0   1659 25.14       -99.0 0.24                                   
 QOM  SZ E    0   1659 17.70      4513.1 0.16                                   
 MZPU BZ E    0   1659 32.80      1221.5 0.36                                   
 HSB  BZ EPg  0   1658 58.50                                   -0.70    129 100 
 VRN  BZ E    0   1659 38.46       689.2 0.28                                   
 QOM  SZ EPg  0   1659  0.10                                   -0.80    140 129 
 GIDE BZ EPn  0   1659  1.00                                    0.10    142   1 
 ZNJK BZ EPg  0   1659  3.60                                   -0.10    157 317 
 GZV  SN ESg  0   1659  4.00                                    0.00   88.0  21 
 DMV  SZ E    0   1659 37.92      1321.3 0.28                                   
 MZPU BZ EPn  0   1659  6.60                                    0.40    177  59 
 VRN  BZ EPn  0   1659  7.40                                    0.20    183 112 
 DMV  SZ EPn  0   1659  8.90                                   -0.30    196  91 
 SFB  BZ E    0   1659 51.14       293.7 0.28                                   
 QAMS SZ E    0   1659 48.40       930.6 0.20                                   
 FIR  BZ E    0   1659 53.64       443.5 0.36                                   
 QAMS SZ EPn  0   1659 17.10                                    0.50    253 146 
 SFB  BZ EPn  0   1659 17.40                                    0.20    259 123 
 FIR  BZ EPn  0   1659 18.00                                    0.40    261  89 
 KRSH BZ E    0   17 0  2.40       377.6 0.52                                   
 KRSH BZ EPn  0   1659 19.80                                    0.20    278 131 
 KLH  SZ E    0   17 0  2.16       536.8 0.20                                   
 KLH  SZ EPn  0   1659 23.10                                    0.50    301 148 
                                                                                

 2021  130 1642 32.8 L                       Teh  7 0.5 2.9LTeh                1
 GAP=      Teh                                                                 E
 Action:ARG 24-08-11 12:34 OP:OBSP STATUS:               ID:20210130164232     I
 STAT SP IPHASW D HRMM SECON CODA AMPLIT PERI AZIMU VELO AIN AR TRES W  DIS CAZ7
 GZV  SN E    0   1642 58.10     21085.1 0.20                                   
 SRB  SZ E    0   1643 27.12       467.8 0.16                                   
 DMV  SZ E    0   1643 38.40       650.8 0.56                                   
 HSB  BZ E    0   1643 27.52      1984.4 0.32                                   
 CSN1 BZ E    0   1643  8.92      4421.5 0.08                                   
 LHJ2 BZ EPg  0   1642 42.00                                   -0.20   46.0 301 
 SFB  BZ E    0   1644 16.44       186.7 0.48                                   
 CSN1 BZ EPg  0   1642 58.60                                    0.70    142 299 
 HSB  BZ EPg  0   1643  4.50                                   -0.30    182 157 
 DMV  SZ EPn  0   1643  6.70                                   -0.20    205 138 
 HGHA BZ EPn  0   1643  7.70                                   -0.90    220 223 
 QOM  SZ EPn  0   1643 11.60                                    0.80    240 168 
 SRB  SZ EPn  0   1643 14.30                                   -0.40    270 292 
                                                                                

 2021  2 6  431 19.7 L                       Teh 28 0.3 3.3LTeh                1
 GAP=      Teh                                                                 E
 Action:ARG 24-08-11 12:34 OP:OBSP STATUS:               ID:20210206043119     I
 STAT SP IPHASW D HRMM SECON CODA AMPLIT PERI AZIMU VELO AIN AR TRES W  DIS CAZ7
 QABG BZ E    0    432 22.14      2735.8 0.28                                   
 VRN  BZ E    0    431 39.48     29927.3 0.28                                   
 TEH  BZ E    0    431 37.24     75314.2 0.24                                   
 LAS  SZ E    0    431 54.80     13040.9 0.20                                   
 TEHA BZ E    0    431 37.48     48028.3 0.28                                   
 GLO  SZ E    0    432 30.30      4579.2 0.68                                   
 GZV  SZ E    0    432 12.28      4807.8 0.32                                   
 SHM  SZ E    0    432  4.10       -99.0 0.24                                   
 MZPU BZ E    0    431 38.24      7717.1 0.36                                   
 BAF  SE E    0    433 34.55       234.1 0.24                                   
 PRN  SZ E    0    431 49.46     14253.5 0.20                                   
 TPRV BZ E    0    433 55.04       310.9 0.84                                   
 RAM  SZ E    0    432 31.04       354.8 0.52                                   
 HGHA BZ E    0    432 15.12      1295.8 0.32                                   
 ANAR BZ E    0    432 15.14       673.2 0.28                                   
 DMV  SZ EPg  0    431 23.60                                   -0.40   12.0  68 
 DMV  SN ESg  0    431 27.40                                    0.00   12.0  68 
 DOBD BZ E    0    432 31.18       192.7 0.32                                   
 TEH  BZ EPg  0    431 29.30                                   -0.10   53.0 297 
 TEHA BZ EPg  0    431 29.60                                    0.20   53.0 296 
 HSB  BZ EPg  0    431 30.20                                   -0.00   59.0 259 
 VRN  BZ EPg  0    431 30.80                                    0.00   62.0 196 
 FIR  BZ EPg  0    431 33.10                                   -0.20   77.0  81 
 PRN  SZ EPg  0    431 35.00                                    0.20   87.0  26 
 LAS  SZ EPg  0    431 36.30                                   -0.00   97.0 100 
 MZPU BZ EPg  0    431 37.80                                    0.10    105 343 
 QOM  SZ EPg  0    431 37.80                                   -0.40    109 225 
 SHM  SZ EPg  0    431 41.30                                   -0.10    128  76 
 SFB  BZ EPg  0    431 41.80                                   -0.50    135 167 
 GAR  SZ E    0    432 23.66       571.9 0.24                                   
 GZV  SZ EPn  0    431 48.80                                   -0.20    180 302 
 ANJ  SZ EPn  0    431 49.10                                   -0.00    182  92 
 QABG BZ EPn  0    431 52.90                                   -0.10    212 276 
 GLO  SZ EPn  4    431 53.10                                    1.30    203  58 
 HAGD BZ EPn  0    431 59.50                                    0.00    265 253 
 SHRO BZ EPn  4    432 13.00                                    0.10    374  81 
 BRJ  SZ EPn  0    432 17.20                                    0.00    407 189 
 RAM  SZ EPn  0    432 18.30                                    0.10    416 174 
 KFM  BZ EPn  0    432 21.00                                    0.50    435 240 
 TNSJ BZ EPn  0    432 23.50                                   -0.50    464 111 
 DOBD BZ EPn  0    432 24.00                                    0.30    461 148 
 TAPT BZ EPn  4    432 26.20                                   -0.30    483  97 
 TPRV BZ EPn  0    432 30.90                                   -0.10    520 121 
 TKDS BZ EPn  0    432 31.80                                    0.40    523 113 
 SBZV BZ EPn  4    432 31.90                                    0.40    523  78 
 BAF  SZ EPn  0    432 35.80                                    0.60    554 141 
                                                                                

 2021  2 7 2350 30.1 L  35.602  49.822  7.6  Teh  9 0.4 2.7LTeh                1
 GAP=89    Teh             8.5     6.9  9.5                                    E
 Action:ARG 24-08-11 12:34 OP:OBSP STATUS:               ID:20210207235030     I
 STAT SP IPHASW D HRMM SECON CODA AMPLIT PERI AZIMU VELO AIN AR TRES W  DIS CAZ7
 GZV  SZ E    0   2351  0.02     10265.9 0.12                                   
 HGHA BZ E    0   2350 59.50       -99.0 0.24                                   
 HAGD BZ E    0   2351  5.46       -99.0 0.28                                   
 QOM  SZ E    0   2351 16.08      1308.8 0.20                                   
 MZPU BZ E    0   2351 26.96       728.9 0.40                                   
 DMV  SZ E    0   2351 32.20       940.8 0.36                                   
 FIR  BZ E    0   2351 14.88       279.5 0.24                                   
 SNQR BZ E    0   2351 11.66       386.0 0.72                                   
 HGHA BZ EPg  0   2350 46.10                                    0.30   89.0 262 
 GZV  SZ EPg  0   2350 47.00                                    0.30   94.0  22 
 HAGD BZ EPg  0   2350 48.50                                   -0.30    107 216 
 HSB  BZ EPg  0   2350 53.30                                    0.20    133  97 
 QOM  SZ EPg  0   2350 54.10                                   -0.40    141 126 
 GZV  SN ESg  0   2350 59.00                                    0.00   94.0  22 
 LHJ2 BZ EPg  0   2351  0.20                                    0.00    175   7 
 MZPU BZ EPn  0   2351  1.20                                    0.50    183  59 
 DMV  SZ EPn  0   2351  4.10                                    0.60    200  90 
 SNQR BZ EPn  0   2351  6.30                                    0.60    216 248 
                                                                                

 2021  210 1948 21.4 L                       Teh 25 0.4 3.3LTeh                1
 GAP=      Teh                                                                 E
 Action:ARG 24-08-11 12:34 OP:OBSP STATUS:               ID:20210210194821     I
 STAT SP IPHASW D HRMM SECON CODA AMPLIT PERI AZIMU VELO AIN AR TRES W  DIS CAZ7
 QOM  SZ E    0   1949 36.40       964.4 0.48                                   
 DMV  SZ E    0   1949 18.60      1879.1 0.52                                   
 QABG BZ E    0   1949 18.16      1511.4 0.24                                   
 FIR  BZ E    0   1949 28.12      1058.8 0.36                                   
 ZNJK BZ E    0   1949 17.44       -99.0 0.28                                   
 LAS  SZ E    0   1949 37.88       646.0 0.40                                   
 GZV  SZ E    0   1948 52.38     12418.0 0.24                                   
 SHM  SZ E    0   1949 33.70       -99.0 0.32                                   
 GIDE BZ E    0   1948 49.30       -99.0 0.28                                   
 GAS1 BZ E    0   1948 56.90      1750.5 0.24                                   
 GLO  SZ E    0   1949  4.12      1974.5 0.28                                   
 LHJ2 BZ E    0   1948 47.96     44003.1 0.20                                   
 QAMS SZ E    0   1950  9.40       308.1 0.44                                   
 CSN1 BZ E    0   1948 50.22      8147.5 0.24                                   
 VRN  BZ E    0   1949 33.48      1517.7 0.32                                   
 GRMI BZ E    0   1949  8.74       -99.0 0.24                                   
 GIDE BZ EPg  0   1948 37.80                                    0.30   92.0 254 
 MZPU BZ EPg  0   1948 39.20                                    0.80   99.0 143 
 GZV  SZ EPg  0   1948 39.70                                    0.20    105 216 
 PRN  SZ EPg  0   1948 47.90                                   -0.60    163 128 
 CSN1 BZ EPg  0   1948 48.50                                   -0.40    167 286 
 QABG BZ EPn  0   1948 52.80                                   -0.40    200 217 
 ZNJK BZ EPn  0   1948 53.90                                    0.30    205 256 
 DMV  SZ EPg  0   1948 54.40                                   -0.40    202 150 
 GAS1 BZ EPn  0   1948 56.10                                   -0.30    228 308 
 ASTR BZ EPn  4   1948 57.70                                   -0.50    243 311 
 FIR  BZ EPn  4   1948 58.30                                    0.60    235 135 
 VRN  BZ EPn  0   1948 59.60                                    0.30    251 163 
 QOM  SZ EPn  0   1948 59.70                                   -0.40    257 177 
 SHM  SZ EPn  4   1949  1.10                                    0.40    260 124 
 GLO  SZ EPn  0   1949  1.80                                   -0.10    271 105 
 LAS  SZ EPn  4   1949  2.40                                    0.70    270 136 
 SRB  SZ EPn  0   1949  5.70                                    0.50    297 286 
 GLBA BZ EPn  0   1949  7.50                                   -0.20    320 317 
 GRMI BZ EPn  0   1949  8.20                                    0.00    322 306 
 SFB  BZ EPn  0   1949  9.50                                   -0.00    333 158 
 QAMS SZ EPn  0   1949 15.50                                   -0.30    382 173 
 SHRO BZ EPn  0   1949 27.30                                    0.20    474 104 
 SBZV BZ EPn  0   1949 43.80                                    0.50    604  96 
 SLJL BZ EPn  0   1949 45.00                                   -0.40    621  83 
 KRD  SZ EPn  0   1950  4.00                                    0.40    767  91 
                                                                                

 2021  212 1043 22.3 L  35.916  53.273  7.0  Teh 17 0.3 2.8LTeh                1
 GAP=92    Teh             1.4     1.1  1.8                                    E
 Action:ARG 24-08-11 12:34 OP:OBSP STATUS:               ID:20210212104322     I
 STAT SP IPHASW D HRMM SECON CODA AMPLIT PERI AZIMU VELO AIN AR TRES W  DIS CAZ7
 ANJ  SZ E    0   1043 46.12      5855.7 0.12                                   
 PRN  SZ E    0   1043 52.90      7935.2 0.24                                   
 LAS  SZ E    0   1043 45.95      3912.7 0.16                                   
 QOM  SZ E    0   1044  2.56      1058.7 0.16                                   
 DMV  SZ E    0   1044  3.94      2046.6 0.32                                   
 GLO  SZ E    0   1043 50.02      5167.1 0.24                                   
 VRN  BZ E    0   1043 53.06      2377.2 0.36                                   
 SFB  BZ E    0   1044 20.74      1064.5 0.28                                   
 QAMS SZ E    0   1044 10.14       477.5 0.36                                   
 HSB  BZ E    0   1043 58.96       739.8 0.28                                   
 SHM  SZ EPg  0   1043 25.60                                    0.10   13.0 173 
 GZV  SZ E    0   1044 46.06       841.5 0.40                                   
 ANAR BZ E    0   1045  1.98       226.1 0.40                                   
 MZPU BZ E    0   1044 12.86      1676.2 0.32                                   
 KRSH BZ E    0   1044 34.90      1418.8 0.32                                   
 FIR  BZ EPg  0   1043 32.50                                    0.00   56.0 236 
 LAS  SZ EPg  0   1043 34.30                                    0.20   66.0 205 
 ANJ  SZ EPg  0   1043 35.80                                   -0.20   77.0 130 
 GLO  SZ EPg  0   1043 36.70                                   -0.20   82.0  38 
 PRN  SZ EPg  0   1043 38.10                                   -0.20   91.0 293 
 DMV  SZ EPg  0   1043 42.80                                   -0.20    117 251 
 MZPU BZ EPg  0   1043 50.50                                    0.10    163 291 
 VRN  BZ EPg  0   1043 52.10                                   -0.10    173 234 
 HSB  BZ EPn  0   1043 53.80                                    0.20    188 254 
 SFB  BZ EPn  0   1043 55.20                                    0.10    198 208 
 QOM  SZ EPn  0   1044  0.40                                    0.60    233 240 
 KRSH BZ EPn  0   1044  0.80                                    0.10    240 206 
 SHRO BZ EPn  0   1044  2.10                                    0.50    247  87 
 QAMS SZ EPn  0   1044  7.60                                   -0.20    297 216 
 GZV  SZ EPn  2   1044  8.10                                    2.50    279 282 
 ANAR BZ EPn  0   1044  8.60                                   -0.30    306 172 
                                                                                

 2021  218  841 36.7 L                       Teh 12 0.5 2.5LTeh                1
 GAP=      Teh                                                                 E
 Action:ARG 24-08-11 12:34 OP:OBSP STATUS:               ID:20210218084136     I
 STAT SP IPHASW D HRMM SECON CODA AMPLIT PERI AZIMU VELO AIN AR TRES W  DIS CAZ7
 QOM  SZ E    0    842  4.70      1630.1 0.24                                   
 VRN  BZ E    0    842 17.92       976.2 0.28                                   
 ZEF  SZ E    0    842 44.19       164.3 0.28                                   
 HGHA BZ E    0    842 37.66       -99.0 0.28                                   
 QABG BZ E    0    842 33.36       498.5 0.32                                   
 HSB  BZ E    0    842  0.96       -99.0 0.28                                   
 DMV  SZ E    0    842 34.86      1526.3 0.32                                   
 SFB  BZ E    0    842 23.38       411.8 0.32                                   
 HAGD BZ E    0    842 24.74       -99.0 0.28                                   
 PIR  SZ E    0    842 37.74       346.6 0.40                                   
 KLH  SZ E    0    842  2.77      1061.3 0.20                                   
 QOM  SZ EPg  0    841 50.60                                    0.70   75.0  37 
 VRN  BZ EPg  0    841 59.60                                    0.20    131  54 
 HSB  BZ EPg  0    842  0.40                                   -0.80    141  27 
 HAGD BZ EPg  0    842  1.40                                   -0.20    143 294 
 KLH  SZ EPg  0    842  1.50                                   -0.20    144 139 
 SFB  BZ EPg  0    842  3.00                                   -0.20    154  88 
 PIR  SZ EPn  0    842  7.60                                    0.30    182 171 
 QABG BZ EPn  0    842  7.70                                    0.80    180 330 
 DMV  SZ EPn  0    842  9.40                                    0.30    194  43 
 HGHA BZ EPn  0    842 10.70                                    0.00    204 310 
 ZEF  SZ EPn  0    842 14.20                                    0.70    226 133 
 LAS  SZ EPn  0    842 16.40                                    0.20    248  61 
                                                                                

