 2021 0325 1306  3.2 L  35.692  49.013 10.0  Teh  6 0.5 2.7LTeh                1
 GAP=85                                                                        E
 Iranian Seismological Center, Institute of Geophysics, University of Tehran   6
 STAT SP IPHASW D HRMM SECON CODA AMPLIT PERI AZIMU VELO SNR AR TRES  W DIS CAZ7
 HGHA BZ EPg  0   1306 8.9                                       0.4   27.0 212
 QABG BZ EPg  0   1306 11.8                                     -0.8   52.0  88
 HAGD BZ EPg  0   1306 20.4                                      0.1   97.0 173
 ZNJK BZ EPg  0   1306 22.7                                     -0.1    113 345
 GZV  SZ EPg  0   1306 27.3                                      0.8    133  54
 SNJK BZ EPn  0   1306 32.6                                     -0.3    177 261
 HGHA BZ E    0   1306 12.58       -99.0 0.12                          27.0 212
 ZNJK BZ E    0   1306 37.44       -99.0 0.08                           113 345
 QABG BN E    0   1306 24.10       -99.0  0.2                          52.0  88
 HAGD BZ E    0   1306 33.38       -99.0 0.12                          97.0 173
 GZV  SZ E    0   1306 44.76      3168.4 0.16                           133  54
 SNJK BZ E    0   1306 54.12       -99.0 0.24                           177 261

 2021 0326 0711 21.5 L  37.564  49.168 22.4  Teh 14 0.5 3.0LTeh                1
 GAP=133                                                                       E
 Iranian Seismological Center, Institute of Geophysics, University of Tehran   6
 STAT SP IPHASW D HRMM SECON CODA AMPLIT PERI AZIMU VELO SNR AR TRES  W DIS CAZ7
 SRB  SZ E    0   0711 45.42     11796.0 0.24                           136 283
 GZV  SZ E    0   0712 10.20      7077.4 0.36                           161 144
 PRN  SZ E    0   0712 44.30      1536.7 0.12                           318 116
 SHB  SZ E    0   0712 59.19       692.4  0.4                           322 285
 SNJK BZ E    0   0712 48.82       747.2 0.52                           302 219
 GRMI BZ E    0   0712 12.86       -99.0  0.2                           178 321
 GAS1 BZ E    0   0711 53.20     17218.8 0.24                          96.0 343
 MZPU BZ E    0   0712 43.02       747.8 0.44                           247 120
 QABG BN E    0   0712 25.30       -99.0 0.32                           209 170
 SAQZ BZ E    0   0712 50.16       -99.0 0.48                           303 242
 GAS1 BZ EPg  0   0711 38.5                                      0.6   96.0 343
 GIDE BZ EPg  0   0711 38.8                                      0.6   97.0 137
 ZNJK BZ EPg  0   0711 39.5                                     -0.3    108 204
 SRB  SZ EPg  0   0711 44.5                                      0.2    136 283
 GZV  SZ EPg  0   0711 47.6                                     -0.6    161 144
 GRMI BZ EPg  0   0711 50.0                                     -0.8    178 321
 HRS  SE EPg  0   0711 55.6                                      0.6    205 295
 MZPU BZ EPn  0   0711 58.6                                     -0.2    247 120
 HGHA BZ EPg  0   0711 59.6                                      0.3    232 187
 SRB  SE ESg  0   0712 1.2                                       0.0    136 283
 SAQZ BZ EPn  0   0712 5.2                                      -0.4    303 242
 SNJK BZ EPn  0   0712 6.2                                       0.7    302 219
 PRN  SZ EPn  0   0712 7.1                                      -0.3    318 116

 2021 0327 2111 18.3 L  36.490  51.900  7.8  Teh 26 0.2 3.3LTeh                1
 GAP=125                                                                       E
 Iranian Seismological Center, Institute of Geophysics, University of Tehran   6
 STAT SP IPHASW D HRMM SECON CODA AMPLIT PERI AZIMU VELO SNR AR TRES  W DIS CAZ7
 TEH  BZ E    0   2111 47.34     16410.7 0.32                          94.0 209
 SFB  BZ E    0   2111 59.02      1792.7  0.2                           239 172
 FIR  BZ E    0   2111 57.86      6467.9 0.16                           122 141
 MND  BZ E    0   2112 57.36       854.2 0.24                           322  74
 QOM  SZ E    0   2111 52.20      4421.3 0.24                           198 203
 ANJ  SZ E    0   2112 23.04      3703.1 0.16                           214 121
 LAS  SZ E    0   2112  4.55      5569.4 0.44                           156 142
 GZV  SZ E    0   2112  6.74      7298.3 0.36                           151 266
 VRN  BZ E    0   2112  9.14      5370.2 0.28                           167 185
 TKDS BZ E    0   2114 11.74        98.3  1.2                           573 122
 HGHA BZ E    0   2112 14.16      1126.4 0.32                           296 249
 SRB  SZ E    0   2112 18.45       356.4 0.16                           404 293
 DMV  SZ E    0   2111 49.58      8096.3 0.32                           102 173
 PRN  SZ EPg  0   2111 27.0                                      0.0   48.0 125
 KLH  SZ E    0   2113  4.41      1221.5 0.64                           353 185
 RDH  LZ EPg  0   2111 32.7                                      0.1   83.0 179
 PRN  SN ESg  0   2111 33.2                                      0.0   48.0 125
 TEH  BZ EPg  0   2111 34.3                                     -0.2   94.0 209
 DMV  SZ EPg  0   2111 35.7                                     -0.3    102 173
 FIR  BZ EPg  0   2111 39.2                                      0.1    122 141
 GZV  SZ EPg  0   2111 44.2                                      0.2    151 266
 LAS  SZ EPg  4   2111 44.9                                      0.3    156 142
 VRN  BZ EPg  4   2111 46.4                                      0.1    167 185
 GLO  SZ EPn  0   2111 47.8                                      0.3    173  89
 LHJ2 BZ EPg  0   2111 48.4                                     -0.0    180 295
 QOM  SZ EPn  0   2111 51.3                                     -0.1    198 203
 ANJ  SZ EPn  0   2111 53.9                                      0.3    214 121
 SFB  BZ EPn  4   2111 57.1                                      0.5    239 172
 KRSH BZ EPn  4   2112 1.2                                      -0.6    280 176
 HGHA BZ EPn  0   2112 3.7                                      -0.1    296 249
 QAMS SZ EPn  4   2112 4.9                                      -0.5    309 189
 HAGD BZ EPn  0   2112 5.8                                       0.2    311 234
 MND  BZ EPn  0   2112 6.6                                      -0.1    322  74
 GAS1 BZ EPn  0   2112 8.7                                      -0.6    343 309
 KLH  SZ EPn  0   2112 11.0                                      0.1    353 185
 ANAR BZ EPn  4   2112 17.3                                      0.4    402 155
 SRB  SZ EPn  0   2112 17.7                                      0.5    404 293
 HRS  SZ EPn  0   2112 26.0                                     -0.1    476 297
 TAPT BN EPn  0   2112 29.6                                     -0.4    508 109
 TKDS BZ EPn  4   2112 38.0                                      0.0    573 122
 TPRV BZ EPn  4   2112 39.7                                      0.6    582 130

 2021 0329 2021 37.7 L  35.447  50.810 10.5  Teh 13 0.4 2.7LTeh                1
 GAP=121                                                                       E
 Iranian Seismological Center, Institute of Geophysics, University of Tehran   6
 STAT SP IPHASW D HRMM SECON CODA AMPLIT PERI AZIMU VELO SNR AR TRES  W DIS CAZ7
 FIR  BZ E    0   2022 33.16      1043.3 0.12                           178  82
 VRN  BZ E    0   2021 55.46      3817.5 0.08                          97.0 121
 QABG BZ E    0   2022 14.48      1682.6  0.2                           115 285
 GZV  SZ E    0   2022 14.28      2170.4 0.12                           117 333
 QAMS SZ E    0   2022 38.62      1053.4 0.24                           197 164
 LAS  SZ E    0   2022 36.84       487.3 0.16                           195  92
 QOM  SZ E    0   2022  0.26      7667.7 0.12                          71.0 161
 DMV  SZ E    0   2022 11.40      3052.6 0.24                           112  82
 PRN  SZ E    0   2022 27.68      1065.8  0.6                           164  57
 HSB  BZ EPg  0   2021 46.0                                      0.5   42.0  91
 KRSH BZ E    0   2022 36.66       647.9 0.28                           204 143
 SFB  BZ E    0   2022 31.92       727.8  0.2                           178 132
 QOM  SZ EPg  0   2021 50.9                                      0.6   71.0 161
 KLH  SZ E    0   2022 48.00       416.2 0.24                           246 163
 VRN  BZ EPg  0   2021 54.7                                     -0.0   97.0 121
 DMV  SZ EPg  0   2021 56.7                                     -0.6    112  82
 QABG BZ EPg  0   2021 57.1                                     -0.7    115 285
 GZV  SZ EPg  0   2021 58.7                                      0.6    117 333
 QOM  SE ESg  0   2021 59.7                                      0.0   71.0 161
 PRN  SZ EPn  0   2022 5.4                                       0.3    164  57
 FIR  BZ EPn  0   2022 7.2                                      -0.1    178  82
 SFB  BZ EPn  0   2022 7.3                                      -0.0    178 132
 LAS  SZ EPn  0   2022 9.6                                      -0.4    195  92
 QAMS SZ EPn  0   2022 10.3                                     -0.1    197 164
 KRSH BZ EPn  0   2022 11.0                                     -0.4    204 143
 KLH  SZ EPn  0   2022 17.3                                      0.6    246 163

 2021 0330 0950  4.1 L  35.457  50.859  9.6  Teh 16 0.5 2.8LTeh                1
 GAP=107                                                                       E
 Iranian Seismological Center, Institute of Geophysics, University of Tehran   6
 STAT SP IPHASW D HRMM SECON CODA AMPLIT PERI AZIMU VELO SNR AR TRES  W DIS CAZ7
 KRSH BZ E    0   0951  2.80      1528.7 0.28                           202 144
 ZEF  SZ E    0   0951 33.07       161.1 0.48                           315 154
 TEH  BZ E    0   0950 15.52      5203.0 0.24                          58.0  56
 HSB  BZ EPg  0   0950 11.5                                      0.3   38.0  93
 QOM  SZ E    0   0950 26.42     12789.6 0.16                          71.0 165
 TEH  BZ EPg  0   0950 15.1                                      0.4   58.0  56
 DMV  SZ E    0   0950 37.52      6251.3 0.24                           107  83
 VRN  BZ E    0   0950 45.46      1344.3 0.24                          94.0 123
 QOM  SZ EPg  0   0950 17.2                                      0.4   71.0 165
 HSB  BN ESg  0   0950 17.5                                      0.0   38.0  93
 QABG BZ E    0   0950 41.40      1823.0  0.2                           119 284
 GZV  SZ E    0   0950 40.44      3960.6 0.12                           118 331
 VRN  BZ EPg  0   0950 20.9                                      0.2   94.0 123
 DMV  SZ EPg  0   0950 23.0                                      0.0    107  83
 QABG BZ EPg  0   0950 24.4                                     -0.5    119 284
 GZV  SZ EPg  0   0950 24.9                                      0.0    118 331
 PRN  SZ E    0   0950 53.62      2287.8 0.36                           159  56
 SFB  BZ E    0   0950 57.42      1755.7 0.24                           176 134
 FIR  BZ E    0   0950 55.62      1081.3 0.36                           173  83
 HGHA BZ E    0   0950 58.30       947.3 0.28                           182 272
 LAS  SZ E    0   0951  2.97      1117.1 0.16                           191  92
 PRN  SZ EPg  0   0950 31.6                                     -0.0    159  56
 QAMS SZ E    0   0951  4.74      1935.6 0.32                           197 165
 SFB  BZ EPg  0   0950 33.4                                     -1.1    176 134
 FIR  BZ EPg  0   0950 33.6                                     -0.4    173  83
 HGHA BZ EPn  0   0950 34.9                                      0.4    182 272
 LAS  SZ EPn  0   0950 35.8                                     -0.1    191  92
 DMV  SN ESg  0   0950 36.5                                      0.0    107  83
 QAMS SZ EPn  0   0950 36.7                                     -0.3    197 165
 KRSH BZ EPn  0   0950 37.7                                      0.1    202 144
 ANAR BZ E    0   0951 59.52        95.6 0.36                           365 133
 ZEF  SZ EPn  0   0950 52.1                                      0.4    315 154
 ANAR BZ EPn  0   0950 57.8                                     -0.0    365 133

 2021 0331 0124 57.8 L  35.452  50.880  9.3  Teh 29 0.4 3.4LTeh                1
 GAP=147                                                                       E
 Iranian Seismological Center, Institute of Geophysics, University of Tehran   6
 STAT SP IPHASW D HRMM SECON CODA AMPLIT PERI AZIMU VELO SNR AR TRES  W DIS CAZ7
 DMV  SZ E    0   0125 31.04     26658.4 0.24                           105  82
 GZV  SZ E    0   0125 34.00     12761.0 0.12                           120 330
 PRN  SZ E    0   0125 47.44     10610.3  0.4                           158  56
 LAS  SZ E    0   0125 56.41      4225.0 0.12                           189  92
 GLO  SZ E    0   0126 40.02      1292.6 0.68                           290  65
 SFB  BZ E    0   0125 50.94     10382.9 0.32                           174 134
 QOM  SZ E    0   0125 19.96     53185.7  0.2                          70.0 166
 ANJ  SZ E    0   0126 19.39      1982.3 0.24                           275  89
 FIR  BZ E    0   0125 53.68      5657.2 0.28                           171  82
 LHJ2 BZ E    0   0125 32.96      7094.1 0.24                           204 339
 KFM  BZ E    0   0126 48.98       479.5 0.88                           351 233
 ANAR BZ E    0   0126 53.08       489.2 0.36                           363 133
 PIR  SZ E    0   0126 25.72      1416.7 0.84                           307 180
 ZEF  SZ E    0   0126 26.03       818.9 0.48                           313 154
 DOBD BZ E    0   0126 10.24       273.8 0.28                           510 138
 CHK  SZ E    0   0126 29.29       217.8  0.4                           483 136
 RAM  SZ E    0   0126 18.34       244.0 0.56                           427 161
 QOM  SZ EPg  0   0125 10.7                                      0.5   70.0 166
 VRN  BZ EPg  0   0125 14.4                                      0.4   92.0 123
 DMV  SZ EPg  0   0125 16.3                                      0.0    105  82
 GZV  SZ EPg  0   0125 18.5                                     -0.2    120 330
 QOM  SN ESg  0   0125 19.3                                      0.0   70.0 166
 PRN  SZ EPg  0   0125 24.9                                     -0.1    158  56
 FIR  BZ EPg  0   0125 27.1                                     -0.3    171  82
 LAS  SZ EPn  0   0125 29.2                                     -0.0    189  92
 QAMS SZ EPn  0   0125 30.2                                     -0.2    196 166
 KRSH BZ EPn  0   0125 30.6                                     -0.4    201 145
 LHJ2 BZ EPn  0   0125 32.0                                      0.7    204 339
 KLH  SZ EPn  4   0125 37.2                                      0.5    245 165
 ANJ  SZ EPn  4   0125 40.4                                     -0.0    275  89
 ZEF  SZ EPn  4   0125 45.2                                     -0.0    313 154
 ANAR BZ EPn  0   0125 51.5                                      0.3    363 133
 BAF  SZ E    0   0126 22.95       221.0  0.2                           611 133
 SRB  SZ EPn  0   0125 54.2                                     -0.5    390 313
 CHK  SZ EPn  4   0126 6.1                                      -0.0    483 136
 DOBD BZ EPn  4   0126 9.8                                       0.3    510 138
 TSHB BZ EPn  4   0126 14.5                                      0.3    549 109
 MEH  SZ EPn  4   0126 16.6                                     -0.2    569 141
 TAPT BZ EPn  4   0126 17.1                                     -0.5    575  94
 TPRV BZ EPn  4   0126 20.6                                      0.2    598 115
 TKDS BZ EPn  4   0126 22.2                                      0.6    608 108
 BAF  SZ EPn  4   0126 22.4                                      0.4    611 133
 AFRZ BZ EPn  4   0126 43.3                                      0.3    780 104

 2021 0401 2048 45.9 L  36.393  51.577 15.9  Teh 25 0.4 3.2LTeh                1
 GAP=78                                                                        E
 Iranian Seismological Center, Institute of Geophysics, University of Tehran   6
 STAT SP IPHASW D HRMM SECON CODA AMPLIT PERI AZIMU VELO SNR AR TRES  W DIS CAZ7
 KLH  SZ E    0   2049 44.07       842.7 0.28                           341 180
 ANJ  SZ E    0   2049 24.72      1321.2 0.28                           235 115
 GZV  SZ E    0   2049 24.06     11031.0 0.32                           122 270
 TEH  BZ E    0   2049  8.62     30903.6 0.36                          73.0 193
 LAS  SZ E    0   2049 37.40      2199.5  0.6                           168 132
 PRN  SZ E    0   2049  8.78     40092.1 0.16                          70.0 104
 HGHA BZ E    0   2049 35.98      1204.3 0.48                           265 249
 FIR  BZ E    0   2049 29.88      3146.0 0.64                           135 128
 QABG BZ E    0   2049 41.40      2266.1 0.36                           195 248
 SFB  BZ E    0   2049 24.72      1155.1  0.2                           234 165
 GRMI BZ E    0   2049 54.08       -99.0 0.36                           421 311
 PIR  SZ E    0   2050 42.77       255.1 0.48                           416 189
 MZPU BE EPg  0   2048 49.5                                      0.3    5.0 351
 PRN  SZ EPg  0   2048 58.6                                      0.2   70.0 104
 TEH  BZ EPg  0   2048 58.9                                     -0.0   73.0 193
 SRB  SZ E    0   2049 50.02       386.8 0.28                           382 296
 DMV  SZ EPg  0   2049 3.0                                      -0.2   99.0 155
 HSB  BZ EPg  0   2049 4.8                                       0.1    109 194
 GZV  SZ EPg  0   2049 6.7                                      -0.2    122 270
 FIR  BE EPg  0   2049 9.0                                       0.0    135 128
 VRN  BZ EPg  0   2049 12.3                                      0.0    156 175
 LAS  SZ EPg  4   2049 14.6                                      0.3    168 132
 QOM  SZ EPg  0   2049 15.6                                     -0.3    178 195
 GLO  SZ EPn  0   2049 18.8                                      0.2    202  86
 GZV  SN ESg  0   2049 22.5                                      0.0    122 270
 SFB  BZ EPn  4   2049 23.1                                      0.8    234 165
 ZNJK BZ EPn  0   2049 26.0                                      0.5    261 278
 HGHA BZ EPn  0   2049 26.8                                      0.4    265 249
 KRSH BZ EPn  4   2049 27.8                                      0.5    274 169
 QAMS SZ EPn  4   2049 30.8                                      0.7    295 183
 KLH  SZ EPn  4   2049 36.7                                      0.9    341 180
 SRB  SZ EPn  0   2049 41.4                                      0.5    382 296
 ANAR BZ EPn  4   2049 44.6                                      0.8    406 150
 GRMI BZ EPn  0   2049 44.9                                     -0.7    421 311
 MRVT BZ EPn  0   2049 45.3                                     -0.7    425  69
 SLJL BZ EPn  0   2050 5.5                                       0.2    579  74

