 2021  331  124 57.8 L  35.456  50.874  8.8  Teh 24 0.4 3.4LTeh                1
 GAP=164   Teh             4.2     3.4  3.9                                    E
 Action:ARG 24-08-11 12:34 OP:OBSP STATUS:               ID:20210331012457     I
 STAT SP IPHASW D HRMM SECON CODA AMPLIT PERI AZIMU VELO AIN AR TRES W  DIS CAZ7
 DMV  SZ E    0    125 31.04     26658.4 0.24                                   
 GZV  SZ E    0    125 34.00     12761.0 0.12                                   
 PRN  SZ E    0    125 47.44     10610.3 0.40                                   
 LAS  SZ E    0    125 56.41      4225.0 0.12                                   
 GLO  SZ E    0    126 40.02      1292.6 0.68                                   
 SFB  BZ E    0    125 50.94     10382.9 0.32                                   
 QOM  SZ E    0    125 19.96     53185.7 0.20                                   
 ANJ  SZ E    0    126 19.39      1982.3 0.24                                   
 FIR  BZ E    0    125 53.68      5657.2 0.28                                   
 LHJ2 BZ E    0    125 32.96      7094.1 0.24                                   
 KFM  BZ E    0    126 48.98       479.5 0.88                                   
 ANAR BZ E    0    126 53.08       489.2 0.36                                   
 PIR  SZ E    0    126 25.72      1416.7 0.84                                   
 ZEF  SZ E    0    126 26.03       818.9 0.48                                   
 DOBD BZ E    0    126 10.24       273.8 0.28                                   
 CHK  SZ E    0    126 29.29       217.8 0.40                                   
 RAM  SZ E    0    126 18.34       244.0 0.56                                   
 QOM  SZ EPg  0    125 10.70                                    0.50   70.0 166 
 VRN  BZ EPg  0    125 14.40                                    0.40   92.0 123 
 DMV  SZ EPg  0    125 16.30                                    0.00    105  82 
 GZV  SZ EPg  0    125 18.50                                   -0.20    120 330 
 QOM  SN ESg  0    125 19.30                                    0.00   70.0 166 
 PRN  SZ EPg  0    125 24.90                                   -0.10    158  56 
 FIR  BZ EPg  0    125 27.10                                   -0.30    171  82 
 LAS  SZ EPn  0    125 29.20                                   -0.00    189  92 
 QAMS SZ EPn  0    125 30.20                                   -0.20    196 166 
 KRSH BZ EPn  0    125 30.60                                   -0.40    201 145 
 LHJ2 BZ EPn  0    125 32.00                                    0.70    204 339 
 KLH  SZ EPn  4    125 37.20                                    0.50    245 165 
 ANJ  SZ EPn  4    125 40.40                                   -0.00    275  89 
 ZEF  SZ EPn  4    125 45.20                                   -0.00    313 154 
 ANAR BZ EPn  0    125 51.50                                    0.30    363 133 
 BAF  SZ E    0    126 22.95       221.0 0.20                                   
 SRB  SZ EPn  0    125 54.20                                   -0.50    390 313 
 CHK  SZ EPn  4    126  6.10                                   -0.00    483 136 
 DOBD BZ EPn  4    126  9.80                                    0.30    509 138 
 TSHB BZ EPn  4    126 14.50                                    0.30    549 109 
 MEH  SZ EPn  4    126 16.60                                   -0.20    569 141 
 TAPT BZ EPn  4    126 17.10                                   -0.50    575  94 
 TPRV BZ EPn  4    126 20.60                                    0.20    598 115 
 TKDS BZ EPn  4    126 22.20                                    0.60    608 108 
 BAF  SZ EPn  4    126 22.40                                    0.40    611 133 
 AFRZ BZ EPn  4    126 43.30                                    0.30    780 104 
                                                                                

 2021  4 1 2048 45.9 L                       Teh 22 0.4 3.2LTeh                1
 GAP=      Teh                                                                 E
 Action:ARG 24-08-11 12:34 OP:OBSP STATUS:               ID:20210401204845     I
 STAT SP IPHASW D HRMM SECON CODA AMPLIT PERI AZIMU VELO AIN AR TRES W  DIS CAZ7
 KLH  SZ E    0   2049 44.07       842.7 0.28                                   
 ANJ  SZ E    0   2049 24.72      1321.2 0.28                                   
 GZV  SZ E    0   2049 24.06     11031.0 0.32                                   
 TEH  BZ E    0   2049  8.62     30903.6 0.36                                   
 LAS  SZ E    0   2049 37.40      2199.5 0.60                                   
 PRN  SZ E    0   2049  8.78     40092.1 0.16                                   
 HGHA BZ E    0   2049 35.98      1204.3 0.48                                   
 FIR  BZ E    0   2049 29.88      3146.0 0.64                                   
 QABG BZ E    0   2049 41.40      2266.1 0.36                                   
 SFB  BZ E    0   2049 24.72      1155.1 0.20                                   
 GRMI BZ E    0   2049 54.08       -99.0 0.36                                   
 PIR  SZ E    0   2050 42.77       255.1 0.48                                   
 MZPU BE EPg  0   2048 49.50                                    0.30   5.00 351 
 PRN  SZ EPg  0   2048 58.60                                    0.20   70.0 104 
 TEH  BZ EPg  0   2048 58.90                                   -0.00   73.0 193 
 SRB  SZ E    0   2049 50.02       386.8 0.28                                   
 DMV  SZ EPg  0   2049  3.00                                   -0.20   99.0 155 
 HSB  BZ EPg  0   2049  4.80                                    0.10    109 194 
 GZV  SZ EPg  0   2049  6.70                                   -0.20    122 270 
 FIR  BE EPg  0   2049  9.00                                    0.00    135 128 
 VRN  BZ EPg  0   2049 12.30                                    0.00    156 175 
 LAS  SZ EPg  4   2049 14.60                                    0.30    168 132 
 QOM  SZ EPg  0   2049 15.60                                   -0.30    178 195 
 GLO  SZ EPn  0   2049 18.80                                    0.20    202  86 
 GZV  SN ESg  0   2049 22.50                                    0.00    122 270 
 SFB  BZ EPn  4   2049 23.10                                    0.80    234 165 
 ZNJK BZ EPn  0   2049 26.00                                    0.50    261 278 
 HGHA BZ EPn  0   2049 26.80                                    0.40    265 249 
 KRSH BZ EPn  4   2049 27.80                                    0.50    274 169 
 QAMS SZ EPn  4   2049 30.80                                    0.70    295 183 
 KLH  SZ EPn  4   2049 36.70                                    0.90    341 180 
 SRB  SZ EPn  0   2049 41.40                                    0.50    382 296 
 ANAR BZ EPn  4   2049 44.60                                    0.80    406 150 
 GRMI BZ EPn  0   2049 44.90                                   -0.70    421 311 
 MRVT BZ EPn  0   2049 45.30                                   -0.70    425  69 
 SLJL BZ EPn  0   2050  5.50                                    0.20    579  74 
                                                                                

 2021  4 2 1633 33.8 L  36.430  51.000  8.3  Teh 14 0.4 2.6LTeh                1
 GAP=88    Teh             7.5     6.0  5.7                                    E
 Action:ARG 24-08-11 12:34 OP:OBSP STATUS:               ID:20210402163333     I
 STAT SP IPHASW D HRMM SECON CODA AMPLIT PERI AZIMU VELO AIN AR TRES W  DIS CAZ7
 PRN  SZ E    0   1634 18.60      2804.9 0.48                                   
 SFB  BZ E    0   1634 16.62       225.1 0.44                                   
 MZPU BZ EPg  0   1633 42.90                                   -0.40   51.0  89 
 GZV  SZ E    0   1633 56.78      4887.4 0.12                                   
 GZV  SZ EPg  0   1633 46.70                                    0.20   70.0 266 
 HSB  BZ E    0   1633 54.78      1078.6 0.20                                   
 MZPU BN ESg  0   1633 50.90                                    0.00   51.0  89 
 HSB  BZ EPg  0   1633 53.70                                    0.10    113 167 
 PRN  SZ EPg  0   1633 54.70                                   -0.40    122 100 
 VRN  BZ E    0   1634 27.20      1532.3 0.44                                   
 GZV  SN ESg  0   1633 56.20                                    0.00   70.0 266 
 DMV  SZ EPg  0   1633 57.30                                    0.30    133 135 
 FIR  BZ E    0   1634 29.60       230.0 0.32                                   
 QOM  SZ E    0   1634  4.84       945.7 0.20                                   
 VRN  BZ EPg  0   1634  3.30                                   -0.30    172 157 
 QOM  SZ EPg  0   1634  3.60                                   -0.70    176 178 
 GLO  SZ E    0   1634 59.20       554.3 0.52                                   
 ZNJK BZ E    0   1634 35.90       -99.0 0.32                                   
 FIR  BZ EPg  0   1634  5.30                                    0.30    181 118 
 HGHA BZ E    0   1634 42.30       421.8 0.32                                   
 ZNJK BZ EPn  0   1634  8.00                                   -0.20    209 278 
 LAS  SN EPn  0   1634  9.50                                    0.70    212 123 
 HGHA BZ EPn  0   1634 10.30                                    0.40    220 242 
 GLO  SZ EPn  0   1634 13.50                                   -0.50    254  87 
 SFB  BZ EPn  0   1634 14.80                                    0.50    257 154 
 KRSH BZ E    0   1634 58.64       408.0 0.36                                   
 KRSH BZ EPn  0   1634 19.40                                    0.60    292 159 
 KLH  SZ E    0   1634 34.96       114.2 0.32                                   
                                                                                

 2021  4 6  2 0 54.4 L                       Teh 11 0.4 2.6LTeh                1
 GAP=      Teh                                                                 E
 Action:ARG 24-08-11 12:34 OP:OBSP STATUS:               ID:20210406020054     I
 STAT SP IPHASW D HRMM SECON CODA AMPLIT PERI AZIMU VELO AIN AR TRES W  DIS CAZ7
 VRN  BZ E    0    2 1 24.48     10642.2 0.08                                   
 GZV  SZ E    0    2 1 51.34       681.2 0.12                                   
 FIR  BZ E    0    2 1 55.90       622.3 0.32                                   
 LAS  SZ E    0    2 1 57.56       577.0 0.24                                   
 DMV  SZ E    0    2 1 40.44       826.9 0.16                                   
 KLH  SZ E    0    2 1 44.69      1449.7 0.16                                   
 HGHA BZ E    0    2 1 51.04       725.4 0.32                                   
 QOM  SZ EPg  0    2 1  1.80                                    0.70   35.0  54 
 QOM  SN ESg  0    2 1  6.50                                    0.00   35.0  54 
 VRN  BZ EPg  0    2 1 11.50                                    0.40   97.0  67 
 HSB  BZ EPg  0    2 1 11.50                                    0.00   99.0  29 
 SFB  BZ EPg  0    2 1 17.80                                   -0.50    141 103 
 KRSH BZ EPg  0    2 1 19.10                                   -0.50    148 120 
 HAGD BZ EPg  0    2 1 19.50                                   -0.20    149 278 
 DMV  SZ EPg  0    2 1 19.90                                   -0.80    155  48 
 KLH  SZ EPn  0    2 1 22.70                                    0.70    167 153 
 HGHA BZ EPn  0    2 1 26.40                                    0.10    196 299 
 GZV  SZ EPn  0    2 1 26.70                                    0.10    198 346 
 FIR  BZ EPn  0    2 1 28.40                                   -0.10    213  58 
                                                                                

 2021  4 7 1933 55.4 L  35.545  52.278 10.8  Teh 21 0.3 3.0LTeh                1
 GAP=75    Teh            23.0    18.7 22.1                                    E
 Action:ARG 24-08-11 12:34 OP:OBSP STATUS:               ID:20210407193355     I
 STAT SP IPHASW D HRMM SECON CODA AMPLIT PERI AZIMU VELO AIN AR TRES W  DIS CAZ7
 GLO  SZ E    0   1934 59.02      2085.6 0.68                                   
 QOM  SZ E    0   1934 39.82     11895.2 0.24                                   
 GZV  SZ E    0   1934 31.92      2081.3 0.32                                   
 TEH  BZ E    0   1934 23.08     10484.6 0.32                                   
 SFB  BZ E    0   1934 40.68      1864.3 0.24                                   
 DMV  SZ E    0   1934  4.34     51095.0 0.16                                   
 VRN  BZ E    0   1934 26.84      8467.1 0.24                                   
 ANJ  SZ E    0   1934 42.66      2042.8 0.36                                   
 FIR  BZ E    0   1934 10.36     38363.9 0.60                                   
 PRN  SZ E    0   1934 20.32     13731.4 0.20                                   
 QAMS SZ E    0   1934 57.84      2537.3 0.36                                   
 HSB  BZ E    0   1934 23.14      5946.9 0.24                                   
 KLH  SZ E    0   1935  9.76      1351.6 0.20                                   
 HGHA BZ E    0   1935 28.06       977.8 0.32                                   
 QABG BZ E    0   1935 10.34      1287.9 0.24                                   
 ANAR BZ E    0   1935 33.60       350.3 0.52                                   
 ZEF  SZ E    0   1935 24.35       312.4 0.24                                   
 DMV  SZ EPg  0   1934  0.10                                   -0.20   23.0 280 
 FIR  BZ EPg  0   1934  3.40                                   -0.30   44.0  76 
 DMV  SN ESg  0   1934  3.80                                    0.00   23.0 280 
 LAS  SZ EPg  0   1934  6.60                                   -0.20   64.0 106 
 PRN  SZ EPg  0   1934  8.80                                   -0.10   78.0   4 
 VRN  BZ EPg  0   1934  9.60                                    0.50   79.0 220 
 TEH  BZ EPg  0   1934 10.10                                    0.20   84.0 286 
 HSB  BZ EPg  0   1934 11.30                                    0.10   92.0 263 
 QOM  SZ EPg  0   1934 17.90                                   -0.40    135 235 
 SFB  BZ EPg  0   1934 18.30                                    0.40    132 182 
 TEH  BN ESg  0   1934 20.40                                    0.00   84.0 286 
 ANJ  SZ EPg  0   1934 21.10                                    0.40    149  93 
 KRSH BZ EPn  0   1934 24.50                                   -0.30    175 184 
 GLO  SZ EPn  0   1934 25.00                                    0.10    176  52 
 GZV  SZ EPn  0   1934 29.90                                    0.10    208 297 
 QAMS SZ EPn  0   1934 30.00                                   -0.70    216 202 
 QABG BZ EPn  0   1934 34.40                                    0.10    245 275 
 KLH  SZ EPn  0   1934 35.20                                   -0.30    254 195 
 QOM  SN ESg  0   1934 35.30                                    0.00    135 235 
 ZEF  SZ EPn  0   1934 40.20                                   -0.20    294 179 
 ANAR BZ EPn  0   1934 40.40                                    0.30    293 153 
 HAGD BZ EPn  0   1934 41.10                                    0.40    297 255 
 HGHA BZ EPn  0   1934 42.50                                    0.20    310 270 
 JHBN BZ EPn  4   1934 53.50                                    0.30    396 203 
                                                                                

 2021  415  834 32.1 L                       Teh 11 0.4 2.5LTeh                1
 GAP=      Teh                                                                 E
 Action:ARG 24-08-11 12:34 OP:OBSP STATUS:               ID:20210415083432     I
 STAT SP IPHASW D HRMM SECON CODA AMPLIT PERI AZIMU VELO AIN AR TRES W  DIS CAZ7
 QABG BZ E    0    834 57.86      1065.9 0.24                                   
 GZV  SZ E    0    834 51.64      4800.2 0.12                                   
 GZV  SZ EPg  0    834 42.70                                   -0.90   58.0 293 
 MZPU BZ E    0    834 59.84      2313.0 0.28                                   
 MZPU BZ EPg  0    834 45.90                                   -0.30   74.0  67 
 GIDE BZ E    0    835 14.96       -99.0 0.28                                   
 GIDE BZ EPg  0    834 53.60                                    0.60    115 316 
 DMV  SZ E    0    835 15.48       645.8 0.28                                   
 QABG BZ EPg  0    834 54.90                                    0.60    123 245 
 DMV  SZ EPg  0    834 55.70                                    0.20    129 121 
 VRN  BZ E    0    835 21.28      1254.4 0.20                                   
 PRN  SZ EPn  0    834 57.30                                    0.20    138  87 
 QOM  SZ EPn  0    834 58.30                                   -0.70    151 171 
 VRN  BZ EPn  0    834 59.80                                    0.00    156 148 
 HAGD BZ E    0    835 11.06       -99.0 0.44                                   
 HAGD BZ EPn  0    835  8.10                                   -0.00    214 226 
 SFB  BZ E    0    835 49.42       288.5 0.36                                   
 SFB  BZ EPn  0    835 11.40                                    0.10    241 147 
 KRSH BZ E    0    835 52.46       -99.0 0.60                                   
 KRSH BZ EPn  0    835 15.70                                    0.30    274 153 
                                                                                

 2021  422 1233 58.7 L                       Teh 11 0.5 2.5LTeh                1
 GAP=      Teh                                                                 E
 Action:ARG 24-08-11 12:34 OP:OBSP STATUS:               ID:20210422123358     I
 STAT SP IPHASW D HRMM SECON CODA AMPLIT PERI AZIMU VELO AIN AR TRES W  DIS CAZ7
 GZV  SZ E    0   1234 16.14      3283.5 0.08                                   
 HAGD BN E    0   1234 29.86       -99.0 0.24                                   
 QOM  SZ E    0   1234 40.28      2455.6 0.12                                   
 QABG BN E    0   1234  8.42       -99.0 0.20                                   
 HSB  BZ E    0   1234 24.00       -99.0 0.28                                   
 VRN  BZ E    0   1234 56.72       394.5 0.36                                   
 QAMS SZ E    0   1235 10.92       658.0 0.40                                   
 HGHA BZ E    0   1234 23.00       -99.0 0.32                                   
 HNVD BZ E    0   1234 57.88       -99.0 0.28                                   
 QABG BN EPg  0   1234  5.40                                    0.30   33.0 326 
 SFB  BZ E    0   1234 40.88       193.6 0.28                                   
 HGHA BZ EPg  2   1234 11.70                                   -2.00   84.0 272 
 HAGD BN EPg  2   1234 14.80                                   -0.20   93.0 220 
 GZV  SZ EPg  2   1234 15.00                                   -2.90    109  21 
 KRSH BZ E    0   1235 23.50       -99.0 0.68                                   
 QOM  SZ EPg  0   1234 21.70                                   -0.50    135 120 
 HSB  BZ EPg  0   1234 21.70                                   -0.40    135  91 
 VRN  BZ EPn  0   1234 29.70                                    0.40    184 106 
 HNVD BZ EPn  0   1234 30.00                                   -0.20    189 228 
 QAMS SZ EPn  2   1234 38.00                                    0.80    241 142 
 SFB  BZ EPn  0   1234 39.00                                    0.20    256 118 
 KRSH BZ EPn  0   1234 41.20                                    0.40    272 127 
                                                                                

