 2021 0222 1936 15.7 L  36.464  51.790 14.8  Teh 34 0.3 3.6LTeh                1
 GAP=122                                                                       E
 Iranian Seismological Center, Institute of Geophysics, University of Tehran   6
 STAT SP IPHASW D HRMM SECON CODA AMPLIT PERI AZIMU VELO SNR AR TRES  W DIS CAZ7
 HSB  BZ E    0   1936 36.58     10846.4 0.28                           123 202
 VRN  BZ E    0   1937  5.08     12330.4 0.44                           163 182
 PRN  SZ E    0   1936 37.52     70709.8 0.44                          55.0 116
 QAMS SZ E    0   1937 42.32      3891.5 0.36                           305 187
 TEH  BZ E    0   1936 43.58     41813.6 0.32                          87.0 205
 SHM  SZ E    0   1937  5.28       -99.0 0.32                           153 118
 QOM  SZ E    0   1936 47.46     12601.0 0.36                           192 200
 ANJ  SZ E    0   1937 28.70      3557.3 0.44                           221 119
 HAGD BZ E    0   1937 43.20       -99.0 0.68                           301 234
 HGHA BZ E    0   1937  8.20       -99.0 0.28                           286 249
 QABG BZ E    0   1937 20.06      5381.7 0.36                           216 248
 MND  BZ E    0   1938  0.96      2267.2 0.72                           332  74
 SFB  BZ E    0   1936 55.22      4071.8 0.32                           238 170
 KLH  SZ E    0   1937 20.22      2346.4  0.4                           349 183
 HRS  SZ E    0   1937 37.12       453.1 0.36                           468 298
 SRB  SZ E    0   1937 24.70      1237.0  0.2                           396 294
 MZPU BE EPg  0   1936 20.2                                     -0.2   20.0 262
 GAS1 BZ E    0   1937 42.68      1325.4 0.24                           337 310
 PRN  SZ EPg  0   1936 25.4                                     -0.1   55.0 116
 TEHA BZ EPg  0   1936 30.3                                     -0.5   87.0 205
 TEH  BZ EPg  4   1936 30.4                                     -0.2   87.0 205
 GRMI BZ E    0   1938  2.46       -99.0 0.28                           431 308
 SLJL BZ E    0   1938 40.90       -99.0 0.44                           558  75
 DMV  SZ EPg  0   1936 32.6                                     -0.4    101 167
 HSB  BZ EPg  0   1936 36.2                                     -0.1    123 202
 FIR  BZ EPg  0   1936 37.1                                      0.1    126 136
 GZV  SZ EPg  0   1936 39.5                                      0.1    141 267
 SHM  SZ EPg  0   1936 41.8                                      0.5    153 118
 VRN  BZ EPg  0   1936 42.8                                      0.1    163 182
 LAS  SZ EPg  0   1936 42.9                                      0.6    160 138
 GIDE BZ EPg  0   1936 45.1                                      0.3    176 287
 GLO  SN EPn  0   1936 46.3                                     -0.1    183  88
 QOM  SZ EPn  0   1936 47.0                                     -0.2    192 200
 QABG BZ EPn  0   1936 50.3                                     -0.1    216 248
 ANJ  SZ EPn  4   1936 52.3                                      1.2    221 119
 SFB  BZ EPn  4   1936 53.0                                      0.1    238 170
 KRSH BZ EPn  4   1936 57.7                                     -0.4    279 173
 HGHA BZ EPn  0   1936 59.3                                      0.2    286 249
 HAGD BZ EPn  0   1937 0.9                                      -0.1    301 234
 KLH  SZ EPn  4   1937 7.3                                       0.3    349 183
 ZEF  SZ EPn  4   1937 12.9                                     -0.2    399 173
 SRB  SZ EPn  4   1937 13.1                                      0.2    396 294
 MRVT BZ EPn  0   1937 13.2                                     -0.5    405  70
 ANAR BZ EPn  4   1937 14.1                                      0.5    404 153
 GRMI BZ EPn  4   1937 16.2                                     -0.8    431 308
 SNJK BZ EPn  0   1937 18.5                                      0.3    440 256
 HRS  SZ EPn  4   1937 21.6                                     -0.1    468 298
 TAPT BZ EPn  4   1937 28.1                                      0.5    517 108
 SLJL BZ EPn  0   1937 32.7                                     -0.2    558  75
 TKDS BZ EPn  4   1937 36.1                                      0.7    580 121

 2021 0225 1852 38.3 L  36.384  51.781 11.0  Teh 13 0.3 2.7LTeh                1
 GAP=157                                                                       E
 Iranian Seismological Center, Institute of Geophysics, University of Tehran   6
 STAT SP IPHASW D HRMM SECON CODA AMPLIT PERI AZIMU VELO SNR AR TRES  W DIS CAZ7
 MZPU BZ EPg  0   1852 42.7                                      0.0   20.0 288
 PRN  SZ E    0   1852 58.00     29102.4 0.12                          52.0 107
 MZPU BN ESg  0   1852 46.6                                      0.0   20.0 288
 PRN  SZ EPg  0   1852 47.6                                     -0.3   52.0 107
 DMV  SZ E    0   1853  8.16      2421.3 0.32                          92.0 166
 HSB  BZ E    0   1852 58.80       803.3 0.24                           114 204
 DMV  SZ EPg  0   1852 54.7                                      0.0   92.0 166
 FIR  BZ E    0   1853 18.00       871.9 0.24                           120 133
 HSB  BZ EPg  0   1852 58.3                                      0.0    114 204
 GZV  SZ E    0   1853 22.88      2948.5 0.32                           140 271
 FIR  BZ EPg  0   1852 59.2                                     -0.2    120 133
 GZV  SZ EPg  0   1853 2.0                                      -0.7    140 271
 VRN  BZ E    0   1853 27.74      1457.3 0.28                           154 182
 SHM  SZ E    0   1853 27.28       -99.0  0.4                           150 115
 LAS  SZ E    0   1853 26.31       882.5 0.32                           154 136
 SHM  SZ EPg  0   1853 4.3                                      -0.1    150 115
 GLO  SZ E    0   1853 38.20      2062.7 0.68                           184  85
 LAS  SZ EPg  0   1853 4.9                                      -0.1    154 136
 VRN  BZ EPg  0   1853 5.0                                       0.0    154 182
 QOM  SZ E    0   1853 32.72      1437.9 0.24                           183 201
 DMV  SE ESg  0   1853 7.5                                       0.0   92.0 166
 GLO  SZ EPn  0   1853 9.1                                       0.1    184  85
 QOM  SZ EPg  0   1853 9.3                                      -0.5    183 201
 ANJ  SZ E    0   1853 43.80       606.0  0.2                           218 117
 SFB  BZ E    0   1853 48.16       725.0 0.24                           229 169
 ANJ  SZ EPn  0   1853 14.1                                      0.5    218 117
 SFB  BZ EPn  0   1853 15.2                                      0.2    229 169

 2021 0226 0049 47.7 L  36.408  51.784  9.8  Teh 14 0.4 2.9LTeh                1
 GAP=166                                                                       E
 Iranian Seismological Center, Institute of Geophysics, University of Tehran   6
 STAT SP IPHASW D HRMM SECON CODA AMPLIT PERI AZIMU VELO SNR AR TRES  W DIS CAZ7
 MZPU BZ E    0   0049 56.72     43441.4 0.12                          20.0 280
 GZV  SZ E    0   0050 30.60      3447.8  0.8                           141 269
 QOM  SZ E    0   0050 42.36      2306.8 0.24                           186 201
 FIR  BZ E    0   0050 26.60      2157.3 0.16                           122 134
 TEH  BZ E    0   0050 15.28       -99.0 0.28                          81.0 206
 LAS  SZ E    0   0050 38.15      1323.9 0.24                           156 137
 SHM  SZ E    0   0050 41.24       -99.0 0.28                           151 116
 GLO  SZ E    0   0050 53.40      5303.1 0.44                           184  86
 VRN  BZ E    0   0050 38.44      2651.8 0.28                           157 182
 PRN  SZ E    0   0050  8.16     36896.9 0.12                          53.0 110
 DMV  SZ E    0   0050 17.88      3906.1 0.24                          95.0 166
 ANJ  SZ E    0   0050 53.68       825.1 0.16                           219 118
 MZPU BZ EPg  0   0049 52.3                                      0.4   20.0 280
 PRN  SZ EPg  0   0049 57.4                                      0.1   53.0 110
 TEH  BZ EPg  0   0050 2.1                                       0.1   81.0 206
 DMV  SZ EPg  0   0050 4.5                                       0.1   95.0 166
 HSB  BZ EPg  0   0050 7.6                                      -0.5    117 203
 FIR  BZ EPg  0   0050 9.4                                       0.4    122 134
 SFB  BZ E    0   0050 29.62       871.3  0.2                           232 170
 GZV  SZ EPg  0   0050 11.8                                     -0.3    141 269
 SHM  SZ EPg  0   0050 13.8                                     -0.1    151 116
 VRN  BZ EPg  0   0050 14.2                                     -0.5    157 182
 LAS  SZ EPg  0   0050 14.7                                      0.1    156 137
 GLO  SZ EPn  0   0050 17.7                                     -0.6    184  86
 QOM  SZ EPn  0   0050 19.0                                      0.5    186 201
 ANJ  SZ EPn  0   0050 23.7                                      0.4    219 118
 SFB  BZ EPn  0   0050 24.7                                     -0.1    232 170

 2021 0226 1041  9.9 L  35.750  52.861  9.6  Teh 11 0.4 2.8LTeh                1
 GAP=87                                                                        E
 Iranian Seismological Center, Institute of Geophysics, University of Tehran   6
 STAT SP IPHASW D HRMM SECON CODA AMPLIT PERI AZIMU VELO SNR AR TRES  W DIS CAZ7
 FIR  BZ E    0   1041 18.14     40712.3 0.28                          15.0 219
 TEH  BZ E    0   1041 52.42      3172.0  0.4                           133 271
 DMV  SZ E    0   1041 39.08      6573.7  0.4                          77.0 256
 HSB  BZ E    0   1041 36.38       907.7 0.28                           148 257
 PRN  SZ E    0   1041 32.48     10605.3 0.36                          72.0 319
 TEHA BZ E    0   1042  7.12      2797.2 0.68                           133 270
 GLO  SZ E    0   1041 54.02      3654.2  0.6                           121  46
 SFB  BZ E    0   1041 40.60      1455.0 0.24                           165 200
 VRN  BZ E    0   1042  0.60      1511.8 0.28                           133 231
 FIR  BZ EPg  0   1041 13.2                                     -0.2   15.0 219
 SHM  SZ EPg  0   1041 17.0                                     -0.2   39.0  81
 LAS  SZ EPg  0   1041 18.4                                      0.7   42.0 168
 PRN  SZ EPg  0   1041 22.9                                      0.2   72.0 319
 DMV  SZ EPg  0   1041 23.4                                     -0.3   77.0 256
 GLO  SZ EPg  0   1041 31.2                                      0.3    121  46
 TEH  BZ EPg  0   1041 32.6                                     -0.3    133 271
 VRN  BZ EPg  0   1041 32.7                                     -0.2    133 231
 TEHA BZ EPg  0   1041 33.1                                      0.1    133 270
 DMV  SN ESg  0   1041 35.0                                      0.0   77.0 256
 HSB  BZ EPg  0   1041 35.0                                     -0.4    148 257
 SFB  BZ EPg  0   1041 37.9                                     -0.4    165 200

 2021 0227 2234 18.4 L  36.094  53.411  6.0  Teh 42 0.4 3.3LTeh                1
 GAP=97                                                                        E
 Iranian Seismological Center, Institute of Geophysics, University of Tehran   6
 STAT SP IPHASW D HRMM SECON CODA AMPLIT PERI AZIMU VELO SNR AR TRES  W DIS CAZ7
 GLO  SZ E    0   2234 47.76     39267.7 0.52                          59.0  40
 SHM  SZ E    0   2234 31.88       -99.0 0.32                          34.0 200
 FIR  BZ E    0   2234 48.00     15711.6 0.48                          78.0 230
 ZEF  SZ E    0   2236 13.40       567.3 0.72                           368 196
 PRN  SZ E    0   2234 58.98     14819.0 0.48                          98.0 280
 SBZV BZ E    0   2236 17.02       523.6 1.04                           379  84
 MND  BZ E    0   2235 33.04      3175.5 0.92                           218  54
 SFB  BZ E    0   2235 26.12      2938.8  0.4                           221 209
 TKDS BZ E    0   2236 42.62       -99.0 0.72                           437 128
 SFR  SZ E    0   2236 32.23       667.7 0.52                           424  74
 HGHA BZ E    0   2235 35.62       439.4  0.4                           417 262
 GZV  SZ E    0   2235 52.76      4027.7    1                           289 277
 VRN  BZ E    0   2235 23.24      3687.4 0.36                           195 232
 QOM  SZ E    0   2235 45.90      1314.0 0.64                           254 238
 SHRO BZ E    0   2235 29.62       -99.0  0.6                           235  92
 TAPT BZ E    0   2236  5.66       -99.0 0.52                           366 110
 HSB  BZ E    0   2235  0.74      1871.9 0.52                           206 250
 TPRV BZ E    0   2236 54.18       -99.0 0.76                           454 138
 QABG BZ E    0   2236 24.58       573.6  1.2                           348 264
 ANAR BZ E    0   2235 59.90       526.8  0.8                           323 175
 MRVT BZ E    0   2235 48.52       -99.0 0.76                           295  53
 TSHB BZ E    0   2235 28.54       -99.0  0.4                           386 133
 JHBN BZ E    0   2237  2.12       248.3    1                           498 211
 SHM  SZ EPg  0   2234 24.8                                     -0.2   34.0 200
 DOBD BZ E    0   2236 45.50       338.2 0.72                           466 167
 KLH  SZ E    0   2236  7.60       838.2 0.52                           351 209
 GLO  SZ EPg  0   2234 28.8                                     -0.4   59.0  40
 BAF  SZ E    0   2237  1.22       235.5 0.96                           538 158
 GRMI BZ E    0   2236 44.98       -99.0 0.56                           573 303
 FIR  BZ EPg  0   2234 32.2                                     -0.3   78.0 230
 ANJ  SZ EPg  0   2234 32.6                                     -0.7   83.0 147
 LAS  SZ EPg  0   2234 34.6                                      0.3   89.0 207
 PRN  SZ EPg  0   2234 36.3                                      0.5   98.0 280
 DMV  SN EPg  0   2234 42.3                                     -0.4    137 246
 TEHA BZ EPn  0   2234 49.8                                     -0.0    187 259
 VRN  BZ EPn  0   2234 51.3                                      0.2    195 232
 HSB  BZ EPn  4   2234 53.4                                      0.5    206 250
 MND  BZ EPn  0   2234 53.9                                     -0.4    218  54
 SFB  BZ EPn  4   2234 54.9                                      0.1    221 209
 SHRO BZ EPn  0   2234 56.8                                      0.2    235  92
 QOM  SZ EPn  4   2234 59.4                                      0.4    254 238
 MRVT BZ EPn  0   2235 3.5                                      -0.5    295  53
 KLH  SZ EPn  4   2235 11.7                                      0.5    351 209
 TAPT BZ EPn  0   2235 13.2                                      0.3    366 110
 ZEF  SZ EPn  4   2235 13.6                                      0.2    368 196
 TNSJ BZ EPn  0   2235 14.2                                      0.1    376 128
 SBZV BZ EPn  0   2235 14.8                                      0.2    379  84
 HGHA BZ EPn  4   2235 19.8                                      0.4    417 262
 SFR  SZ EPn  0   2235 20.6                                      0.3    424  74
 SLJL BZ EPn  0   2235 21.9                                      0.3    435  65
 TKDS BZ EPn  0   2235 22.1                                      0.4    437 128
 TPRV BZ EPn  4   2235 24.0                                      0.3    454 138
 DOBD BZ EPn  4   2235 25.8                                      0.4    466 167
 TAFT BZ EPn  4   2235 28.9                                      0.5    490 172
 PAY  SN EPn  0   2235 30.2                                      0.2    503  84
 MEH  SZ EPn  4   2235 34.1                                      0.3    533 168
 BAF  SZ EPn  4   2235 34.3                                      0.0    538 158
 SRB  SZ EPn  0   2235 35.7                                      0.3    547 292
 KRD  SZ EPn  4   2235 36.0                                     -0.2    552  80
 GRMI BZ EPn  0   2235 38.1                                     -0.6    573 303
 TEG  SZ EPn  4   2235 43.4                                      0.7    605 124
 HRS  SZ EPn  0   2235 44.5                                      0.3    617 295
 KOO  SZ EPn  4   2235 49.3                                      0.2    656 127
 SHRT BZ EPn  4   2235 52.6                                      0.2    685 111

