 2021 0402 1633 33.9 L  36.431  50.998  8.0  Teh 15 0.4 2.6LTeh                1
 GAP=169                                                                       E
 Iranian Seismological Center, Institute of Geophysics, University of Tehran   6
 STAT SP IPHASW D HRMM SECON CODA AMPLIT PERI AZIMU VELO SNR AR TRES  W DIS CAZ7
 PRN  SZ E    0   1634 18.60      2804.9 0.48                           122 100
 SFB  BZ E    0   1634 16.62       225.1 0.44                           257 154
 MZPU BZ EPg  0   1633 42.9                                     -0.4   51.0  89
 GZV  SZ E    0   1633 56.78      4887.4 0.12                          70.0 266
 GZV  SZ EPg  0   1633 46.7                                      0.2   70.0 266
 HSB  BZ E    0   1633 54.78      1078.6  0.2                           113 167
 MZPU BN ESg  0   1633 50.9                                      0.0   51.0  89
 HSB  BZ EPg  0   1633 53.7                                      0.1    113 167
 PRN  SZ EPg  0   1633 54.7                                     -0.4    122 100
 VRN  BZ E    0   1634 27.20      1532.3 0.44                           172 157
 GZV  SN ESg  0   1633 56.2                                      0.0   70.0 266
 DMV  SZ EPg  0   1633 57.3                                      0.3    133 135
 FIR  BZ E    0   1634 29.60       230.0 0.32                           181 118
 QOM  SZ E    0   1634  4.84       945.7  0.2                           176 178
 VRN  BZ EPg  0   1634 3.3                                      -0.3    172 157
 QOM  SZ EPg  0   1634 3.6                                      -0.7    176 178
 GLO  SZ E    0   1634 59.20       554.3 0.52                           254  87
 ZNJK BZ E    0   1634 35.90       -99.0 0.32                           209 278
 FIR  BZ EPg  0   1634 5.3                                       0.3    181 118
 HGHA BZ E    0   1634 42.30       421.8 0.32                           220 242
 ZNJK BZ EPn  0   1634 8.0                                      -0.2    209 278
 LAS  SN EPn  0   1634 9.5                                       0.7    212 123
 HGHA BZ EPn  0   1634 10.3                                      0.4    220 242
 GLO  SZ EPn  0   1634 13.5                                     -0.5    254  87
 SFB  BZ EPn  0   1634 14.8                                      0.5    257 154
 KRSH BZ E    0   1634 58.64       408.0 0.36                           292 159
 KRSH BZ EPn  0   1634 19.4                                      0.6    292 159
 KLH  SZ E    0   1634 34.96       114.2 0.32                           349 171

 2021 0406 0200 54.4 L  34.656  50.752 15.1  Teh 12 0.4 2.6LTeh                1
 GAP=125                                                                       E
 Iranian Seismological Center, Institute of Geophysics, University of Tehran   6
 STAT SP IPHASW D HRMM SECON CODA AMPLIT PERI AZIMU VELO SNR AR TRES  W DIS CAZ7
 VRN  BZ E    0   0201 24.48     10642.2 0.08                          97.0  67
 GZV  SZ E    0   0201 51.34       681.2 0.12                           198 346
 FIR  BZ E    0   0201 55.90       622.3 0.32                           213  58
 LAS  SZ E    0   0201 57.56       577.0 0.24                           217  68
 DMV  SZ E    0   0201 40.44       826.9 0.16                           155  48
 KLH  SZ E    0   0201 44.69      1449.7 0.16                           167 153
 HGHA BZ E    0   0201 51.04       725.4 0.32                           196 299
 QOM  SZ EPg  0   0201 1.8                                       0.7   35.0  54
 QOM  SN ESg  0   0201 6.5                                       0.0   35.0  54
 VRN  BZ EPg  0   0201 11.5                                      0.4   97.0  67
 HSB  BZ EPg  0   0201 11.5                                      0.0   99.0  29
 SFB  BZ EPg  0   0201 17.8                                     -0.5    141 103
 KRSH BZ EPg  0   0201 19.1                                     -0.5    148 120
 HAGD BZ EPg  0   0201 19.5                                     -0.2    149 278
 DMV  SZ EPg  0   0201 19.9                                     -0.8    155  48
 KLH  SZ EPn  0   0201 22.7                                      0.7    167 153
 HGHA BZ EPn  0   0201 26.4                                      0.1    196 299
 GZV  SZ EPn  0   0201 26.7                                      0.1    198 346
 FIR  BZ EPn  0   0201 28.4                                     -0.1    213  58

 2021 0407 1933 55.4 L  35.543  52.278 11.0  Teh 21 0.3 3.0LTeh                1
 GAP=67                                                                        E
 Iranian Seismological Center, Institute of Geophysics, University of Tehran   6
 STAT SP IPHASW D HRMM SECON CODA AMPLIT PERI AZIMU VELO SNR AR TRES  W DIS CAZ7
 GLO  SZ E    0   1934 59.02      2085.6 0.68                           176  52
 QOM  SZ E    0   1934 39.82     11895.2 0.24                           135 235
 GZV  SZ E    0   1934 31.92      2081.3 0.32                           208 297
 TEH  BZ E    0   1934 23.08     10484.6 0.32                          84.0 286
 SFB  BZ E    0   1934 40.68      1864.3 0.24                           132 182
 DMV  SZ E    0   1934  4.34    151095.0 0.16                          23.0 280
 VRN  BZ E    0   1934 26.84      8467.1 0.24                          79.0 220
 ANJ  SZ E    0   1934 42.66      2042.8 0.36                           149  93
 FIR  BZ E    0   1934 10.36     38363.9  0.6                          44.0  76
 PRN  SZ E    0   1934 20.32     13731.4  0.2                          78.0   4
 QAMS SZ E    0   1934 57.84      2537.3 0.36                           216 202
 HSB  BZ E    0   1934 23.14      5946.9 0.24                          92.0 263
 KLH  SZ E    0   1935  9.76      1351.6  0.2                           255 195
 HGHA BZ E    0   1935 28.06       977.8 0.32                           310 270
 QABG BZ E    0   1935 10.34      1287.9 0.24                           245 275
 ANAR BZ E    0   1935 33.60       350.3 0.52                           293 153
 ZEF  SZ E    0   1935 24.35       312.4 0.24                           294 179
 DMV  SZ EPg  0   1934 0.1                                      -0.2   23.0 280
 FIR  BZ EPg  0   1934 3.4                                      -0.3   44.0  76
 DMV  SN ESg  0   1934 3.8                                       0.0   23.0 280
 LAS  SZ EPg  0   1934 6.6                                      -0.2   64.0 106
 PRN  SZ EPg  0   1934 8.8                                      -0.1   78.0   4
 VRN  BZ EPg  0   1934 9.6                                       0.5   79.0 220
 TEH  BZ EPg  0   1934 10.1                                      0.2   84.0 286
 HSB  BZ EPg  0   1934 11.3                                      0.1   92.0 263
 QOM  SZ EPg  0   1934 17.9                                     -0.4    135 235
 SFB  BZ EPg  0   1934 18.3                                      0.4    132 182
 TEH  BN ESg  0   1934 20.4                                      0.0   84.0 286
 ANJ  SZ EPg  0   1934 21.1                                      0.4    149  93
 KRSH BZ EPn  0   1934 24.5                                     -0.3    175 184
 GLO  SZ EPn  0   1934 25.0                                      0.1    176  52
 GZV  SZ EPn  0   1934 29.9                                      0.1    208 297
 QAMS SZ EPn  0   1934 30.0                                     -0.7    216 202
 QABG BZ EPn  0   1934 34.4                                      0.1    245 275
 KLH  SZ EPn  0   1934 35.2                                     -0.3    255 195
 QOM  SN ESg  0   1934 35.3                                      0.0    135 235
 ZEF  SZ EPn  0   1934 40.2                                     -0.2    294 179
 ANAR BZ EPn  0   1934 40.4                                      0.3    293 153
 HAGD BZ EPn  0   1934 41.1                                      0.4    297 255
 HGHA BZ EPn  0   1934 42.5                                      0.2    310 270
 JHBN BZ EPn  4   1934 53.5                                      0.3    396 203

 2021 0415 0834 32.1 L  36.185  50.810  9.2  Teh 11 0.4 2.5LTeh                1
 GAP=111                                                                       E
 Iranian Seismological Center, Institute of Geophysics, University of Tehran   6
 STAT SP IPHASW D HRMM SECON CODA AMPLIT PERI AZIMU VELO SNR AR TRES  W DIS CAZ7
 QABG BZ E    0   0834 57.86      1065.9 0.24                           123 245
 GZV  SZ E    0   0834 51.64      4800.2 0.12                          58.0 293
 GZV  SZ EPg  0   0834 42.7                                     -0.9   58.0 293
 MZPU BZ E    0   0834 59.84      2313.0 0.28                          74.0  67
 MZPU BZ EPg  0   0834 45.9                                     -0.3   74.0  67
 GIDE BZ E    0   0835 14.96       -99.0 0.28                           115 316
 GIDE BZ EPg  0   0834 53.6                                      0.6    115 316
 DMV  SZ E    0   0835 15.48       645.8 0.28                           129 121
 QABG BZ EPg  0   0834 54.9                                      0.6    123 245
 DMV  SZ EPg  0   0834 55.7                                      0.2    129 121
 VRN  BZ E    0   0835 21.28      1254.4  0.2                           156 148
 PRN  SZ EPn  0   0834 57.3                                      0.2    138  87
 QOM  SZ EPn  0   0834 58.3                                     -0.7    151 171
 VRN  BZ EPn  0   0834 59.8                                      0.0    156 148
 HAGD BZ E    0   0835 11.06       -99.0 0.44                           214 226
 HAGD BZ EPn  0   0835 8.1                                      -0.0    214 226
 SFB  BZ E    0   0835 49.42       288.5 0.36                           241 147
 SFB  BZ EPn  0   0835 11.4                                      0.1    241 147
 KRSH BZ E    0   0835 52.46       -99.0  0.6                           274 153
 KRSH BZ EPn  0   0835 15.7                                      0.3    274 153

 2021 0422 1233 58.7 L  35.464  49.787 10.0  Teh 11 0.5 2.5LTeh                1
 GAP=78                                                                        E
 Iranian Seismological Center, Institute of Geophysics, University of Tehran   6
 STAT SP IPHASW D HRMM SECON CODA AMPLIT PERI AZIMU VELO SNR AR TRES  W DIS CAZ7
 GZV  SZ E    0   1234 16.14      3283.5 0.08                           109  21
 HAGD BN E    0   1234 29.86       -99.0 0.24                          93.0 220
 QOM  SZ E    0   1234 40.28      2455.6 0.12                           135 120
 QABG BN E    0   1234  8.42       -99.0  0.2                          33.0 326
 HSB  BZ E    0   1234 24.00       -99.0 0.28                           135  91
 VRN  BZ E    0   1234 56.72       394.5 0.36                           184 106
 QAMS SZ E    0   1235 10.92       658.0  0.4                           242 142
 HGHA BZ E    0   1234 23.00       -99.0 0.32                          84.0 272
 HNVD BZ E    0   1234 57.88       -99.0 0.28                           189 228
 QABG BN EPg  0   1234 5.4                                       0.3   33.0 326
 SFB  BZ E    0   1234 40.88       193.6 0.28                           256 118
 HGHA BZ EPg  2   1234 11.7                                     -2.0   84.0 272
 HAGD BN EPg  2   1234 14.8                                     -0.2   93.0 220
 GZV  SZ EPg  2   1234 15.0                                     -2.9    109  21
 KRSH BZ E    0   1235 23.50       -99.0 0.68                           272 127
 QOM  SZ EPg  0   1234 21.7                                     -0.5    135 120
 HSB  BZ EPg  0   1234 21.7                                     -0.4    135  91
 VRN  BZ EPn  0   1234 29.7                                      0.4    184 106
 HNVD BZ EPn  0   1234 30.0                                     -0.2    189 228
 QAMS SZ EPn  2   1234 38.0                                      0.8    242 142
 SFB  BZ EPn  0   1234 39.0                                      0.2    256 118
 KRSH BZ EPn  0   1234 41.2                                      0.4    272 127

 2021 0423 0450  0.2 L  36.472  52.415 15.2  Teh 16 0.4 2.7LTeh                1
 GAP=180                                                                       E
 Iranian Seismological Center, Institute of Geophysics, University of Tehran   6
 STAT SP IPHASW D HRMM SECON CODA AMPLIT PERI AZIMU VELO SNR AR TRES  W DIS CAZ7
 SFB  BZ E    0   0451  6.64       440.5 0.28                           236 184
 PRN  SZ EPg  0   0450 5.4                                      -0.3   26.0 195
 PRN  SZ E    0   0450 10.82    121648.0 0.08                          26.0 195
 PRN  SN ESg  0   0450 10.6                                      0.0   26.0 195
 FIR  BZ E    0   0450 17.64      5306.1 0.16                          97.0 162
 DMV  SZ E    0   0450 33.94      2212.0 0.28                           105 199
 FIR  BZ EPg  0   0450 16.9                                     -0.3   97.0 162
 TEH  BZ E    0   0450 38.98      1265.3  0.4                           122 229
 DMV  SZ EPg  0   0450 18.3                                     -0.1    105 199
 LAS  SZ E    0   0450 41.71      1902.6  0.2                           131 158
 GLO  SZ E    0   0450 47.26      3539.8 0.44                           127  88
 TEH  BZ EPg  0   0450 21.4                                      0.3    122 229
 HSB  BZ E    0   0450 45.72       557.6 0.32                           154 222
 GLO  SZ EPg  0   0450 22.1                                      0.2    127  88
 LAS  SZ EPg  0   0450 22.5                                      0.0    131 158
 VRN  BZ E    0   0450 29.90       723.6 0.28                           175 201
 ANJ  SZ E    0   0450 30.35      1772.0 0.12                           175 129
 HSB  BZ EPg  0   0450 25.7                                     -0.5    154 222
 GZV  SZ E    0   0450 58.08      1980.3  0.4                           197 268
 ANJ  SZ EPg  0   0450 29.4                                     -0.4    175 129
 FIR  BN ESg  0   0450 29.5                                      0.0   97.0 162
 VRN  BZ EPn  0   0450 29.5                                      0.4    175 201
 GZV  SZ EPn  0   0450 31.9                                     -0.4    197 268
 SHRO BZ E    0   0451 41.56        96.5 0.64                           328  98
 QOM  SZ E    0   0450 54.00       563.1 0.08                           218 214
 SFB  BZ EPn  0   0450 37.3                                      0.4    236 184
 QABG BE E    0   0451 20.32       546.6 0.36                           269 252
 ZNJK BZ E    0   0451 36.62       -99.0 0.44                           335 275
 KRSH BZ E    0   0451 19.72       490.7  0.4                           279 185
 SHRO BZ EPn  0   0450 48.8                                      0.4    328  98

 2021 0430 1721 12.8 L  36.838  49.529  8.0  Teh 11 0.6 2.9LTeh                1
 GAP=122                                                                       E
 Iranian Seismological Center, Institute of Geophysics, University of Tehran   6
 STAT SP IPHASW D HRMM SECON CODA AMPLIT PERI AZIMU VELO SNR AR TRES  W DIS CAZ7
 GZV  SN E    0   1721 45.10     14836.0  0.2                          80.0 129
 HGHA BZ E    0   1722  4.14      1978.6 0.28                           162 202
 MZPU BZ E    0   1722 14.90      2406.1  0.6                           188 103
 HSB  BZ E    0   1722 18.64       -99.0 0.24                           221 134
 HNVD BZ E    0   1722  9.62       -99.0  0.4                           303 203
 SNJK BZ E    0   1722  0.04       340.7 0.24                           270 235
 GZV  SN EPg  0   1721 26.5                                     -0.5   80.0 129
 CSN1 BZ EPg  0   1721 29.4                                      1.1   89.0 335
 HGHA BZ EPg  0   1721 40.9                                      0.2    162 202
 GAS1 BZ EPg  0   1721 43.1                                     -0.9    182 341
 MZPU BZ EPg  0   1721 45.2                                      0.1    188 103
 SRB  SZ EPn  0   1721 46.1                                      0.3    198 304
 HSH  SZ EPn  0   1721 47.4                                      0.1    208 285
 HSB  BZ EPn  0   1721 49.0                                      0.3    221 134
 PRN  SZ EPn  0   1721 54.5                                      0.9    260 104
 SNJK BZ EPn  0   1721 54.9                                     -0.1    270 235
 HNVD BZ EPn  0   1721 59.6                                      0.7    303 203

 2021 0503 1246 55.2 L  35.691  52.389 10.0  Teh  9 0.3 2.6LTeh                1
 GAP=103                                                                       E
 Iranian Seismological Center, Institute of Geophysics, University of Tehran   6
 STAT SP IPHASW D HRMM SECON CODA AMPLIT PERI AZIMU VELO SNR AR TRES  W DIS CAZ7
 HSB  BZ E    0   1247 14.30      2706.0 0.04                           105 255
 PRN  SZ E    0   1247 17.52      3844.6 0.24                          61.0 356
 VRN  BZ E    0   1247 32.28      4260.9 0.08                          98.0 218
 SFB  BZ E    0   1247 21.98      1336.8 0.16                           149 185
 LAS  SZ E    0   1247 15.20      4142.6 0.08                          62.0 124
 TEH  BZ E    0   1247 11.96      2854.4 0.04                          91.0 275
 QOM  SZ E    0   1247 45.72      1762.0 0.16                           153 232
 FIR  BZ EPg  0   1247 1.6                                      -0.1   33.0  99
 DMV  SZ EPg  0   1247 2.0                                       0.1   35.0 249
 PRN  SZ EPg  0   1247 6.2                                      -0.1   61.0 356
 LAS  SZ EPg  0   1247 6.4                                       0.0   62.0 124
 DMV  SN ESg  0   1247 6.8                                       0.0   35.0 249
 TEH  BZ EPg  0   1247 11.4                                      0.2   91.0 275
 VRN  BZ EPg  0   1247 12.7                                      0.4   98.0 218
 HSB  BZ EPg  0   1247 13.6                                      0.1    105 255
 FIR  BZ E    0   1247  7.40     20493.1 0.16                          33.0  99
 QOM  SZ EPg  0   1247 20.9                                     -0.7    153 232
 SFB  BZ EPg  0   1247 21.0                                      0.1    149 185
 DMV  SZ E    0   1247  2.18     19415.5 0.08                          35.0 249

