 2021 0101 0730  1.8 L  34.764  53.010  8.0  Teh 17 0.4 2.8LTeh                1
 GAP=113                                                                       E
 Iranian Seismological Center, Institute of Geophysics, University of Tehran   6
 STAT SP IPHASW D HRMM SECON CODA AMPLIT PERI AZIMU VELO SNR AR TRES  W DIS CAZ7
 DMV  SZ E    0   0731 17.10      1187.6  0.6                           127 316
 ANJ  SZ E    0   0730 40.16      2390.3 0.28                           114  46
 SFB  BZ E    0   0730 17.84      2955.2 0.24                          84.0 237
 KRSH BZ E    0   0730 38.58      5235.5 0.28                           119 223
 SHM  SZ E    0   0730 45.30       -99.0 0.24                           118  12
 KLH  SZ E    0   0731  5.47      1695.6 0.28                           208 220
 FIR  BZ E    0   0730 39.72      1027.4 0.24                         100.0 347
 QOM  SZ E    0   0730 56.24      3906.1 0.24                           178 273
 QAMS SZ E    0   0730 59.24      4807.8 0.32                           187 233
 LAS  SZ E    0   0730 37.10      2872.2  0.2                          69.0 356
 HSB  BZ E    0   0731  2.26       976.9 0.36                           175 296
 PRN  SZ E    0   0731  4.12      2922.6 0.56                           175 340
 VRN  BZ E    0   0730 43.28      1720.2 0.24                           120 283
 ANAR BZ E    0   0731  0.14       500.1 0.32                           187 159
 GLO  SZ E    0   0731  8.26      1338.5 0.68                           207  21
 MZPU BZ E    0   0730 41.54       639.0 0.32                           227 325
 LAS  SZ EPg  0   0730 14.9                                      0.9   69.0 356
 SFB  BZ EPg  0   0730 17.0                                      0.4   84.0 237
 FIR  BZ EPg  0   0730 19.5                                      0.0  100.0 347
 ANJ  SZ EPg  0   0730 20.9                                     -0.7    114  46
 SHM  SZ EPg  0   0730 22.2                                     -0.3    118  12
 KRSH BZ EPg  0   0730 22.5                                     -0.1    119 223
 VRN  BZ EPg  0   0730 23.0                                      0.3    120 283
 DMV  SZ EPg  0   0730 24.0                                      0.1    127 316
 HSB  BZ EPg  0   0730 31.2                                     -0.7    175 296
 QOM  SZ EPg  0   0730 31.8                                     -0.7    178 273
 PRN  SZ EPg  0   0730 32.3                                      0.4    175 340
 ANAR BZ EPn  0   0730 32.9                                      0.0    187 159
 QAMS SZ EPn  0   0730 33.3                                      0.2    187 233
 KLH  SZ EPn  0   0730 36.4                                      0.1    208 220
 GLO  SZ EPn  0   0730 36.4                                      0.3    207  21
 ZEF  SZ EPn  0   0730 37.4                                      0.1    217 197
 MZPU BZ EPn  0   0730 38.7                                      0.0    227 325

 2021 0104 1656 49.4 L  35.203  53.648 10.0  Teh 13 0.5 2.6LTeh                1
 GAP=167                                                                       E
 Iranian Seismological Center, Institute of Geophysics, University of Tehran   6
 STAT SP IPHASW D HRMM SECON CODA AMPLIT PERI AZIMU VELO SNR AR TRES  W DIS CAZ7
 SFB  BZ E    0   1657 37.10      1569.0  0.2                           160 234
 QAMS SZ E    0   1658  3.86       349.2 0.36                           263 232
 GLO  SZ E    0   1657 36.52       801.4 0.48                           145   6
 FIR  BZ E    0   1657 22.20       907.3 0.24                          95.0 301
 VRN  BZ E    0   1657 18.28       499.9 0.24                           177 263
 KRSH BZ E    0   1657 46.16      2951.5 0.44                           195 226
 DMV  SZ E    0   1657 16.10       892.7  0.2                           153 286
 PRN  SZ E    0   1657 18.78      1468.3 0.16                           165 315
 ZEF  SZ E    0   1658 22.24       148.6 0.36                           283 206
 KLH  SZ E    0   1658 10.78       272.7 0.24                           283 223
 ANJ  SZ EPg  0   1656 56.2                                     -0.4   38.0  39
 LAS  SZ EPg  0   1657 1.9                                       0.8   66.0 288
 SHM  SZ EPg  0   1657 2.5                                      -0.2   75.0 334
 FIR  BZ EPg  0   1657 6.2                                       0.2   95.0 301
 GLO  SZ EPg  0   1657 14.6                                      0.1    145   6
 DMV  SZ EPg  0   1657 15.5                                     -0.3    153 286
 SFB  BZ EPg  0   1657 16.3                                     -0.6    160 234
 VRN  BZ EPn  0   1657 17.9                                     -0.9    177 263
 PRN  SZ EPg  0   1657 18.2                                      0.4    165 315
 KRSH BZ EPn  0   1657 21.3                                     -0.3    195 226
 QAMS SZ EPn  0   1657 30.8                                      0.4    263 232
 KLH  SZ EPn  0   1657 33.3                                      0.3    283 223
 ZEF  SZ EPn  0   1657 33.7                                      0.7    283 206

 2021 0105 0856 59.8 L  36.265  53.595  7.5  Teh  7 0.3 2.5LTeh                1
 GAP=130                                                                       E
 Iranian Seismological Center, Institute of Geophysics, University of Tehran   6
 STAT SP IPHASW D HRMM SECON CODA AMPLIT PERI AZIMU VELO SNR AR TRES  W DIS CAZ7
 ANJ  SZ E    0   0857 29.56      1226.3  0.2                          93.0 162
 GLO  SZ E    0   0857 14.54     22421.7 0.24                          34.0  39
 DMV  SZ E    0   0857 30.46       485.6 0.32                           160 242
 PRN  SZ E    0   0857 21.92      2496.6  0.2                           113 269
 SHM  SZ E    0   0857 20.04       -99.0 0.24                          58.0 209
 GLO  SZ EPg  0   0857 6.3                                       0.1   34.0  39
 SHM  SZ EPg  0   0857 10.3                                     -0.1   58.0 209
 ANJ  SZ EPg  0   0857 16.2                                     -0.1   93.0 162
 FIR  BZ EPg  0   0857 17.8                                     -0.1    103 228
 SHM  SZ ESg  0   0857 18.7                                      0.3   58.0 209
 PRN  SZ EPg  0   0857 20.0                                      0.5    113 269
 DMV  SZ EPg  0   0857 26.9                                     -0.7    160 242
 VRN  BZ EPn  0   0857 35.9                                      0.2    220 231
 FIR  BZ E    0   0857 31.68      1531.4 0.16                           103 228

 2021 0110 2238 53.8 L  36.630  49.245  8.0  Teh 20 0.3 2.9LTeh                1
 GAP=116                                                                       E
 Iranian Seismological Center, Institute of Geophysics, University of Tehran   6
 STAT SP IPHASW D HRMM SECON CODA AMPLIT PERI AZIMU VELO SNR AR TRES  W DIS CAZ7
 QOM  SZ E    0   2240 10.96       862.5  0.2                           258 140
 SNQR BZ E    0   2239 36.68       282.3  0.2                           245 217
 FIR  BZ E    0   2240 38.38       131.4 0.28                           334 108
 KLH  SZ E    0   2240 53.38       110.2 0.28                           425 149
 SFB  BZ E    0   2240  0.66       103.4  0.4                           371 132
 SNJK BZ E    0   2239 33.80       418.6 0.32                           236 236
 AZR  SZ E    0   2240 28.34       825.6 0.32                           312 293
 SAQZ BZ E    0   2240 16.14       -99.0 0.32                           278 263
 ZNJK BZ EPg  0   2239 3.3                                       0.4   50.0 275
 GLO  SZ E    0   2241  7.86       354.4 0.56                           411  91
 GIDE BZ EPg  0   2239 5.9                                       0.0   68.0  61
 GZV  SZ EPg  0   2239 9.8                                      -0.1   91.0 107
 LHJ2 BZ EPg  0   2239 10.2                                     -0.1   94.0  50
 HGHA BZ EPg  0   2239 16.6                                     -0.1    131 196
 HSH  SZ EPn  0   2239 25.3                                     -0.5    192 294
 MZPU BZ EPn  0   2239 28.7                                      0.3    209  95
 SNJK BZ EPn  0   2239 32.5                                      0.7    236 236
 SNQR BZ EPn  0   2239 32.9                                     -0.1    245 217
 QOM  SZ EPn  0   2239 34.3                                     -0.1    258 140
 SAQZ BZ EPn  0   2239 37.2                                      0.2    278 263
 DMV  SZ EPn  4   2239 37.3                                      0.4    277 114
 PRN  SZ EPn  0   2239 37.7                                      0.5    281  98
 SFB  BZ EPn  0   2239 48.7                                      0.4    371 132
 QAMS SZ EPn  0   2239 49.2                                      0.0    376 148
 GLO  SZ EPn  4   2239 55.0                                      1.6    411  91
 QABG BZ E    0   2239 26.52      6353.8 0.12                           107 163
 HGHA BZ E    0   2239 34.10      2824.2 0.24                           131 196
 PRN  SZ E    0   2240 19.62      1268.7 0.24                           281  98
 GZV  SZ E    0   2239 24.06      6862.3 0.16                          91.0 107
 MZPU BZ E    0   2239 57.58      2037.6 0.48                           209  95
 DMV  SZ E    0   2240 18.68       316.0 0.52                           277 114

 2021 0114 1120 39.5 L  36.522  53.041 19.6  Teh 47 0.4 3.9LTeh                1
 GAP=116                                                                       E
 Iranian Seismological Center, Institute of Geophysics, University of Tehran   6
 STAT SP IPHASW D HRMM SECON CODA AMPLIT PERI AZIMU VELO SNR AR TRES  W DIS CAZ7
 SHM  SZ E    0   1121  7.28       -99.0 0.24                          82.0 165
 PRN  SZ E    0   1121  2.96    306018.0  0.2                          70.0 244
 TEH  BZ E    0   1121 34.30     16402.4 0.52                           171 241
 DMV  SZ E    0   1121  3.28     41147.6 0.32                           139 221
 HSB  BZ E    0   1121 14.84      8816.0 0.36                           199 233
 GZV  SZ E    0   1121 54.56     10859.8 0.28                           253 267
 LAS  SZ E    0   1121  1.70     64538.3 0.12                           127 183
 TEHA BZ E    0   1121 39.58     12907.0 0.64                           172 240
 SRB  SZ E    0   1122 43.38       870.1  0.2                           499 288
 MRVT BZ E    0   1122  7.12       -99.0 0.28                           299  64
 QAMS SZ E    0   1122 18.24      3867.4 0.28                           343 206
 MZPU BZ E    0   1121 20.16     46162.7  0.2                           132 266
 ANJ  SZ E    0   1121 24.11     17855.5 0.16                           141 146
 QOM  SZ E    0   1121 53.86      9456.1 0.32                           258 224
 VRN  BZ E    0   1121 40.48     16105.4 0.32                           207 215
 KRSH BZ E    0   1122  2.48      8142.8 0.24                           295 196
 MND  BZ E    0   1121 45.28      7866.8 0.24                           224  69
 GAS1 BZ E    0   1122 23.66      1104.9  0.4                           425 300
 SFR  SZ E    0   1122 56.16       984.9 0.56                           447  81
 HRS  SZ E    0   1122  1.84       519.5 0.24                           567 292
 DOBD BZ E    0   1122 50.44       540.9 0.36                           520 164
 PRN  SZ EPg  0   1120 52.1                                      0.1   70.0 244
 GLO  SN EPg  0   1120 52.3                                      0.2   71.0  91
 SHM  SZ EPg  0   1120 54.1                                      0.0   82.0 165
 KLH  SZ E    0   1122 16.33      2304.6 0.28                           380 201
 FIR  BZ EPg  0   1120 57.0                                     -0.1    101 195
 LAS  SZ EPg  0   1121 1.2                                      -0.0    127 183
 MZPU BZ EPg  0   1121 1.8                                      -0.3    132 266
 PRN  SN ESg  0   1121 2.4                                       0.0   70.0 244
 DMV  SZ EPg  0   1121 3.1                                      -0.1    139 221
 ANJ  SZ EPg  0   1121 3.2                                      -0.4    141 146
 TKDS BZ E    0   1121 48.80       690.9 0.48                           493 130
 TEH  BZ EPg  0   1121 8.2                                      -0.2    171 241
 TEHA BZ EPg  4   1121 8.3                                      -0.2    172 240
 TNSJ BZ E    0   1122 45.96      1749.0 0.88                           431 130
 VRN  BZ EPn  0   1121 12.4                                      0.2    207 215
 HSB  BN EPg  0   1121 13.3                                      0.4    199 233
 LAS  SN ESg  0   1121 17.1                                      0.0    127 183
 SFB  BZ EPn  4   1121 17.7                                      0.0    251 197
 TPRV BZ E    0   1123 20.52       526.9 0.44                           511 138
 GZV  SZ EPn  0   1121 17.8                                     -0.3    253 267
 QOM  SZ EPn  4   1121 18.6                                      0.0    258 224
 SHRO BZ EPn  0   1121 20.9                                      0.5    273 102
 KRSH BZ EPn  4   1121 23.0                                     -0.2    295 196
 QABG BZ EPn  0   1121 27.5                                      0.7    324 255
 QAMS SE EPn  4   1121 28.9                                     -0.3    343 206
 ANAR BZ EPn  4   1121 32.8                                     -0.2    375 170
 KLH  SZ EPn  4   1121 33.6                                     -0.2    380 201
 ZNJK BZ EPn  0   1121 35.1                                      0.3    390 274
 TAPT BZ EPn  0   1121 37.5                                     -0.4    415 115
 SBZV BZ EPn  0   1121 37.6                                      0.2    410  91
 TNSJ BZ EPn  0   1121 39.8                                     -0.2    431 130
 TSHB BZ EPn  0   1121 41.3                                     -0.1    443 134
 SFR  SZ EPn  0   1121 42.7                                      0.6    447  81
 CHK  SZ EPn  4   1121 47.4                                     -0.0    491 165
 TKDS BE EPn  4   1121 47.7                                      0.1    493 130
 SRB  SZ EPn  0   1121 48.0                                     -0.5    499 288
 TPRV BZ EPn  4   1121 49.9                                      0.0    511 138
 DOBD BZ EPn  0   1121 51.4                                      0.3    520 164
 RAM  SZ EPn  4   1121 52.5                                      0.6    526 187
 HRS  SZ EPn  0   1121 56.2                                     -0.8    567 292
 BAF  SZ EPn  4   1122 0.5                                       0.2    595 156
 PQL  BZ EPn  0   1122 2.2                                      -0.2    612 322
 MYA  SZ EPn  0   1122 5.2                                       0.0    633  90
 AFRZ BZ EPn  4   1122 6.6                                       0.1    644 120
 XNQ  BZ EPn  4   1122 8.7                                      -0.9    669 322
 QSAR BZ EPn  4   1122 11.4                                     -0.8    692 325
 KOO  SN EPn  4   1122 15.0                                      0.1    712 128
 MON  SZ EPn  4   1122 15.1                                      0.4    709 119
 BSRN BZ EPn  4   1122 20.0                                      0.3    751 130
 DAH  SZ EPn  4   1122 20.4                                      0.3    753 122

 2021 0114 1810 58.5 L  35.966  53.269  8.0  Teh  9 0.3 2.6LTeh                1
 GAP=136                                                                       E
 Iranian Seismological Center, Institute of Geophysics, University of Tehran   6
 STAT SP IPHASW D HRMM SECON CODA AMPLIT PERI AZIMU VELO SNR AR TRES  W DIS CAZ7
 GLO  SZ E    0   1811 27.94      6306.4 0.32                          78.0  40
 PRN  SZ E    0   1811 37.10      3075.7 0.16                          89.0 290
 MZPU BZ E    0   1811 55.22       935.9 0.28                           162 289
 DMV  SZ E    0   1811 44.48      1395.5 0.28                           120 249
 SFB  BZ E    0   1812  4.62       567.3 0.28                           202 208
 VRN  BZ E    0   1811 59.58       745.5 0.32                           177 233
 SHM  SZ EPg  0   1811 2.1                                      -0.2   18.0 176
 FIR  BZ EPg  0   1811 9.1                                      -0.1   59.0 232
 GLO  SZ EPg  0   1811 12.3                                     -0.1   78.0  40
 PRN  SZ EPg  0   1811 14.2                                      0.0   89.0 290
 DMV  SZ EPg  0   1811 19.6                                      0.1    120 249
 MZPU BZ EPg  0   1811 26.7                                      0.2    162 289
 VRN  BZ EPg  0   1811 28.7                                     -0.1    177 233
 SFB  BZ EPn  0   1811 32.2                                      0.2    202 208
 KRSH BZ EPn  0   1811 38.3                                      0.8    245 205

 2021 0117 0239  4.9 L  36.037  52.696  6.0  Teh  7 0.4 2.9LTeh                1
 GAP=118                                                                       E
 Iranian Seismological Center, Institute of Geophysics, University of Tehran   6
 STAT SP IPHASW D HRMM SECON CODA AMPLIT PERI AZIMU VELO SNR AR TRES  W DIS CAZ7
 HSB  BZ E    0   0239 19.98      2147.6 0.44                           145 243
 DMV  SZ E    0   0239 30.40     14960.1 0.36                          79.0 230
 PRN  SZ EPg  0   0239 11.4                                     -0.8   39.0 305
 FIR  BZ EPg  0   0239 13.1                                     -0.1   44.0 173
 LAS  SZ EPg  0   0239 19.0                                      0.4   77.0 162
 GLO  SZ EPn  0   0239 25.1                                      0.5    114  63
 QOM  SZ EPg  0   0239 39.7                                      0.1    199 229

