 2021  3 2 1926 52.7 L  36.048  53.497 15.9  Teh 44 0.4 3.6LTeh                1
 GAP=118   Teh             1.0     0.8  1.7                                    E
 Action:ARG 24-08-11 12:34 OP:OBSP STATUS:               ID:20210302192652     I
 STAT SP IPHASW D HRMM SECON CODA AMPLIT PERI AZIMU VELO AIN AR TRES W  DIS CAZ7
 PRN  SZ E    0   1927 32.18     32093.7 0.44                                   
 SHM  SZ E    0   1927  6.64       -99.0 0.28                                   
 SFB  BZ E    0   1927 57.44      5507.5 0.40                                   
 MZPU BZ E    0   1927 49.30     15603.6 0.52                                   
 ANAR BZ E    0   1928 25.40      1195.4 0.60                                   
 QOM  SZ E    0   1928  9.58      6138.8 0.28                                   
 TEH  BZ E    0   1927 53.10      9192.7 0.60                                   
 FIR  BZ E    0   1927 19.30     31198.7 0.28                                   
 DMV  SZ E    0   1927 43.20     14001.7 0.44                                   
 TEHA BZ E    0   1927 58.96     10272.2 0.44                                   
 TSHB BZ E    0   1927 59.74       -99.0 0.48                                   
 VRN  BZ E    0   1927 53.50     10765.4 0.60                                   
 KLH  SZ E    0   1927 58.15      1638.4 0.28                                   
 GZV  SZ E    0   1927 43.70      3587.4 0.40                                   
 SLJL BZ E    0   1929 10.90       -99.0 0.80                                   
 HSB  BZ E    0   1927 56.78      5497.8 0.44                                   
 MND  BZ E    0   1927 58.24      3767.5 0.28                                   
 MEH  SZ E    0   1929 28.60       359.7 0.60                                   
 TPRV BZ E    0   1929 10.30       832.3 0.52                                   
 ZNGN BZ E    0   1928 25.50       337.9 0.44                                   
 TAPT BZ E    0   1927 51.36       -99.0 0.32                                   
 SFR  SZ E    0   1929  4.28       902.4 0.56                                   
 TNSJ BZ E    0   1928 53.92      2562.1 0.48                                   
 ZEF  SZ E    0   1928 46.14      1523.5 0.40                                   
 RAM  SZ E    0   1929 16.98       426.8 0.52                                   
 QABG BZ E    0   1928 36.22       867.6 0.32                                   
 TKDS BZ E    0   1928 10.06       772.9 0.36                                   
 SHM  SZ EPg  0   1926 59.50                                   -0.10   34.0 215 
 CHK  SZ E    0   1929  4.28      1078.5 0.40                                   
 GLO  SZ EPg  0   1927  3.30                                   -0.10   58.0  31 
 SHM  SE ESg  0   1927  5.00                                    0.00   34.0 215 
 ANJ  SZ EPg  0   1927  6.00                                   -0.10   75.0 150 
 FIR  BZ EPg  0   1927  6.80                                   -0.50   81.0 236 
 DOBD BZ E    0   1929 14.16       940.6 0.92                                   
 LAS  SZ EPg  0   1927  8.40                                   -0.00   89.0 213 
 PRN  SZ EPg  0   1927 11.00                                   -0.20    107 282 
 DMV  SZ EPg  0   1927 16.80                                   -0.50    143 249 
 RDH  LZ EPg  4   1927 17.10                                   -0.70    147 257 
 MZPU BZ EPn  0   1927 22.50                                   -0.30    179 284 
 TEHA BZ EPn  0   1927 24.70                                   -0.20    194 260 
 TEH  BZ EPn  4   1927 24.90                                   -0.10    193 261 
 VRN  BZ EPn  4   1927 25.40                                   -0.10    199 234 
 PRN  SN ESg  0   1927 25.60                                    0.00    107 282 
 MND  BZ EPn  0   1927 27.10                                   -0.20    214  52 
 HSB  BZ EPn  4   1927 27.40                                    0.20    212 252 
 SFB  BZ EPn  4   1927 27.90                                   -0.30    221 212 
 SHRO BZ EPn  0   1927 28.90                                   -0.00    226  91 
 QOM  SZ EPn  4   1927 33.00                                    0.00    259 239 
 MRVT BZ EPn  0   1927 36.70                                   -0.30    292  52 
 ANAR BZ EPn  0   1927 40.20                                   -0.20    318 176 
 GIDE BZ EPn  0   1927 42.40                                   -0.30    336 288 
 KLH  SN EPn  4   1927 44.40                                   -0.20    351 211 
 TAPT BZ EPn  0   1927 44.80                                   -0.30    357 110 
 ZEF  SZ EPn  4   1927 46.20                                   -0.30    366 197 
 TNSJ BZ EPn  0   1927 46.30                                    0.00    366 128 
 SBZV BZ EPn  0   1927 47.10                                    0.00    371  83 
 TSHB BZ EPn  0   1927 47.60                                    0.00    377 133 
 SFR  SZ EPn  0   1927 53.70                                    0.80    418  73 
 TKDS BZ EPn  0   1927 54.10                                    0.10    428 128 
 CHK  SZ EPn  0   1927 54.40                                    0.00    431 169 
 SLJL BZ EPn  0   1927 54.80                                    0.50    430  64 
 TPRV BZ EPn  4   1927 56.20                                    0.20    445 138 
 DOBD BZ EPn  4   1927 58.50                                    0.50    460 168 
 GAS1 BZ EPn  4   1928  0.20                                   -1.00    488 303 
 RAM  SZ EPn  0   1928  1.30                                    0.50    482 193 
 ZNGN BZ EPn  4   1928  3.60                                    0.40    500 210 
 MEH  SZ EPn  4   1928  6.70                                    0.30    527 168 
 SRB  SZ EPn  4   1928  9.80                                   -0.20    556 292 
 MYA  SZ EPn  4   1928 15.10                                    0.40    595  85 
 TEG  SZ EPn  4   1928 15.20                                    0.30    596 124 
 HRS  SZ EPn  4   1928 18.30                                   -0.40    626 296 
 KOO  SZ EPn  4   1928 21.20                                   -0.10    647 127 
 MON  SZ EPn  4   1928 21.80                                    0.30    648 118 
 SHRT BZ EPn  0   1928 24.70                                    0.00    676 111 
 DAH  SZ EPn  4   1928 26.60                                   -0.20    691 120 
                                                                                

 2021  3 2 20 6 10.8 L  36.044  53.494 15.1  Teh 46 0.4 3.6LTeh                1
 GAP=118   Teh             1.0     0.8  1.7                                    E
 Action:ARG 24-08-11 12:34 OP:OBSP STATUS:               ID:20210302200610     I
 STAT SP IPHASW D HRMM SECON CODA AMPLIT PERI AZIMU VELO AIN AR TRES W  DIS CAZ7
 DMV  SZ E    0   20 6 37.16     22000.6 0.20                                   
 ANJ  SZ E    0   20 6 34.61     30335.3 0.16                                   
 LAS  SZ E    0   20 6 44.49     20328.3 0.20                                   
 SHM  SZ E    0   20 6 18.10       -99.0 0.16                                   
 SHRO BZ E    0   20 7 18.58       -99.0 0.72                                   
 PRN  SZ E    0   20 6 30.82     37681.0 0.16                                   
 MND  BZ E    0   20 6 47.10      4855.5 0.24                                   
 KLH  SZ E    0   20 7 52.15      1750.7 0.28                                   
 GZV  SZ E    0   20 7 40.88      2637.7 0.80                                   
 CHK  SZ E    0   20 8 22.29      1001.4 0.44                                   
 QOM  SZ E    0   20 7 27.62      5833.9 0.48                                   
 MZPU BZ E    0   20 7  7.40     11126.3 0.28                                   
 SFB  BZ E    0   20 7 15.76      6739.3 0.28                                   
 QABG BZ E    0   20 7 52.50       914.1 0.40                                   
 TAPT BZ E    0   20 7 55.30      1314.8 0.44                                   
 TNSJ BZ E    0   20 8  5.08      2498.5 0.40                                   
 HSB  BZ E    0   20 6 48.04      4662.0 0.28                                   
 SLJL BZ E    0   20 7 16.90       -99.0 0.28                                   
 TEH  BZ E    0   20 7 11.16      8646.5 0.68                                   
 RAM  SZ E    0   20 8 36.40       404.7 0.52                                   
 VRN  BZ E    0   20 7 13.08     11417.5 0.28                                   
 ANAR BZ E    0   20 7 43.44      1419.6 0.64                                   
 SHM  SZ EPg  0   20 6 17.70                                    0.00   34.0 215 
 GAS1 BZ E    0   20 8 13.50       436.1 0.24                                   
 ZEF  SZ E    0   20 8  4.18      1536.6 0.48                                   
 TKDS BZ E    0   20 8 32.82       713.0 0.64                                   
 GLO  SZ EPg  0   20 6 21.40                                    0.10   58.0  31 
 SHM  SN ESg  0   20 6 22.60                                    0.00   34.0 215 
 TAFT BZ E    0   20 8 41.32       629.2 0.48                                   
 ANJ  SZ EPg  0   20 6 24.00                                   -0.20   75.0 150 
 FIR  BZ EPg  0   20 6 24.90                                   -0.40   82.0 236 
 TPRV BZ E    0   20 8 31.46       694.6 0.76                                   
 LAS  SZ EPg  0   20 6 26.50                                   -0.00   90.0 213 
 SFR  SZ E    0   20 8 22.24       805.1 0.60                                   
 PRN  SZ EPg  0   20 6 29.20                                    0.00    107 281 
 DOBD BZ E    0   20 8 31.86       618.7 0.72                                   
 TSHB BZ E    0   20 7 17.78       -99.0 0.36                                   
 DMV  SZ EPg  0   20 6 34.60                                   -0.70    143 249 
 LAS  SE ESg  0   20 6 38.50                                    0.00   90.0 213 
 MZPU BZ EPg  0   20 6 40.60                                   -0.50    179 284 
 TEHA BE EPn  0   20 6 42.90                                   -0.10    194 260 
 PRN  SN ESg  0   20 6 43.50                                    0.00    107 281 
 VRN  BZ EPn  4   20 6 43.70                                    0.00    199 234 
 MND  BZ EPn  0   20 6 45.00                                   -0.30    214  52 
 SFB  BZ EPn  4   20 6 45.90                                   -0.50    221 212 
 HSB  BZ EPg  4   20 6 46.10                                   -0.40    213 252 
 SHRO BZ EPn  0   20 6 47.40                                    0.30    226  91 
 QOM  SZ EPn  4   20 6 51.00                                   -0.10    259 239 
 MRVT BZ EPn  0   20 6 54.80                                   -0.30    291  52 
 ANAR BZ EPn  0   20 6 58.20                                   -0.40    319 176 
 KLH  SZ EPn  4   20 7  2.30                                   -0.40    351 211 
 TAPT BZ EPn  0   20 7  3.00                                   -0.20    357 110 
 TNSJ BZ EPn  0   20 7  4.30                                   -0.20    367 128 
 ZEF  SZ EPn  4   20 7  4.30                                   -0.40    367 197 
 SBZV BZ EPn  0   20 7  5.50                                    0.30    371  83 
 TSHB BE EPn  0   20 7  6.20                                    0.40    378 133 
 SFR  SZ EPn  0   20 7 11.10                                    0.10    418  73 
 TKDS BZ EPn  4   20 7 11.40                                   -0.70    428 128 
 CHK  SZ EPn  0   20 7 12.50                                    0.00    431 169 
 SLJL BZ EPn  0   20 7 12.90                                    0.50    430  64 
 TPRV BZ EPn  4   20 7 14.10                                   -0.20    445 138 
 DOBD BZ EPn  0   20 7 16.10                                   -0.10    461 168 
 RAM  SZ EPn  4   20 7 19.40                                    0.50    482 193 
 TAFT BZ EPn  0   20 7 19.50                                    0.30    485 172 
 PAY  SN EPn  4   20 7 21.20                                    0.60    495  83 
 ZNGN BE EPn  4   20 7 21.50                                    0.20    501 210 
 MEH  SZ EPn  4   20 7 24.60                                   -0.10    528 168 
 MOG  SZ EPn  4   20 7 24.80                                    0.40    526  88 
 SRB  SZ EPn  0   20 7 27.90                                   -0.10    556 292 
 GRMI BZ EPn  4   20 7 30.00                                   -1.30    582 303 
 AFRZ BZ EPn  4   20 7 31.40                                   -0.00    583 118 
 MYA  SZ EPn  4   20 7 33.30                                    0.50    595  85 
 TEG  SZ EPn  4   20 7 33.30                                    0.30    596 125 
 HRS  SZ EPn  4   20 7 36.30                                   -0.50    626 296 
 KOO  SZ EPn  4   20 7 39.40                                   -0.00    648 127 
 MON  SZ EPn  4   20 7 40.00                                    0.40    648 118 
 SHRT BZ EPn  4   20 7 42.70                                   -0.10    676 111 
 BSRN BZ EPn  4   20 7 44.30                                    0.00    687 129 
 DAH  SZ EPn  4   20 7 44.80                                   -0.10    691 120 
                                                                                

 2021  3 3  143 39.3 L                       Teh 11 0.5 2.5LTeh                1
 GAP=      Teh                                                                 E
 Action:ARG 24-08-11 12:34 OP:OBSP STATUS:               ID:20210303014339     I
 STAT SP IPHASW D HRMM SECON CODA AMPLIT PERI AZIMU VELO AIN AR TRES W  DIS CAZ7
 GAS1 BZ E    0    144  8.98       804.2 0.12                                   
 SRB  SZ E    0    144 10.11      1844.0 0.20                                   
 LHJ2 BZ E    0    144  4.68     14013.2 0.24                                   
 ZNJK BZ E    0    144  2.02       -99.0 0.16                                   
 GZV  SZ E    0    144 19.18      1119.7 0.20                                   
 GIDE BZ E    0    143 55.40       -99.0 0.20                                   
 CSN1 BZ E    0    144  9.28      4421.2 0.28                                   
 HRS  SZ E    0    144 23.57       433.1 0.24                                   
 HGHA BZ E    0    144 33.68       722.1 0.24                                   
 QABG BZ E    0    144 21.24       734.9 0.12                                   
 GIDE BZ EPg  0    143 47.80                                   -0.20   51.0 111 
 LHJ2 BZ EPg  0    143 49.50                                   -0.10   62.0  82 
 CSN1 BZ EPg  0    143 49.60                                    0.50   58.0 335 
 ZNJK BZ EPg  0    143 51.70                                   -0.30   77.0 233 
 GIDE BZ ESg  0    143 54.40                                    0.00   51.0 111 
 GZV  SZ EPg  0    143 57.30                                    0.30    108 136 
 QABG BZ EPg  4    144  1.10                                   -3.30    154 173 
 GAS1 BZ EPg  0    144  3.90                                   -0.00    152 342 
 SRB  SZ EPg  0    144  6.90                                   -0.40    172 299 
 HGHA BZ EPg  0    144  9.20                                    0.10    183 195 
 GRMI BZ EPn  0    144 15.40                                   -0.90    231 326 
 HRS  SZ EPn  0    144 19.40                                    0.90    247 304 
                                                                                

 2021  3 5 1331  6.7 L                       Teh 10 0.4 2.5LTeh                1
 GAP=      Teh                                                                 E
 Action:ARG 24-08-11 12:34 OP:OBSP STATUS:               ID:20210305133106     I
 STAT SP IPHASW D HRMM SECON CODA AMPLIT PERI AZIMU VELO AIN AR TRES W  DIS CAZ7
 DMV  SZ E    0   1331 29.76      3979.5 0.20                                   
 FIR  BZ E    0   1331 15.24     23420.0 0.20                                   
 FIR  BZ EPg  0   1331 11.40                                    0.20   18.0   8 
 FIR  BN ESg  0   1331 14.50                                    0.00   18.0   8 
 DMV  SZ EPg  0   1331 18.30                                    0.00   64.0 280 
 VRN  BZ E    0   1331 39.98      2879.5 0.24                                   
 VRN  BZ EPn  0   1331 25.50                                    0.70    106 240 
 SFB  BZ E    0   1331 50.58      1739.0 0.24                                   
 DMV  SN ESg  0   1331 26.80                                    0.00   64.0 280 
 HSB  BZ E    0   1331 34.82       611.1 0.24                                   
 SFB  BZ EPg  0   1331 29.30                                   -0.00    133 200 
 HSB  BZ EPg  0   1331 29.30                                    0.10    132 268 
 QOM  SZ E    0   1331 55.74      1619.1 0.44                                   
 QOM  SZ EPn  0   1331 34.50                                    0.10    167 245 
 KRSH BZ EPg  0   1331 35.60                                   -0.80    176 198 
 GZV  SZ E    0   1331 53.42       289.5 0.28                                   
 QAMS SZ EPn  0   1331 43.30                                    0.60    228 213 
 QABG BZ E    0   1332 27.58       329.9 0.36                                   
 GZV  SZ EPn  0   1331 45.10                                   -0.00    247 295 
 QABG BZ EPn  0   1331 49.20                                   -0.70    286 276 
                                                                                

