 2021  3 6  928 34.9 L  35.961  52.204 16.1  Teh 15 0.5 2.6LTeh                1
 GAP=49    Teh             0.2     0.2  0.4                                    E
 Action:ARG 24-08-11 12:34 OP:OBSP STATUS:               ID:20210306092834     I
 STAT SP IPHASW D HRMM SECON CODA AMPLIT PERI AZIMU VELO AIN AR TRES W  DIS CAZ7
 LAS  SZ E    0    929  5.70      1459.5 0.20                                   
 FIR  BZ E    0    928 56.56      2695.1 0.20                                   
 GLO  SZ E    0    929 36.96      1193.7 0.60                                   
 VRN  BZ E    0    929 12.02      2150.3 0.36                                   
 SHM  SZ E    0    929  8.74       -99.0 0.40                                   
 SFB  BZ E    0    929 30.04       815.2 0.24                                   
 ANJ  SZ E    0    929  5.39      1168.2 0.20                                   
 RDH  LZ EPg  0    928 41.40                                    0.00   0.00   0 
 PRN  SN EPg  0    928 42.10                                    0.70   33.0  21 
 DMV  SZ EPg  0    928 43.20                                   -0.30   45.0 200 
 QOM  SZ E    0    929 27.10      1271.0 0.20                                   
 FIR  BZ EPg  0    928 46.10                                    0.20   61.0 125 
 ANAR BN E    0    930 29.48        86.8 0.76                                   
 QABG BN E    0    930 17.00       729.9 0.36                                   
 MZPU BZ EPg  0    928 48.40                                   -0.20   78.0 313 
 LAS  SZ EPg  0    928 51.00                                   -0.10   94.0 133 
 SHM  SZ EPg  0    928 51.10                                   -0.90   99.0 100 
 VRN  BZ EPg  0    928 55.20                                    0.70    116 202 
 GLO  SZ EPn  0    929  1.60                                    0.30    158  67 
 QOM  SZ EPn  0    929  1.70                                   -0.20    162 220 
 ANJ  SZ EPn  0    929  2.40                                    0.10    164 109 
 SFB  BZ EPn  0    929  4.80                                    0.60    179 179 
 KRSH BZ EPn  0    929 10.30                                    0.70    221 182 
 QABG BN EPn  0    929 11.70                                   -0.10    239 264 
 ANAR BN EPn  0    929 24.00                                    0.00    338 155 
                                                                                

 2021  3 8 1124 49.4 L  36.563  51.921  6.6  Teh  9 0.4 2.5LTeh                1
 GAP=44    Teh             6.0     4.8  6.4                                    E
 Action:ARG 24-08-11 12:34 OP:OBSP STATUS:               ID:20210308112449     I
 STAT SP IPHASW D HRMM SECON CODA AMPLIT PERI AZIMU VELO AIN AR TRES W  DIS CAZ7
 SHM  SZ E    0   1125 41.16       -99.0 0.44                                   
 LAS  SN E    0   1125 40.24      1197.4 0.16                                   
 VRN  BZ E    0   1125 20.94       956.7 0.12                                   
 GLO  SZ E    0   1125 46.16      1224.8 0.28                                   
 QOM  SZ E    0   1125 24.72       857.8 0.16                                   
 PRN  SZ E    0   1125  7.60     13196.7 0.12                                   
 MZPU BZ E    0   1125  2.68      5846.3 0.36                                   
 DMV  SZ E    0   1125 24.20       680.9 0.20                                   
 FIR  BZ E    0   1125 28.36       803.0 0.24                                   
 GZV  SZ E    0   1125 38.42      1232.4 0.44                                   
 MZPU BZ EPg  0   1124 55.80                                   -0.30   35.0 248 
 PRN  SZ EPg  0   1124 58.70                                   -0.00   51.0 134 
 MZPU BE ESg  0   1125  1.80                                    0.00   35.0 248 
 DMV  SZ EPg  0   1125  8.90                                    0.30    109 175 
 FIR  BZ EPg  0   1125 11.70                                    0.30    126 144 
 SHM  SZ EPg  0   1125 15.20                                    0.20    148 124 
 GZV  SZ EPg  0   1125 15.90                                   -0.30    154 263 
 GLO  SZ EPg  0   1125 19.00                                    0.10    171  92 
 VRN  BZ EPg  0   1125 19.20                                   -0.30    174 186 
 QOM  SZ EPg  0   1125 24.00                                   -0.70    206 203 
                                                                                

 2021  311 1353 15.3 L                       Teh 13 0.4 2.7LTeh                1
 GAP=      Teh                                                                 E
 Action:ARG 24-08-11 12:34 OP:OBSP STATUS:               ID:20210311135315     I
 STAT SP IPHASW D HRMM SECON CODA AMPLIT PERI AZIMU VELO AIN AR TRES W  DIS CAZ7
 PRN  SZ E    0   1353 34.76     11913.5 0.12                                   
 LAS  SZ E    0   1353 45.18      1888.3 0.20                                   
 MZPU BZ E    0   1353 32.04      3178.5 0.16                                   
 FIR  BZ E    0   1353 35.20     11410.4 0.12                                   
 VRN  BZ E    0   1353 45.22      4499.3 0.08                                   
 DMV  SZ E    0   1353 23.38     87811.6 0.16                                   
 TEH  BZ E    0   1353 39.90      4984.4 0.16                                   
 SFB  BZ E    0   1353 44.54      1560.6 0.08                                   
 HSB  BZ E    0   1353 41.62      2475.8 0.16                                   
 ANJ  SZ E    0   1353 45.57      1140.6 0.12                                   
 KRSH BZ E    0   1354 15.18      1804.3 0.28                                   
 QOM  SZ E    0   1353 58.28      1885.6 0.16                                   
 DMV  SZ EPg  0   1353 19.40                                   -0.30   21.0 207 
 FIR  BZ EPg  0   1353 25.70                                   -0.00   57.0 101 
 PRN  SZ EPg  0   1353 26.00                                    0.30   58.0  18 
 TEH  BZ EPg  0   1353 27.40                                    0.10   67.0 271 
 HSB  BZ EPg  0   1353 30.20                                    0.00   85.0 247 
 LAS  SZ EPg  0   1353 30.90                                    0.70   85.0 118 
 MZPU BZ EPg  0   1353 31.50                                   -0.00   93.0 327 
 VRN  BZ EPg  0   1353 31.70                                    0.50   91.0 204 
 SHM  SZ EPg  0   1353 32.50                                   -1.00    104  86 
 TEH  BN ESg  0   1353 36.20                                    0.00   67.0 271 
 QOM  SZ EPg  0   1353 38.90                                   -0.40    140 225 
 SFB  BZ EPg  0   1353 42.00                                    0.20    155 176 
 ANJ  SZ EPg  0   1353 43.80                                    0.40    164 100 
 KRSH BZ EPg  0   1353 48.50                                   -0.30    197 180 
                                                                                

 2021  312 1652  7.0 L                       Teh 16 0.4 3.2LTeh                1
 GAP=      Teh                                                                 E
 Action:ARG 24-08-11 12:34 OP:OBSP STATUS:               ID:20210312165207     I
 STAT SP IPHASW D HRMM SECON CODA AMPLIT PERI AZIMU VELO AIN AR TRES W  DIS CAZ7
 ANJ  SZ E    0   1652 48.25      1611.5 0.16                                   
 MND  BZ E    0   1652 54.52      4173.9 0.20                                   
 DMV  SZ E    0   1653 24.98      1040.7 0.32                                   
 SFR  SZ E    0   1653  6.23       401.9 0.16                                   
 MRVT BZ E    0   1653 16.36       -99.0 0.28                                   
 LAS  SZ E    0   1653 18.28      1596.0 0.20                                   
 FIR  BZ E    0   1653  9.58      2191.3 0.32                                   
 SHM  SZ E    0   1653  4.16       -99.0 0.28                                   
 SLJL BZ E    0   1653 45.42       -99.0 0.32                                   
 MZPU BZ E    0   1653 18.86      1500.0 0.36                                   
 GLO  SE EPg  0   1652 27.10                                    0.30    108 175 
 SFB  BZ E    0   1653 57.80       335.8 0.24                                   
 TNSJ BZ E    0   1654 20.82       -99.0 0.84                                   
 MND  BZ EPg  0   1652 33.30                                   -0.00    149 100 
 PRN  SZ EPn  0   1652 37.80                                   -0.80    184 223 
 SHM  SZ EPn  0   1652 38.90                                   -0.60    189 192 
 MRVT BZ EPn  0   1652 41.80                                   -0.20    209  84 
 FIR  BZ EPn  0   1652 43.60                                   -0.20    221 204 
 ANJ  SZ EPn  0   1652 43.90                                    0.10    222 176 
 MZPU BE EPn  0   1652 44.50                                    0.50    224 240 
 LAS  SZ EPn  0   1652 46.20                                    0.10    241 197 
 SHRO BZ EPn  0   1652 48.40                                   -0.10    262 128 
 DMV  SZ EPn  0   1652 49.00                                    0.50    259 216 
 SFB  BZ EPn  4   1653  1.90                                   -0.10    371 202 
 SLJL BZ EPn  0   1653  1.90                                   -0.00    368  86 
 TNSJ BZ EPn  0   1653 14.40                                    0.40    468 145 
 ANAR BZ EPn  4   1653 14.70                                   -0.10    475 180 
 PAY  SN EPn  0   1653 15.80                                   -0.10    482 102 
                                                                                

 2021  314 2048 31.9 L                       Teh 14 0.5 2.7LTeh                1
 GAP=      Teh                                                                 E
 Action:ARG 24-08-11 12:34 OP:OBSP STATUS:               ID:20210314204831     I
 STAT SP IPHASW D HRMM SECON CODA AMPLIT PERI AZIMU VELO AIN AR TRES W  DIS CAZ7
 KRSH BZ E    0   2048 47.56      5159.4 0.28                                   
 PRN  SZ E    0   2049  8.16       965.0 0.28                                   
 LAS  SZ E    0   2049 11.45      1872.6 0.08                                   
 SFB  BZ E    0   2048 38.94      9647.8 0.20                                   
 QAMS SZ E    0   2049  6.00      3354.9 0.08                                   
 ANAR BZ E    0   2049 26.92       651.1 0.28                                   
 RAM  SN E    0   2050  0.20       240.4 0.40                                   
 DMV  SZ E    0   2048 57.00      1069.4 0.12                                   
 ZEF  SZ E    0   2049 21.10      1223.2 0.24                                   
 ANJ  SZ E    0   2049 28.68      1636.9 0.16                                   
 FIR  BZ E    0   2049 19.82       584.6 0.24                                   
 HSB  BZ E    0   2049 22.14       980.0 0.24                                   
 VRN  BZ E    0   2049  3.22       782.3 0.16                                   
 QOM  SZ E    0   2049 12.18      3025.9 0.12                                   
 KLH  SZ E    0   2049 11.68      7062.4 0.16                                   
 SFB  BZ EPg  0   2048 35.40                                    0.60   12.0 283 
 KRSH BZ EPg  0   2048 40.50                                    0.30   45.0 208 
 VRN  BZ EPg  0   2048 49.20                                    0.80   94.0 322 
 QAMS SZ EPg  0   2048 50.90                                   -0.30    111 234 
 QOM  SZ EPg  0   2048 54.30                                   -0.40    132 296 
 LAS  SZ EPg  0   2048 54.50                                    0.30    129  25 
 KLH  SZ EPg  0   2048 54.90                                   -0.20    133 213 
 DMV  SZ EPg  0   2048 56.10                                   -0.40    142 348 
 FIR  BZ EPg  0   2048 57.20                                   -0.70    150  14 
 ZEF  SZ EPg  0   2048 58.70                                   -0.60    159 181 
 HSB  BZ EPg  0   2048 59.00                                   -0.10    158 321 
 ANAR BZ EPn  0   2049  2.20                                    0.60    179 135 
 ANJ  SZ EPn  0   2049  3.20                                   -0.30    190  48 
 PRN  SZ EPn  0   2049  6.90                                    0.40    212 359 
                                                                                

 2021  318 2342 23.2 L                       Teh 10 0.3 2.6LTeh                1
 GAP=      Teh                                                                 E
 Action:ARG 24-08-11 12:34 OP:OBSP STATUS:               ID:20210318234223     I
 STAT SP IPHASW D HRMM SECON CODA AMPLIT PERI AZIMU VELO AIN AR TRES W  DIS CAZ7
 PRN  SZ E    0   2342 44.76      9695.5 0.12                                   
 VRN  BZ E    0   2342 52.02      1018.6 0.08                                   
 GLO  SZ E    0   2343 23.08      1811.2 0.28                                   
 LAS  SZ E    0   2342 53.20       461.9 0.16                                   
 MZPU BZ EPg  0   2342 26.70                                    0.40   11.0 246 
 DMV  SZ E    0   2342 56.20      1254.4 0.36                                   
 QOM  SZ E    0   2342 56.86       812.5 0.36                                   
 GZV  SZ E    0   2343  5.14       976.4 0.36                                   
 PRN  SZ EPg  0   2342 34.30                                   -0.40   64.0 114 
 FIR  BZ E    0   2342 47.82       968.5 0.08                                   
 DMV  SZ EPg  0   2342 41.80                                    0.10    105 163 
 HSB  BZ EPg  0   2342 44.50                                    0.30    122 198 
 GZV  SZ EPg  0   2342 45.90                                   -0.20    132 266 
 FIR  BZ EPg  0   2342 46.20                                   -0.30    134 134 
 VRN  BZ EPg  0   2342 51.30                                   -0.20    165 179 
 LAS  SZ EPg  0   2342 52.40                                    0.30    168 136 
 GLO  SZ EPn  0   2342 55.40                                    0.30    192  89 
 QOM  SZ EPg  0   2342 55.40                                   -0.50    190 197 
 DMV  SE ESg  0   2342 55.90                                    0.00    105 163 
                                                                                

 2021  319 1957 36.5 L                       Teh 10 0.4 2.5LTeh                1
 GAP=      Teh                                                                 E
 Action:ARG 24-08-11 12:34 OP:OBSP STATUS:               ID:20210319195736     I
 STAT SP IPHASW D HRMM SECON CODA AMPLIT PERI AZIMU VELO AIN AR TRES W  DIS CAZ7
 SFB  BZ E    0   1957 45.68      5663.5 0.20                                   
 DMV  SZ E    0   1957 58.10      1174.6 0.16                                   
 KLH  SZ E    0   1958 17.67      1657.1 0.12                                   
 QAMS SZ E    0   1958  9.68      3172.5 0.08                                   
 ANAR BZ E    0   1958 40.10       335.5 0.32                                   
 QOM  SZ E    0   1958  7.30      2434.9 0.08                                   
 KRSH BZ E    0   1957 55.30      4934.2 0.24                                   
 SFB  BZ EPg  0   1957 41.70                                    0.20   24.0 135 
 KRSH BZ EPg  0   1957 47.20                                   -0.10   60.0 173 
 VRN  BZ EPg  0   1957 48.30                                    0.70   62.0 331 
 QOM  SZ EPg  0   1957 53.80                                    0.30   98.0 293 
 QAMS SZ EPg  0   1957 54.80                                    0.10    105 216 
 DMV  SZ EPg  0   1957 57.10                                    0.10    119 359 
 HSB  BZ EPg  0   1957 57.70                                   -0.20    126 326 
 KLH  SZ EPg  0   1957 59.70                                   -0.50    139 199 
 FIR  BZ EPg  0   1957 59.90                                   -0.70    141  27 
 QOM  SE ESg  0   1958  6.10                                    0.00   98.0 293 
 ANAR BZ EPn  0   1958 10.80                                    0.30    213 133 
                                                                                

 2021  320  554 16.0 L                       Teh  9 0.4 2.8LTeh                1
 GAP=      Teh                                                                 E
 Action:ARG 24-08-11 12:34 OP:OBSP STATUS:               ID:20210320055416     I
 STAT SP IPHASW D HRMM SECON CODA AMPLIT PERI AZIMU VELO AIN AR TRES W  DIS CAZ7
 HSB  BZ E    0    554 25.92     49469.6 0.08                                   
 HSB  BZ EPg  0    554 21.60                                   -0.40   29.0 285 
 DMV  SZ E    0    554 32.82     26429.2 0.16                                   
 VRN  BZ E    0    554 31.92     17562.1 0.24                                   
 TEH  BZ E    0    554 31.98     43557.1 0.08                                   
 VRN  BZ EPg  0    554 24.50                                    0.40   43.0 163 
 DMV  SZ EPg  0    554 25.00                                    0.20   46.0  60 
 TEH  BZ EPg  0    554 25.50                                    0.90   46.0 337 
 QOM  SZ E    0    554 38.80     30076.8 0.16                                   
 QOM  SZ EPg  0    554 29.00                                   -0.30   76.0 219 
 MZPU BZ E    0    554 54.22      1778.8 0.24                                   
 DMV  SN ESg  0    554 31.10                                    0.00   46.0  60 
 PRN  SZ E    0    554 52.56      3890.7 0.24                                   
 SFB  BZ E    0    554 54.60      3016.2 0.20                                   
 MZPU BZ EPg  0    554 36.10                                   -0.30    119 359 
 PRN  SZ EPg  0    554 36.20                                   -0.10    117  35 
 SFB  BZ EPg  0    554 37.80                                    0.10    128 152 
 ANJ  SZ E    0    555 17.59      2177.6 0.12                                   
 ANJ  SZ EPn  0    554 49.60                                   -0.00    211  86 
                                                                                

