 2021 0302 1926 52.9 L  36.054  53.500 14.2  Teh 46 0.4 3.6LTeh                1
 GAP=88                                                                        E
 Iranian Seismological Center, Institute of Geophysics, University of Tehran   6
 STAT SP IPHASW D HRMM SECON CODA AMPLIT PERI AZIMU VELO SNR AR TRES  W DIS CAZ7
 PRN  SZ E    0   1927 32.18     32093.7 0.44                           107 282
 SHM  SZ E    0   1927  6.64       -99.0 0.28                          34.0 215
 SFB  BZ E    0   1927 57.44      5507.5  0.4                           221 212
 MZPU BZ E    0   1927 49.30     15603.6 0.52                           179 284
 ANAR BZ E    0   1928 25.40      1195.4  0.6                           318 176
 QOM  SZ E    0   1928  9.58      6138.8 0.28                           259 239
 TEH  BZ E    0   1927 53.10      9192.7  0.6                           193 261
 FIR  BZ E    0   1927 19.30     31198.7 0.28                          81.0 236
 DMV  SZ E    0   1927 43.20     14001.7 0.44                           143 249
 TEHA BZ E    0   1927 58.96     10272.2 0.44                           194 260
 TSHB BZ E    0   1927 59.74       -99.0 0.48                           377 133
 VRN  BZ E    0   1927 53.50     10765.4  0.6                           199 234
 KLH  SZ E    0   1927 58.15      1638.4 0.28                           351 211
 GZV  SZ E    0   1927 43.70      3587.4  0.4                           297 278
 SLJL BZ E    0   1929 10.90       -99.0  0.8                           430  64
 HSB  BZ E    0   1927 56.78      5497.8 0.44                           212 252
 MND  BZ E    0   1927 58.24      3767.5 0.28                           214  52
 MEH  SZ E    0   1929 28.60       359.7  0.6                           527 168
 TPRV BZ E    0   1929 10.30       832.3 0.52                           445 138
 ZNGN BZ E    0   1928 25.50       337.9 0.44                           500 210
 TAPT BZ E    0   1927 51.36       -99.0 0.32                           357 110
 SFR  SZ E    0   1929  4.28       902.4 0.56                           418  73
 TNSJ BZ E    0   1928 53.92      2562.1 0.48                           366 128
 ZEF  SZ E    0   1928 46.14      1523.5  0.4                           366 197
 RAM  SZ E    0   1929 16.98       426.8 0.52                           482 193
 QABG BZ E    0   1928 36.22       867.6 0.32                           356 265
 TKDS BZ E    0   1928 10.06       772.9 0.36                           428 128
 SHM  SZ EPg  0   1926 59.5                                     -0.1   34.0 215
 CHK  SZ E    0   1929  4.28      1078.5  0.4                           431 169
 GLO  SZ EPg  0   1927 3.3                                      -0.1   58.0  31
 SHM  SE ESg  0   1927 5.0                                       0.0   34.0 215
 ANJ  SZ EPg  0   1927 6.0                                      -0.1   75.0 150
 FIR  BZ EPg  0   1927 6.8                                      -0.5   81.0 236
 DOBD BZ E    0   1929 14.16       940.6 0.92                           460 168
 LAS  SZ EPg  0   1927 8.4                                      -0.0   89.0 213
 PRN  SZ EPg  0   1927 11.0                                     -0.2    107 282
 DMV  SZ EPg  0   1927 16.8                                     -0.5    143 249
 RDH  LZ EPg  4   1927 17.1                                     -0.7    147 257
 MZPU BZ EPn  0   1927 22.5                                     -0.3    179 284
 TEHA BZ EPn  0   1927 24.7                                     -0.2    194 260
 TEH  BZ EPn  4   1927 24.9                                     -0.1    193 261
 VRN  BZ EPn  4   1927 25.4                                     -0.1    199 234
 PRN  SN ESg  0   1927 25.6                                      0.0    107 282
 MND  BZ EPn  0   1927 27.1                                     -0.2    214  52
 HSB  BZ EPn  4   1927 27.4                                      0.2    212 252
 SFB  BZ EPn  4   1927 27.9                                     -0.3    221 212
 SHRO BZ EPn  0   1927 28.9                                     -0.0    226  91
 QOM  SZ EPn  4   1927 33.0                                      0.0    259 239
 MRVT BZ EPn  0   1927 36.7                                     -0.3    292  52
 ANAR BZ EPn  0   1927 40.2                                     -0.2    318 176
 GIDE BZ EPn  0   1927 42.4                                     -0.3    336 288
 KLH  SN EPn  4   1927 44.4                                     -0.2    351 211
 TAPT BZ EPn  0   1927 44.8                                     -0.3    357 110
 ZEF  SZ EPn  4   1927 46.2                                     -0.3    366 197
 TNSJ BZ EPn  0   1927 46.3                                      0.0    366 128
 SBZV BZ EPn  0   1927 47.1                                      0.0    371  83
 TSHB BZ EPn  0   1927 47.6                                      0.0    377 133
 SFR  SZ EPn  0   1927 53.7                                      0.8    418  73
 TKDS BZ EPn  0   1927 54.1                                      0.1    428 128
 CHK  SZ EPn  0   1927 54.4                                      0.0    431 169
 SLJL BZ EPn  0   1927 54.8                                      0.5    430  64
 TPRV BZ EPn  4   1927 56.2                                      0.2    445 138
 DOBD BZ EPn  4   1927 58.5                                      0.5    460 168
 GAS1 BZ EPn  4   1928 0.2                                      -1.0    488 303
 RAM  SZ EPn  0   1928 1.3                                       0.5    482 193
 ZNGN BZ EPn  4   1928 3.6                                       0.4    500 210
 MEH  SZ EPn  4   1928 6.7                                       0.3    527 168
 SRB  SZ EPn  4   1928 9.8                                      -0.2    556 292
 MYA  SZ EPn  4   1928 15.1                                      0.4    595  85
 TEG  SZ EPn  4   1928 15.2                                      0.3    596 124
 HRS  SZ EPn  4   1928 18.3                                     -0.4    626 296
 KOO  SZ EPn  4   1928 21.2                                     -0.1    647 127
 MON  SZ EPn  4   1928 21.8                                      0.3    648 118
 SHRT BZ EPn  0   1928 24.7                                      0.0    676 111
 DAH  SZ EPn  4   1928 26.6                                     -0.2    691 120

 2021 0302 2006 10.9 L  36.058  53.500 13.3  Teh 50 0.4 3.6LTeh                1
 GAP=88                                                                        E
 Iranian Seismological Center, Institute of Geophysics, University of Tehran   6
 STAT SP IPHASW D HRMM SECON CODA AMPLIT PERI AZIMU VELO SNR AR TRES  W DIS CAZ7
 DMV  SZ E    0   2006 37.16     22000.6  0.2                           143 249
 ANJ  SZ E    0   2006 34.61     30335.3 0.16                          75.0 150
 LAS  SZ E    0   2006 44.49     20328.3  0.2                          90.0 213
 SHM  SZ E    0   2006 18.10       -99.0 0.16                          34.0 215
 SHRO BZ E    0   2007 18.58       -99.0 0.72                           226  91
 PRN  SZ E    0   2006 30.82     37681.0 0.16                           107 281
 MND  BZ E    0   2006 47.10      4855.5 0.24                           214  52
 KLH  SZ E    0   2007 52.15      1750.7 0.28                           351 211
 GZV  SZ E    0   2007 40.88      2637.7  0.8                           297 278
 CHK  SZ E    0   2008 22.29      1001.4 0.44                           431 169
 QOM  SZ E    0   2007 27.62      5833.9 0.48                           259 239
 MZPU BZ E    0   2007  7.40     11126.3 0.28                           179 284
 SFB  BZ E    0   2007 15.76      6739.3 0.28                           221 212
 QABG BZ E    0   2007 52.50       914.1  0.4                           356 265
 TAPT BZ E    0   2007 55.30      1314.8 0.44                           357 110
 TNSJ BZ E    0   2008  5.08      2498.5  0.4                           367 128
 HSB  BZ E    0   2006 48.04      4662.0 0.28                           213 252
 SLJL BZ E    0   2007 16.90       -99.0 0.28                           430  64
 TEH  BZ E    0   2007 11.16      8646.5 0.68                           194 261
 RAM  SZ E    0   2008 36.40       404.7 0.52                           482 193
 VRN  BZ E    0   2007 13.08     11417.5 0.28                           199 234
 ANAR BZ E    0   2007 43.44      1419.6 0.64                           319 176
 SHM  SZ EPg  0   2006 17.7                                      0.0   34.0 215
 GAS1 BZ E    0   2008 13.50       436.1 0.24                           488 303
 ZEF  SZ E    0   2008  4.18      1536.6 0.48                           367 197
 TKDS BZ E    0   2008 32.82       713.0 0.64                           428 128
 GLO  SZ EPg  0   2006 21.4                                      0.1   58.0  31
 SHM  SN ESg  0   2006 22.6                                      0.0   34.0 215
 TAFT BZ E    0   2008 41.32       629.2 0.48                           485 172
 ANJ  SZ EPg  0   2006 24.0                                     -0.2   75.0 150
 FIR  BZ EPg  0   2006 24.9                                     -0.4   82.0 236
 TPRV BZ E    0   2008 31.46       694.6 0.76                           445 138
 LAS  SZ EPg  0   2006 26.5                                     -0.0   90.0 213
 SFR  SZ E    0   2008 22.24       805.1  0.6                           418  73
 PRN  SZ EPg  0   2006 29.2                                      0.0    107 281
 DOBD BZ E    0   2008 31.86       618.7 0.72                           461 168
 TSHB BZ E    0   2007 17.78       -99.0 0.36                           378 133
 DMV  SZ EPg  0   2006 34.6                                     -0.7    143 249
 LAS  SE ESg  0   2006 38.5                                      0.0   90.0 213
 MZPU BZ EPg  0   2006 40.6                                     -0.5    179 284
 TEHA BE EPn  0   2006 42.9                                     -0.1    194 260
 PRN  SN ESg  0   2006 43.5                                      0.0    107 281
 VRN  BZ EPn  4   2006 43.7                                      0.0    199 234
 MND  BZ EPn  0   2006 45.0                                     -0.3    214  52
 SFB  BZ EPn  4   2006 45.9                                     -0.5    221 212
 HSB  BZ EPg  4   2006 46.1                                     -0.4    213 252
 SHRO BZ EPn  0   2006 47.4                                      0.3    226  91
 QOM  SZ EPn  4   2006 51.0                                     -0.1    259 239
 MRVT BZ EPn  0   2006 54.8                                     -0.3    291  52
 ANAR BZ EPn  0   2006 58.2                                     -0.4    319 176
 KLH  SZ EPn  4   2007 2.3                                      -0.4    351 211
 TAPT BZ EPn  0   2007 3.0                                      -0.2    357 110
 TNSJ BZ EPn  0   2007 4.3                                      -0.2    367 128
 ZEF  SZ EPn  4   2007 4.3                                      -0.4    367 197
 SBZV BZ EPn  0   2007 5.5                                       0.3    371  83
 TSHB BE EPn  0   2007 6.2                                       0.4    378 133
 SFR  SZ EPn  0   2007 11.1                                      0.1    418  73
 TKDS BZ EPn  4   2007 11.4                                     -0.7    428 128
 CHK  SZ EPn  0   2007 12.5                                      0.0    431 169
 SLJL BZ EPn  0   2007 12.9                                      0.5    430  64
 TPRV BZ EPn  4   2007 14.1                                     -0.2    445 138
 DOBD BZ EPn  0   2007 16.1                                     -0.1    461 168
 RAM  SZ EPn  4   2007 19.4                                      0.5    482 193
 TAFT BZ EPn  0   2007 19.5                                      0.3    485 172
 PAY  SN EPn  4   2007 21.2                                      0.6    495  83
 ZNGN BE EPn  4   2007 21.5                                      0.2    501 210
 MEH  SZ EPn  4   2007 24.6                                     -0.1    528 168
 MOG  SZ EPn  4   2007 24.8                                      0.4    526  88
 SRB  SZ EPn  0   2007 27.9                                     -0.1    556 292
 GRMI BZ EPn  4   2007 30.0                                     -1.3    582 303
 AFRZ BZ EPn  4   2007 31.4                                     -0.0    583 118
 MYA  SZ EPn  4   2007 33.3                                      0.5    595  85
 TEG  SZ EPn  4   2007 33.3                                      0.3    596 125
 HRS  SZ EPn  4   2007 36.3                                     -0.5    626 296
 KOO  SZ EPn  4   2007 39.4                                     -0.0    648 127
 MON  SZ EPn  4   2007 40.0                                      0.4    648 118
 SHRT BZ EPn  4   2007 42.7                                     -0.1    676 111
 BSRN BZ EPn  4   2007 44.3                                      0.0    687 129
 DAH  SZ EPn  4   2007 44.8                                     -0.1    691 120

 2021 0303 0143 39.3 L  37.087  49.372 14.5  Teh 11 0.5 2.5LTeh                1
 GAP=100                                                                       E
 Iranian Seismological Center, Institute of Geophysics, University of Tehran   6
 STAT SP IPHASW D HRMM SECON CODA AMPLIT PERI AZIMU VELO SNR AR TRES  W DIS CAZ7
 GAS1 BZ E    0   0144  8.98       804.2 0.12                           152 342
 SRB  SZ E    0   0144 10.11      1844.0  0.2                           172 299
 LHJ2 BZ E    0   0144  4.68     14013.2 0.24                          62.0  82
 ZNJK BZ E    0   0144  2.02       -99.0 0.16                          77.0 233
 GZV  SZ E    0   0144 19.18      1119.7  0.2                           108 136
 GIDE BZ E    0   0143 55.40       -99.0  0.2                          51.0 111
 CSN1 BZ E    0   0144  9.28      4421.2 0.28                          58.0 335
 HRS  SZ E    0   0144 23.57       433.1 0.24                           247 304
 HGHA BZ E    0   0144 33.68       722.1 0.24                           183 195
 QABG BZ E    0   0144 21.24       734.9 0.12                           154 173
 GIDE BZ EPg  0   0143 47.8                                     -0.2   51.0 111
 LHJ2 BZ EPg  0   0143 49.5                                     -0.1   62.0  82
 CSN1 BZ EPg  0   0143 49.6                                      0.5   58.0 335
 ZNJK BZ EPg  0   0143 51.7                                     -0.3   77.0 233
 GIDE BZ ESg  0   0143 54.4                                      0.0   51.0 111
 GZV  SZ EPg  0   0143 57.3                                      0.3    108 136
 QABG BZ EPg  4   0144 1.1                                      -3.3    154 173
 GAS1 BZ EPg  0   0144 3.9                                      -0.0    152 342
 SRB  SZ EPg  0   0144 6.9                                      -0.4    172 299
 HGHA BZ EPg  0   0144 9.2                                       0.1    183 195
 GRMI BZ EPn  0   0144 15.4                                     -0.9    231 326
 HRS  SZ EPn  0   0144 19.4                                      0.9    247 304

 2021 0305 1331  6.7 L  35.480  52.727 15.0  Teh 10 0.4 2.5LTeh                1
 GAP=190                                                                       E
 Iranian Seismological Center, Institute of Geophysics, University of Tehran   6
 STAT SP IPHASW D HRMM SECON CODA AMPLIT PERI AZIMU VELO SNR AR TRES  W DIS CAZ7
 DMV  SZ E    0   1331 29.76      3979.5  0.2                          64.0 280
 FIR  BZ E    0   1331 15.24    123420.0  0.2                          18.0   8
 FIR  BZ EPg  0   1331 11.4                                      0.2   18.0   8
 FIR  BN ESg  0   1331 14.5                                      0.0   18.0   8
 DMV  SZ EPg  0   1331 18.3                                      0.0   64.0 280
 VRN  BZ E    0   1331 39.98      2879.5 0.24                           106 240
 VRN  BZ EPn  0   1331 25.5                                      0.7    106 240
 SFB  BZ E    0   1331 50.58      1739.0 0.24                           133 200
 DMV  SN ESg  0   1331 26.8                                      0.0   64.0 280
 HSB  BZ E    0   1331 34.82       611.1 0.24                           132 268
 SFB  BZ EPg  0   1331 29.3                                     -0.0    133 200
 HSB  BZ EPg  0   1331 29.3                                      0.1    132 268
 QOM  SZ E    0   1331 55.74      1619.1 0.44                           167 245
 QOM  SZ EPn  0   1331 34.5                                      0.1    167 245
 KRSH BZ EPg  0   1331 35.6                                     -0.8    176 198
 GZV  SZ E    0   1331 53.42       289.5 0.28                           248 295
 QAMS SZ EPn  0   1331 43.3                                      0.6    229 213
 QABG BZ E    0   1332 27.58       329.9 0.36                           286 276
 GZV  SZ EPn  0   1331 45.1                                     -0.0    248 295
 QABG BZ EPn  0   1331 49.2                                     -0.7    286 276

 2021 0306 0928 34.9 L  35.961  52.204 16.0  Teh 15 0.5 2.6LTeh                1
 GAP=49                                                                        E
 Iranian Seismological Center, Institute of Geophysics, University of Tehran   6
 STAT SP IPHASW D HRMM SECON CODA AMPLIT PERI AZIMU VELO SNR AR TRES  W DIS CAZ7
 LAS  SZ E    0   0929  5.70      1459.5  0.2                          94.0 133
 FIR  BZ E    0   0928 56.56      2695.1  0.2                          61.0 125
 GLO  SZ E    0   0929 36.96      1193.7  0.6                           158  67
 VRN  BZ E    0   0929 12.02      2150.3 0.36                           116 202
 SHM  SZ E    0   0929  8.74       -99.0  0.4                          99.0 100
 SFB  BZ E    0   0929 30.04       815.2 0.24                           179 179
 ANJ  SZ E    0   0929  5.39      1168.2  0.2                           164 109
 RDH  LZ EPg  0   0928 41.4                                      0.0    0.0   0
 PRN  SN EPg  0   0928 42.1                                      0.7   33.0  21
 DMV  SZ EPg  0   0928 43.2                                     -0.3   45.0 200
 QOM  SZ E    0   0929 27.10      1271.0  0.2                           162 220
 FIR  BZ EPg  0   0928 46.1                                      0.2   61.0 125
 ANAR BN E    0   0930 29.48        86.8 0.76                           338 155
 QABG BN E    0   0930 17.00       729.9 0.36                           239 264
 MZPU BZ EPg  0   0928 48.4                                     -0.2   78.0 313
 LAS  SZ EPg  0   0928 51.0                                     -0.1   94.0 133
 SHM  SZ EPg  0   0928 51.1                                     -0.9   99.0 100
 VRN  BZ EPg  0   0928 55.2                                      0.7    116 202
 GLO  SZ EPn  0   0929 1.6                                       0.3    158  67
 QOM  SZ EPn  0   0929 1.7                                      -0.2    162 220
 ANJ  SZ EPn  0   0929 2.4                                       0.1    164 109
 SFB  BZ EPn  0   0929 4.8                                       0.6    179 179
 KRSH BZ EPn  0   0929 10.3                                      0.7    221 182
 QABG BN EPn  0   0929 11.7                                     -0.1    239 264
 ANAR BN EPn  0   0929 24.0                                      0.0    338 155

