 2021  119  6 0 12.4 L  35.227  53.263  8.3  Teh 51 0.4 3.9LTeh                1
 GAP=151   Teh             2.8     2.3  3.8                                    E
 Action:ARG 24-08-11 12:34 OP:OBSP STATUS:               ID:20210119060012     I
 STAT SP IPHASW D HRMM SECON CODA AMPLIT PERI AZIMU VELO AIN AR TRES W  DIS CAZ7
 PRN  SZ E    0    6 1  3.60     18616.5 0.44                                   
 SFB  BZ E    0    6 0 56.18     22689.2 0.24                                   
 KLH  SZ E    0    6 1 31.41      7999.2 0.32                                   
 SHM  SZ E    0    6 0 24.52       -99.0 0.36                                   
 TEHA BZ E    0    6 1  9.88     19983.4 0.36                                   
 ANJ  SZ E    0    6 0 32.53       475.0 0.12                                   
 CHK  SZ E    0    6 1 44.07      3853.6 0.44                                   
 VRN  BZ E    0    6 0 57.16     31069.0 0.32                                   
 DMV  SZ E    0    6 0 52.22     18644.9 0.36                                   
 QOM  SZ E    0    6 1 12.56     20074.7 0.56                                   
 ANAR BZ E    0    6 1 27.62      5869.4 0.44                                   
 RAM  SZ E    0    6 2 16.68      1382.9 0.56                                   
 GZV  SZ E    0    6 1 43.28      2974.7 0.48                                   
 QABG BZ E    0    6 1 49.10      3331.4 0.48                                   
 QAMS SZ E    0    6 0 58.08     14717.8 0.36                                   
 DOBD BZ E    0    6 2 16.48      2377.2 0.76                                   
 GAR  SZ E    0    6 1 13.48      2767.4 0.36                                   
 HGHA BZ E    0    6 1 31.12      2589.3 0.48                                   
 GLO  SZ E    0    6 1  8.64     18352.8 0.88                                   
 MZPU BZ E    0    6 0 52.92      6437.7 0.60                                   
 KRSH BZ E    0    6 1 12.88     28200.6 0.32                                   
 MND  BZ E    0    6 1 40.88      2612.2 0.36                                   
 SHRO BZ E    0    6 1 34.62       -99.0 0.60                                   
 TEH  BZ E    0    6 1  8.24     29517.2 0.36                                   
 KLNJ BZ E    0    6 1 47.44       547.5 0.56                                   
 BAF  SZ E    0    6 2 40.52      1122.5 0.60                                   
 TPRV BZ E    0    6 2 27.28      2449.6 0.72                                   
 TKDS BZ E    0    6 1 31.28      2391.0 0.44                                   
 LAS  SZ EPg  0    6 0 18.90                                    0.40   32.0 301 
 TSHB BZ E    0    6 1 14.10       -99.0 0.36                                   
 JHBN BZ E    0    6 2 23.16       991.4 0.52                                   
 ANJ  SZ EPg  0    6 0 23.80                                   -0.20   65.0  66 
 ZNGN BZ E    0    6 1 31.72      1313.2 0.36                                   
 SHM  SZ EPg  0    6 0 24.10                                    0.10   64.0   2 
 FIR  BZ EPg  0    6 0 24.20                                    0.10   65.0 315 
 ANJ  SN ESg  0    6 0 32.20                                    0.00   65.0  66 
 FIR  BE ESg  0    6 0 32.20                                    0.00   65.0 315 
 DMV  SZ EPg  0    6 0 33.10                                    0.10    117 289 
 SFR  SZ E    0    6 2 49.57      1337.1 0.64                                   
 AFRZ BZ E    0    6 1 31.76      1072.4 0.28                                   
 SFB  BZ EPg  0    6 0 35.90                                    0.30    135 224 
 VRN  BZ EPg  0    6 0 36.40                                   -0.50    142 260 
 PRN  SZ EPg  0    6 0 36.90                                    0.40    140 324 
 TAFT BZ E    0    6 1 55.04      2705.5 0.60                                   
 GLO  SZ EPg  0    6 0 38.40                                    0.20    150  20 
 KRSH BZ EPn  0    6 0 41.80                                    0.60    174 217 
 TEH  BZ EPg  4    6 0 42.70                                   -0.40    180 289 
 TEHA BZ EPg  0    6 0 42.90                                   -0.20    180 289 
 QOM  SZ EPn  0    6 0 45.70                                   -0.40    205 259 
 MZPU BZ EPn  0    6 0 46.70                                    0.70    204 312 
 ANAR BZ EPn  0    6 0 49.20                                   -0.40    230 169 
 KLH  SE EPn  0    6 0 53.60                                   -0.20    263 217 
 SHRO BZ EPn  0    6 0 53.70                                    0.10    263  70 
 MND  BZ EPn  0    6 0 57.90                                    0.70    294  40 
 GZV  SZ EPn  4    6 0 58.90                                    0.10    304 296 
 GAR  SZ EPn  0    6 1  2.50                                    0.10    333 200 
 TNSJ BZ EPn  0    6 1  2.60                                   -0.20    337 114 
 QABG BZ EPn  0    6 1  2.70                                   -0.40    338 280 
 TSHB BZ EPn  0    6 1  2.90                                   -0.30    340 119 
 CHK  SZ EPn  0    6 1  4.20                                    0.00    348 162 
 TAPT BZ EPn  0    6 1  4.80                                   -0.50    358  95 
 PIR  SZ EPn  4    6 1  6.10                                    0.60    357 218 
 MRVT BZ EPn  0    6 1  7.40                                    0.50    370  42 
 DOBD BZ EPn  0    6 1  8.20                                    0.40    377 162 
 RAM  SZ EPn  0    6 1  9.50                                    0.20    388 192 
 TAFT BZ EPn  4    6 1 10.10                                   -0.40    398 167 
 TKDS BZ EPn  0    6 1 10.30                                   -0.00    397 116 
 TPRV BZ EPn  0    6 1 10.60                                    0.10    399 127 
 HGHA BZ EPn  0    6 1 10.60                                   -0.30    401 275 
 JHBN BZ EPn  0    6 1 12.40                                    0.30    410 217 
 SBZV BZ EPn  0    6 1 12.50                                    0.10    413  71 
 ZNGN BZ EPn  0    6 1 12.70                                    0.50    411 214 
 BJND SZ EPn  4    6 1 15.70                                    0.50    435  57 
 MEH  SZ EPn  4    6 1 16.20                                    0.00    444 163 
 BAF  SZ EPn  0    6 1 18.30                                    0.60    457 151 
 SFR  SZ EPn  0    6 1 19.90                                    0.20    471  63 
 KLNJ BZ EPn  4    6 1 22.20                                   -0.30    493 199 
 KFM  BZ EPn  0    6 1 27.30                                    0.10    533 251 
 PAY  SZ EPn  0    6 1 27.70                                    0.20    535  74 
 AFRZ BZ EPn  4    6 1 31.40                                    0.20    566 109 
 TEG  SZ EPn  4    6 1 31.50                                   -0.10    569 116 
 KOO  SZ EPn  4    6 1 37.60                                    0.10    616 119 
 MYA  SZ EPn  4    6 1 39.40                                    0.10    630  77 
 MON  SZ EPn  4    6 1 39.90                                    0.40    632 109 
 BSRN BZ EPn  0    6 1 42.40                                    0.70    651 122 
 SHRT BZ EPn  4    6 1 44.10                                    0.20    669 103 
 DAH  SZ EPn  4    6 1 44.40                                    0.10    670 112 
                                                                                

 2021  121  8 0  0.0 L                       Teh  7 0.4 2.9LTeh                1
 GAP=      Teh                                                                 E
 Action:ARG 24-08-11 12:34 OP:OBSP STATUS:               ID:20210121080000     I
 STAT SP IPHASW D HRMM SECON CODA AMPLIT PERI AZIMU VELO AIN AR TRES W  DIS CAZ7
 PRN  SZ E    0    8 1 11.84      3480.1 0.20                                   
 KRSH BZ E    0    8 2  0.50       282.2 0.40                                   
 GZV  SZ EPg  0    8 0 13.90                                    0.10   78.0 175 
 CSN1 BZ EPg  0    8 0 18.10                                   -0.50    107 300 
 GZV  SE ESg  0    8 0 24.10                                    0.00   78.0 175 
 ZNJK BZ EPg  0    8 0 24.50                                    0.80    138 251 
 MZPU BZ EPg  0    8 0 25.20                                   -0.10    146 119 
 QABG BZ EPn  0    8 0 27.10                                    0.00    161 198 
 HGHA BZ EPn  0    8 0 34.40                                   -0.50    211 213 
 DMV  SZ EPn  0    8 0 38.70                                    0.40    238 134 
 HGHA BZ E    0    8 0 37.02      2792.1 0.16                                   
 MZPU BZ E    0    8 0 49.96      4827.5 0.20                                   
 DMV  SZ E    0    8 1 16.12       582.8 0.32                                   
                                                                                

 2021  122  3 8 40.7 L                       Teh 11 0.3 2.9LTeh                1
 GAP=      Teh                                                                 E
 Action:ARG 24-08-11 12:34 OP:OBSP STATUS:               ID:20210122030840     I
 STAT SP IPHASW D HRMM SECON CODA AMPLIT PERI AZIMU VELO AIN AR TRES W  DIS CAZ7
 SRB  SZ E    0    3 9 29.48       746.9 0.16                                   
 QOM  SZ E    0    3 9 57.46      1399.4 0.24                                   
 SNJK BN E    0    310 16.02       412.2 0.32                                   
 HRS  SZ E    0    310 12.08       281.5 0.28                                   
 DMV  SZ E    0    3 9 55.02       305.3 0.32                                   
 FIR  BN E    0    310  6.08       275.2 0.32                                   
 HGHA BZ E    0    3 9 15.66      1007.3 0.44                                   
 LHJ2 BZ EPg  0    3 8 46.50                                    0.30   11.0  22 
 GIDE BZ EPg  0    3 8 47.50                                   -0.00   19.0 209 
 CSN1 BZ EPg  0    3 8 58.80                                    0.00   98.0 304 
 ZNJK BZ EPg  0    3 9  3.30                                   -0.20    127 250 
 HGHA BZ EPn  0    3 9 13.50                                   -0.20    204 211 
 SRB  SZ EPn  0    3 9 15.60                                   -0.50    224 293 
 DMV  SZ EPn  0    3 9 18.50                                   -0.50    246 132 
 QOM  SZ EPn  0    3 9 20.70                                   -0.30    265 159 
 HRS  SZ EPn  0    3 9 25.10                                   -0.00    296 299 
 FIR  BN EPn  0    3 9 25.20                                    0.50    293 122 
 SNJK BN EPn  0    3 9 29.30                                    1.10    321 236 
 QABG BZ E    0    3 9 25.78      5106.1 0.20                                   
 MZPU BZ E    0    3 9 25.28      2115.2 0.16                                   
                                                                                

 2021  125 1558 53.6 L                       Teh 14 0.4 2.9LTeh                1
 GAP=      Teh                                                                 E
 Action:ARG 24-08-11 12:34 OP:OBSP STATUS:               ID:20210125155853     I
 STAT SP IPHASW D HRMM SECON CODA AMPLIT PERI AZIMU VELO AIN AR TRES W  DIS CAZ7
 QABG BZ E    0   1559 17.22       838.9 0.20                                   
 QOM  SZ E    0   1559 47.36      3684.4 0.20                                   
 HGHA BZ E    0   1559 21.30     21806.8 0.28                                   
 MZPU BZ E    0   16 0 24.66       372.7 0.80                                   
 SNQR BZ E    0   1559 16.86      3669.8 0.24                                   
 DHR  BZ E    0   16 0 10.44       531.9 0.32                                   
 KKOM BZ E    0   1559 46.62      1129.9 0.36                                   
 BZA  BN E    0   1559 28.60      7777.4 0.36                                   
 GHG  SZ E    0   16 0 12.08       957.6 0.72                                   
 GZV  SZ E    0   16 0  0.76       727.6 0.44                                   
 KLH  SZ E    0   16 0 19.66       368.3 0.28                                   
 SNJK BZ E    0   1559 59.62       787.4 0.40                                   
 VRN  BN E    0   16 0  8.74      1241.9 0.24                                   
 KFM  BZ E    0   1559 54.02      1161.6 0.36                                   
 HAGD BZ EPg  0   1558 58.00                                    0.40   18.0  35 
 BZA  BN EPg  0   1559 12.90                                    0.00    110 257 
 QABG BZ EPg  0   1559 15.00                                   -0.20    123  24 
 SNQR BZ EPg  0   1559 15.70                                   -0.50    129 279 
 KKOM BZ EPg  0   1559 20.10                                    0.50    151 248 
 KFM  BZ EPg  0   1559 22.30                                   -0.50    169 220 
 QOM  SZ EPg  2   1559 23.70                                   -2.00    187  84 
 SNJK BZ EPn  0   1559 25.80                                   -0.20    196 295 
 GZV  SZ EPn  0   1559 29.10                                    0.20    217  30 
 GHG  SZ EPn  2   1559 31.80                                    1.40    228 261 
 DHR  BZ EPn  0   1559 32.30                                    0.40    241 271 
 VRN  BN EPn  0   1559 32.90                                    0.20    248  81 
 KLH  SZ EPn  0   1559 36.80                                    0.10    280 122 
 MZPU BZ EPn  0   1559 38.80                                   -0.50    301  49 
                                                                                

 2021  125 1649 12.8 L                       Teh 25 0.5 3.4LTeh                1
 GAP=      Teh                                                                 E
 Action:ARG 24-08-11 12:34 OP:OBSP STATUS:               ID:20210125164912     I
 STAT SP IPHASW D HRMM SECON CODA AMPLIT PERI AZIMU VELO AIN AR TRES W  DIS CAZ7
 GHG  SZ E    0   1650 32.52      3249.9 0.68                                   
 SNQR BZ E    0   1649 36.96     11803.2 0.28                                   
 KLH  SZ E    0   1650 39.31      1805.1 0.40                                   
 KCHF BZ E    0   1650 14.60      4087.1 0.32                                   
 SNJK BZ E    0   1650 19.74      2314.0 0.40                                   
 QAMS SZ E    0   1649 55.12      2936.6 0.16                                   
 VRN  BZ E    0   1650 37.50      2663.3 0.36                                   
 DMV  SZ E    0   1650 43.92      1210.2 0.64                                   
 SAQZ BZ E    0   1650  7.92       -99.0 0.24                                   
 KKOM BZ E    0   1650  6.72      4524.9 0.32                                   
 JHBN BZ E    0   1650 51.32      1231.9 0.36                                   
 GZV  SZ E    0   1650 20.88      2113.2 0.40                                   
 ZNGN BZ E    0   1651  0.64      1279.0 0.52                                   
 DHR  BZ E    0   1650 30.54      1749.8 0.32                                   
 HAGD BZ EPg  0   1649 18.10                                    0.30   19.0  33 
 SFB  BZ E    0   1650 42.66       867.0 0.24                                   
 KRSH BZ E    0   1650 46.62      1268.5 0.36                                   
 FIR  BZ E    0   1651  2.92       839.3 0.40                                   
 KLNJ BZ E    0   1651 46.68       257.3 0.76                                   
 HGHA BZ EPg  0   1649 29.80                                   -0.10   91.0 350 
 BZA  BZ EPg  0   1649 32.80                                   -0.10    109 258 
 PRN  SZ E    0   1650 58.20      1725.0 0.48                                   
 QABG BZ EPg  0   1649 35.20                                   -0.30    125  24 
 SNQR BE EPg  0   1649 35.90                                   -0.50    129 279 
 KKOM BE EPg  0   1649 40.10                                    0.60    150 249 
 KFM  BZ EPn  0   1649 41.90                                   -0.80    168 221 
 GAR  SZ E    0   1650 16.09       686.9 0.24                                   
 SNJK BZ EPn  0   1649 46.10                                   -0.70    196 296 
 GZV  SZ EPn  0   1649 49.50                                   -0.50    218  29 
 ZNJK BZ EPn  4   1649 50.50                                    0.50    222 352 
 QAMS SE EPn  0   1649 52.20                                   -0.70    241 115 
 VRN  BZ EPn  0   1649 53.40                                   -0.10    250  81 
 DHR  BZ EPn  0   1649 53.50                                    0.80    241 271 
 KLH  SZ EPn  0   1649 57.90                                    0.40    280 122 
 ILBA BZ EPn  0   1649 58.50                                    0.80    285 247 
 SFB  BZ EPn  0   1649 59.30                                   -0.10    298  96 
 DMV  SZ EPn  0   1649 59.40                                    0.30    292  69 
 MZPU BZ EPn  0   1650  0.80                                    0.60    302  49 
 JHBN BZ EPn  0   1650  1.50                                    0.00    311 150 
 SAQZ BZ EPn  4   1650  2.20                                    0.70    312 305 
 ZNGN BZ EPn  0   1650  3.70                                   -0.30    331 149 
 PRN  SZ EPn  0   1650  5.90                                    0.30    347  59 
 FIR  BZ EPn  4   1650  7.10                                    0.20    356  71 
 SRB  SZ EPn  0   1650  8.70                                    0.10    370 341 
 KLNJ BE EPn  4   1650 21.30                                   -0.10    471 149 
                                                                                

