 2021 0119 0600 12.4 L  35.229  53.263  8.0  Teh 52 0.4 3.9LTeh                1
 GAP=38                                                                        E
 Iranian Seismological Center, Institute of Geophysics, University of Tehran   6
 STAT SP IPHASW D HRMM SECON CODA AMPLIT PERI AZIMU VELO SNR AR TRES  W DIS CAZ7
 PRN  SZ E    0   0601  3.60     18616.5 0.44                           140 324
 SFB  BZ E    0   0600 56.18     22689.2 0.24                           135 224
 KLH  SZ E    0   0601 31.41      7999.2 0.32                           263 217
 SHM  SZ E    0   0600 24.52       -99.0 0.36                          64.0   2
 TEHA BZ E    0   0601  9.88     19983.4 0.36                           180 289
 ANJ  SZ E    0   0600 32.53    100475.0 0.12                          65.0  66
 CHK  SZ E    0   0601 44.07      3853.6 0.44                           348 162
 VRN  BZ E    0   0600 57.16     31069.0 0.32                           142 260
 DMV  SZ E    0   0600 52.22     18644.9 0.36                           118 289
 QOM  SZ E    0   0601 12.56     20074.7 0.56                           205 259
 ANAR BZ E    0   0601 27.62      5869.4 0.44                           230 169
 RAM  SZ E    0   0602 16.68      1382.9 0.56                           388 192
 GZV  SZ E    0   0601 43.28      2974.7 0.48                           304 296
 QABG BZ E    0   0601 49.10      3331.4 0.48                           338 280
 QAMS SZ E    0   0600 58.08     14717.8 0.36                           238 227
 DOBD BZ E    0   0602 16.48      2377.2 0.76                           377 162
 GAR  SZ E    0   0601 13.48      2767.4 0.36                           333 200
 HGHA BZ E    0   0601 31.12      2589.3 0.48                           401 275
 GLO  SZ E    0   0601  8.64     18352.8 0.88                           150  20
 MZPU BZ E    0   0600 52.92      6437.7  0.6                           204 312
 KRSH BZ E    0   0601 12.88     28200.6 0.32                           174 217
 MND  BZ E    0   0601 40.88      2612.2 0.36                           294  40
 SHRO BZ E    0   0601 34.62       -99.0  0.6                           263  70
 TEH  BZ E    0   0601  8.24     29517.2 0.36                           180 289
 KLNJ BZ E    0   0601 47.44       547.5 0.56                           493 199
 BAF  SZ E    0   0602 40.52      1122.5  0.6                           457 151
 TPRV BZ E    0   0602 27.28      2449.6 0.72                           399 127
 TKDS BZ E    0   0601 31.28      2391.0 0.44                           397 116
 LAS  SZ EPg  0   0600 18.9                                      0.4   32.0 301
 TSHB BZ E    0   0601 14.10       -99.0 0.36                           340 119
 JHBN BZ E    0   0602 23.16       991.4 0.52                           410 217
 ANJ  SZ EPg  0   0600 23.8                                     -0.2   65.0  66
 ZNGN BZ E    0   0601 31.72      1313.2 0.36                           411 214
 SHM  SZ EPg  0   0600 24.1                                      0.1   64.0   2
 FIR  BZ EPg  0   0600 24.2                                      0.1   65.0 315
 ANJ  SN ESg  0   0600 32.2                                      0.0   65.0  66
 FIR  BE ESg  0   0600 32.2                                      0.0   65.0 315
 DMV  SZ EPg  0   0600 33.1                                      0.1    118 289
 SFR  SZ E    0   0602 49.57      1337.1 0.64                           472  63
 AFRZ BZ E    0   0601 31.76      1072.4 0.28                           566 109
 SFB  BZ EPg  0   0600 35.9                                      0.3    135 224
 VRN  BZ EPg  0   0600 36.4                                     -0.5    142 260
 PRN  SZ EPg  0   0600 36.9                                      0.4    140 324
 TAFT BZ E    0   0601 55.04      2705.5  0.6                           398 167
 GLO  SZ EPg  0   0600 38.4                                      0.2    150  20
 KRSH BZ EPn  0   0600 41.8                                      0.6    174 217
 TEH  BZ EPg  4   0600 42.7                                     -0.4    180 289
 TEHA BZ EPg  0   0600 42.9                                     -0.2    180 289
 QOM  SZ EPn  0   0600 45.7                                     -0.4    205 259
 MZPU BZ EPn  0   0600 46.7                                      0.7    204 312
 ANAR BZ EPn  0   0600 49.2                                     -0.4    230 169
 KLH  SE EPn  0   0600 53.6                                     -0.2    263 217
 SHRO BZ EPn  0   0600 53.7                                      0.1    263  70
 MND  BZ EPn  0   0600 57.9                                      0.7    294  40
 GZV  SZ EPn  4   0600 58.9                                      0.1    304 296
 GAR  SZ EPn  0   0601 2.5                                       0.1    333 200
 TNSJ BZ EPn  0   0601 2.6                                      -0.2    337 114
 QABG BZ EPn  0   0601 2.7                                      -0.4    338 280
 TSHB BZ EPn  0   0601 2.9                                      -0.3    340 119
 CHK  SZ EPn  0   0601 4.2                                       0.0    348 162
 TAPT BZ EPn  0   0601 4.8                                      -0.5    358  95
 PIR  SZ EPn  4   0601 6.1                                       0.6    357 218
 MRVT BZ EPn  0   0601 7.4                                       0.5    370  42
 DOBD BZ EPn  0   0601 8.2                                       0.4    377 162
 RAM  SZ EPn  0   0601 9.5                                       0.2    388 192
 TAFT BZ EPn  4   0601 10.1                                     -0.4    398 167
 TKDS BZ EPn  0   0601 10.3                                     -0.0    397 116
 TPRV BZ EPn  0   0601 10.6                                      0.1    399 127
 HGHA BZ EPn  0   0601 10.6                                     -0.3    401 275
 JHBN BZ EPn  0   0601 12.4                                      0.3    410 217
 SBZV BZ EPn  0   0601 12.5                                      0.1    413  71
 ZNGN BZ EPn  0   0601 12.7                                      0.5    411 214
 BJND SZ EPn  4   0601 15.7                                      0.5    435  57
 MEH  SZ EPn  4   0601 16.2                                      0.0    444 163
 BAF  SZ EPn  0   0601 18.3                                      0.6    457 151
 SFR  SZ EPn  0   0601 19.9                                      0.2    472  63
 KLNJ BZ EPn  4   0601 22.2                                     -0.3    493 199
 KFM  BZ EPn  0   0601 27.3                                      0.1    533 251
 PAY  SZ EPn  0   0601 27.7                                      0.2    535  74
 AFRZ BZ EPn  4   0601 31.4                                      0.2    566 109
 TEG  SZ EPn  4   0601 31.5                                     -0.1    569 116
 KOO  SZ EPn  4   0601 37.6                                      0.1    616 119
 MYA  SZ EPn  4   0601 39.4                                      0.1    630  77
 MON  SZ EPn  4   0601 39.9                                      0.4    632 109
 BSRN BZ EPn  0   0601 42.4                                      0.7    651 122
 SHRT BZ EPn  4   0601 44.1                                      0.2    669 103
 DAH  SZ EPn  4   0601 44.4                                      0.1    670 112

 2021 0121 0800  0.0 L  37.083  50.141  8.0  Teh  9 0.4 2.9LTeh                1
 GAP=179                                                                       E
 Iranian Seismological Center, Institute of Geophysics, University of Tehran   6
 STAT SP IPHASW D HRMM SECON CODA AMPLIT PERI AZIMU VELO SNR AR TRES  W DIS CAZ7
 PRN  SZ E    0   0801 11.84      3480.1  0.2                           218 115
 KRSH BZ E    0   0802  0.50       282.2  0.4                           390 152
 GZV  SZ EPg  0   0800 13.9                                      0.1   78.0 175
 CSN1 BZ EPg  0   0800 18.1                                     -0.5    107 300
 GZV  SE ESg  0   0800 24.1                                      0.0   78.0 175
 ZNJK BZ EPg  0   0800 24.5                                      0.8    138 251
 MZPU BZ EPg  0   0800 25.2                                     -0.1    146 119
 QABG BZ EPn  0   0800 27.1                                      0.0    161 198
 HGHA BZ EPn  0   0800 34.4                                     -0.5    211 213
 DMV  SZ EPn  0   0800 38.7                                      0.4    238 134
 HGHA BZ E    0   0800 37.02      2792.1 0.16                           211 213
 MZPU BZ E    0   0800 49.96      4827.5  0.2                           146 119
 DMV  SZ E    0   0801 16.12       582.8 0.32                           238 134

 2021 0122 0308 40.7 L  37.074  50.014 26.6  Teh 13 0.3 2.9LTeh                1
 GAP=100                                                                       E
 Iranian Seismological Center, Institute of Geophysics, University of Tehran   6
 STAT SP IPHASW D HRMM SECON CODA AMPLIT PERI AZIMU VELO SNR AR TRES  W DIS CAZ7
 SRB  SZ E    0   0309 29.48       746.9 0.16                           224 293
 QOM  SZ E    0   0309 57.46      1399.4 0.24                           265 159
 SNJK BN E    0   0310 16.02       412.2 0.32                           321 236
 HRS  SZ E    0   0310 12.08       281.5 0.28                           296 299
 DMV  SZ E    0   0309 55.02       305.3 0.32                           246 132
 FIR  BN E    0   0310  6.08       275.2 0.32                           293 122
 HGHA BZ E    0   0309 15.66      1007.3 0.44                           204 211
 LHJ2 BZ EPg  0   0308 46.5                                      0.3   11.0  22
 GIDE BZ EPg  0   0308 47.5                                     -0.0   19.0 209
 CSN1 BZ EPg  0   0308 58.8                                      0.0   98.0 304
 ZNJK BZ EPg  0   0309 3.3                                      -0.2    127 250
 HGHA BZ EPn  0   0309 13.5                                     -0.2    204 211
 SRB  SZ EPn  0   0309 15.6                                     -0.5    224 293
 DMV  SZ EPn  0   0309 18.5                                     -0.5    246 132
 QOM  SZ EPn  0   0309 20.7                                     -0.3    265 159
 HRS  SZ EPn  0   0309 25.1                                     -0.0    296 299
 FIR  BN EPn  0   0309 25.2                                      0.5    293 122
 SNJK BN EPn  0   0309 29.3                                      1.1    321 236
 QABG BZ E    0   0309 25.78      5106.1  0.2                           156 194
 MZPU BZ E    0   0309 25.28      2115.2 0.16                           156 116

 2021 0125 1558 53.6 L  34.691  49.028 11.0  Teh 15 0.4 2.9LTeh                1
 GAP=98                                                                        E
 Iranian Seismological Center, Institute of Geophysics, University of Tehran   6
 STAT SP IPHASW D HRMM SECON CODA AMPLIT PERI AZIMU VELO SNR AR TRES  W DIS CAZ7
 QABG BZ E    0   1559 17.22       838.9  0.2                           124  24
 QOM  SZ E    0   1559 47.36      3684.4  0.2                           187  84
 HGHA BZ E    0   1559 21.30     21806.8 0.28                          90.0 350
 MZPU BZ E    0   1600 24.66       372.7  0.8                           301  49
 SNQR BZ E    0   1559 16.86      3669.8 0.24                           129 279
 DHR  BZ E    0   1600 10.44       531.9 0.32                           242 271
 KKOM BZ E    0   1559 46.62      1129.9 0.36                           151 248
 BZA  BN E    0   1559 28.60      7777.4 0.36                           110 257
 GHG  SZ E    0   1600 12.08       957.6 0.72                           229 261
 GZV  SZ E    0   1600  0.76       727.6 0.44                           217  30
 KLH  SZ E    0   1600 19.66       368.3 0.28                           280 122
 SNJK BZ E    0   1559 59.62       787.4  0.4                           196 295
 VRN  BN E    0   1600  8.74      1241.9 0.24                           249  81
 KFM  BZ E    0   1559 54.02      1161.6 0.36                           169 220
 HAGD BZ EPg  0   1558 58.0                                      0.4   18.0  35
 BZA  BN EPg  0   1559 12.9                                      0.0    110 257
 QABG BZ EPg  0   1559 15.0                                     -0.2    124  24
 SNQR BZ EPg  0   1559 15.7                                     -0.5    129 279
 KKOM BZ EPg  0   1559 20.1                                      0.5    151 248
 KFM  BZ EPg  0   1559 22.3                                     -0.5    169 220
 QOM  SZ EPg  2   1559 23.7                                     -2.0    187  84
 SNJK BZ EPn  0   1559 25.8                                     -0.2    196 295
 GZV  SZ EPn  0   1559 29.1                                      0.2    217  30
 GHG  SZ EPn  2   1559 31.8                                      1.4    229 261
 DHR  BZ EPn  0   1559 32.3                                      0.4    242 271
 VRN  BN EPn  0   1559 32.9                                      0.2    249  81
 KLH  SZ EPn  0   1559 36.8                                      0.1    280 122
 MZPU BZ EPn  0   1559 38.8                                     -0.5    301  49

 2021 0125 1649 12.8 L  34.677  49.024  5.9  Teh 29 0.5 3.4LTeh                1
 GAP=71                                                                        E
 Iranian Seismological Center, Institute of Geophysics, University of Tehran   6
 STAT SP IPHASW D HRMM SECON CODA AMPLIT PERI AZIMU VELO SNR AR TRES  W DIS CAZ7
 GHG  SZ E    0   1650 32.52      3249.9 0.68                           229 261
 SNQR BZ E    0   1649 36.96     11803.2 0.28                           129 279
 KLH  SZ E    0   1650 39.31      1805.1  0.4                           280 122
 KCHF BZ E    0   1650 14.60      4087.1 0.32                           188 257
 SNJK BZ E    0   1650 19.74      2314.0  0.4                           196 296
 QAMS SZ E    0   1649 55.12      2936.6 0.16                           242 115
 VRN  BZ E    0   1650 37.50      2663.3 0.36                           250  81
 DMV  SZ E    0   1650 43.92      1210.2 0.64                           292  69
 SAQZ BZ E    0   1650  7.92       -99.0 0.24                           312 305
 KKOM BZ E    0   1650  6.72      4524.9 0.32                           150 249
 JHBN BZ E    0   1650 51.32      1231.9 0.36                           311 150
 GZV  SZ E    0   1650 20.88      2113.2  0.4                           218  29
 ZNGN BZ E    0   1651  0.64      1279.0 0.52                           331 149
 DHR  BZ E    0   1650 30.54      1749.8 0.32                           242 271
 HAGD BZ EPg  0   1649 18.1                                      0.3   19.0  33
 SFB  BZ E    0   1650 42.66       867.0 0.24                           298  96
 KRSH BZ E    0   1650 46.62      1268.5 0.36                           297 104
 FIR  BZ E    0   1651  2.92       839.3  0.4                           356  71
 KLNJ BZ E    0   1651 46.68       257.3 0.76                           472 149
 HGHA BZ EPg  0   1649 29.8                                     -0.1   91.0 350
 BZA  BZ EPg  0   1649 32.8                                     -0.1    109 258
 PRN  SZ E    0   1650 58.20      1725.0 0.48                           347  59
 QABG BZ EPg  0   1649 35.2                                     -0.3    125  24
 SNQR BE EPg  0   1649 35.9                                     -0.5    129 279
 KKOM BE EPg  0   1649 40.1                                      0.6    150 249
 KFM  BZ EPn  0   1649 41.9                                     -0.8    168 221
 GAR  SZ E    0   1650 16.09       686.9 0.24                           377 131
 SNJK BZ EPn  0   1649 46.1                                     -0.7    196 296
 GZV  SZ EPn  0   1649 49.5                                     -0.5    218  29
 ZNJK BZ EPn  4   1649 50.5                                      0.5    223 352
 QAMS SE EPn  0   1649 52.2                                     -0.7    242 115
 VRN  BZ EPn  0   1649 53.4                                     -0.1    250  81
 DHR  BZ EPn  0   1649 53.5                                      0.8    242 271
 KLH  SZ EPn  0   1649 57.9                                      0.4    280 122
 ILBA BZ EPn  0   1649 58.5                                      0.8    285 247
 SFB  BZ EPn  0   1649 59.3                                     -0.1    298  96
 DMV  SZ EPn  0   1649 59.4                                      0.3    292  69
 MZPU BZ EPn  0   1650 0.8                                       0.6    302  49
 JHBN BZ EPn  0   1650 1.5                                       0.0    311 150
 SAQZ BZ EPn  4   1650 2.2                                       0.7    312 305
 ZNGN BZ EPn  0   1650 3.7                                      -0.3    331 149
 PRN  SZ EPn  0   1650 5.9                                       0.3    347  59
 FIR  BZ EPn  4   1650 7.1                                       0.2    356  71
 SRB  SZ EPn  0   1650 8.7                                       0.1    370 341
 KLNJ BE EPn  4   1650 21.3                                     -0.1    472 149

 2021 0129 1658 36.7 L  35.640  49.873 10.0  Teh 16 0.4 2.8LTeh                1
 GAP=69                                                                        E
 Iranian Seismological Center, Institute of Geophysics, University of Tehran   6
 STAT SP IPHASW D HRMM SECON CODA AMPLIT PERI AZIMU VELO SNR AR TRES  W DIS CAZ7
 QABG BZ EPg  0   1658 42.2                                      0.1   27.0 286
 GZV  SZ E    0   1658 52.90      8327.7 0.08                          88.0  21
 HGHA BZ E    0   1659  5.38      4678.8  0.2                          94.0 260
 HSB  BZ E    0   1658 58.94      1080.2  0.2                           129 100
 GZV  SZ EPg  0   1658 52.5                                      0.1   88.0  21
 HGHA BZ EPg  0   1658 53.1                                     -0.1   94.0 260
 GIDE BZ E    0   1659 27.28       -99.0 0.92                           142   1
 HAGD BN EPg  0   1658 56.1                                     -0.4    113 217
 ZNJK BZ E    0   1659 25.14       -99.0 0.24                           157 317
 QOM  SZ E    0   1659 17.70      4513.1 0.16                           140 129
 MZPU BZ E    0   1659 32.80      1221.5 0.36                           177  59
 HSB  BZ EPg  0   1658 58.5                                     -0.7    129 100
 VRN  BZ E    0   1659 38.46       689.2 0.28                           183 112
 QOM  SZ EPg  0   1659 0.1                                      -0.8    140 129
 GIDE BZ EPn  0   1659 1.0                                       0.1    142   1
 ZNJK BZ EPg  0   1659 3.6                                      -0.1    157 317
 GZV  SN ESg  0   1659 4.0                                       0.0   88.0  21
 DMV  SZ E    0   1659 37.92      1321.3 0.28                           196  91
 MZPU BZ EPn  0   1659 6.6                                       0.4    177  59
 VRN  BZ EPn  0   1659 7.4                                       0.2    183 112
 DMV  SZ EPn  0   1659 8.9                                      -0.3    196  91
 SFB  BZ E    0   1659 51.14       293.7 0.28                           259 123
 QAMS SZ E    0   1659 48.40       930.6  0.2                           253 146
 FIR  BZ E    0   1659 53.64       443.5 0.36                           261  89
 QAMS SZ EPn  0   1659 17.1                                      0.5    253 146
 SFB  BZ EPn  0   1659 17.4                                      0.2    259 123
 FIR  BZ EPn  0   1659 18.0                                      0.4    261  89
 KRSH BZ E    0   1700  2.40       377.6 0.52                           278 131
 KRSH BZ EPn  0   1659 19.8                                      0.2    278 131
 KLH  SZ E    0   1700  2.16       536.8  0.2                           301 148
 KLH  SZ EPn  0   1659 23.1                                      0.5    301 148

