 2021  222 1936 15.6 L  36.451  51.784 14.6  Teh 31 0.3 3.6LTeh                1
 GAP=29    Teh             4.9     4.0  3.7                                    E
 Action:ARG 24-08-11 12:34 OP:OBSP STATUS:               ID:20210222193615     I
 STAT SP IPHASW D HRMM SECON CODA AMPLIT PERI AZIMU VELO AIN AR TRES W  DIS CAZ7
 HSB  BZ E    0   1936 36.58     10846.4 0.28                                   
 VRN  BZ E    0   1937  5.08     12330.4 0.44                                   
 PRN  SZ E    0   1936 37.52     70709.8 0.44                                   
 QAMS SZ E    0   1937 42.32      3891.5 0.36                                   
 TEH  BZ E    0   1936 43.58     41813.6 0.32                                   
 SHM  SZ E    0   1937  5.28       -99.0 0.32                                   
 QOM  SZ E    0   1936 47.46     12601.0 0.36                                   
 ANJ  SZ E    0   1937 28.70      3557.3 0.44                                   
 HAGD BZ E    0   1937 43.20       -99.0 0.68                                   
 HGHA BZ E    0   1937  8.20       -99.0 0.28                                   
 QABG BZ E    0   1937 20.06      5381.7 0.36                                   
 MND  BZ E    0   1938  0.96      2267.2 0.72                                   
 SFB  BZ E    0   1936 55.22      4071.8 0.32                                   
 KLH  SZ E    0   1937 20.22      2346.4 0.40                                   
 HRS  SZ E    0   1937 37.12       453.1 0.36                                   
 SRB  SZ E    0   1937 24.70      1237.0 0.20                                   
 MZPU BE EPg  0   1936 20.20                                   -0.20   20.0 262 
 GAS1 BZ E    0   1937 42.68      1325.4 0.24                                   
 PRN  SZ EPg  0   1936 25.40                                   -0.10   55.0 116 
 TEHA BZ EPg  0   1936 30.30                                   -0.50   87.0 205 
 TEH  BZ EPg  4   1936 30.40                                   -0.20   87.0 205 
 GRMI BZ E    0   1938  2.46       -99.0 0.28                                   
 SLJL BZ E    0   1938 40.90       -99.0 0.44                                   
 DMV  SZ EPg  0   1936 32.60                                   -0.40    101 167 
 HSB  BZ EPg  0   1936 36.20                                   -0.10    123 202 
 FIR  BZ EPg  0   1936 37.10                                    0.10    126 136 
 GZV  SZ EPg  0   1936 39.50                                    0.10    141 267 
 SHM  SZ EPg  0   1936 41.80                                    0.50    153 118 
 VRN  BZ EPg  0   1936 42.80                                    0.10    163 182 
 LAS  SZ EPg  0   1936 42.90                                    0.60    160 138 
 GIDE BZ EPg  0   1936 45.10                                    0.30    176 287 
 GLO  SN EPn  0   1936 46.30                                   -0.10    183  88 
 QOM  SZ EPn  0   1936 47.00                                   -0.20    192 200 
 QABG BZ EPn  0   1936 50.30                                   -0.10    216 248 
 ANJ  SZ EPn  4   1936 52.30                                    1.20    221 119 
 SFB  BZ EPn  4   1936 53.00                                    0.10    238 170 
 KRSH BZ EPn  4   1936 57.70                                   -0.40    279 173 
 HGHA BZ EPn  0   1936 59.30                                    0.20    286 249 
 HAGD BZ EPn  0   1937  0.90                                   -0.10    301 234 
 KLH  SZ EPn  4   1937  7.30                                    0.30    349 183 
 ZEF  SZ EPn  4   1937 12.90                                   -0.20    399 173 
 SRB  SZ EPn  4   1937 13.10                                    0.20    396 294 
 MRVT BZ EPn  0   1937 13.20                                   -0.50    405  70 
 ANAR BZ EPn  4   1937 14.10                                    0.50    404 153 
 GRMI BZ EPn  4   1937 16.20                                   -0.80    431 308 
 SNJK BZ EPn  0   1937 18.50                                    0.30    440 256 
 HRS  SZ EPn  4   1937 21.60                                   -0.10    468 298 
 TAPT BZ EPn  4   1937 28.10                                    0.50    517 108 
 SLJL BZ EPn  0   1937 32.70                                   -0.20    558  75 
 TKDS BZ EPn  4   1937 36.10                                    0.70    580 121 
                                                                                

 2021  225 1852 38.3 L  36.391  51.783  9.9  Teh 13 0.3 2.7LTeh                1
 GAP=66    Teh             3.8     3.0  3.8                                    E
 Action:ARG 24-08-11 12:34 OP:OBSP STATUS:               ID:20210225185238     I
 STAT SP IPHASW D HRMM SECON CODA AMPLIT PERI AZIMU VELO AIN AR TRES W  DIS CAZ7
 MZPU BZ EPg  0   1852 42.70                                    0.00   20.0 288 
 PRN  SZ E    0   1852 58.00     29102.4 0.12                                   
 MZPU BN ESg  0   1852 46.60                                    0.00   20.0 288 
 PRN  SZ EPg  0   1852 47.60                                   -0.30   52.0 107 
 DMV  SZ E    0   1853  8.16      2421.3 0.32                                   
 HSB  BZ E    0   1852 58.80       803.3 0.24                                   
 DMV  SZ EPg  0   1852 54.70                                    0.00   92.0 166 
 FIR  BZ E    0   1853 18.00       871.9 0.24                                   
 HSB  BZ EPg  0   1852 58.30                                    0.00    114 204 
 GZV  SZ E    0   1853 22.88      2948.5 0.32                                   
 FIR  BZ EPg  0   1852 59.20                                   -0.20    120 133 
 GZV  SZ EPg  0   1853  2.00                                   -0.70    140 271 
 VRN  BZ E    0   1853 27.74      1457.3 0.28                                   
 SHM  SZ E    0   1853 27.28       -99.0 0.40                                   
 LAS  SZ E    0   1853 26.31       882.5 0.32                                   
 SHM  SZ EPg  0   1853  4.30                                   -0.10    150 115 
 GLO  SZ E    0   1853 38.20      2062.7 0.68                                   
 LAS  SZ EPg  0   1853  4.90                                   -0.10    154 136 
 VRN  BZ EPg  0   1853  5.00                                    0.00    154 182 
 QOM  SZ E    0   1853 32.72      1437.9 0.24                                   
 DMV  SE ESg  0   1853  7.50                                    0.00   92.0 166 
 GLO  SZ EPn  0   1853  9.10                                    0.10    184  85 
 QOM  SZ EPg  0   1853  9.30                                   -0.50    183 201 
 ANJ  SZ E    0   1853 43.80       606.0 0.20                                   
 SFB  BZ E    0   1853 48.16       725.0 0.24                                   
 ANJ  SZ EPn  0   1853 14.10                                    0.50    218 117 
 SFB  BZ EPn  0   1853 15.20                                    0.20    228 169 
                                                                                

 2021  226  049 47.7 L  36.412  51.787 10.6  Teh 14 0.4 2.9LTeh                1
 GAP=63    Teh             3.5     2.8  5.7                                    E
 Action:ARG 24-08-11 12:34 OP:OBSP STATUS:               ID:20210226004947     I
 STAT SP IPHASW D HRMM SECON CODA AMPLIT PERI AZIMU VELO AIN AR TRES W  DIS CAZ7
 MZPU BZ E    0    049 56.72     43441.4 0.12                                   
 GZV  SZ E    0    050 30.60      3447.8 0.80                                   
 QOM  SZ E    0    050 42.36      2306.8 0.24                                   
 FIR  BZ E    0    050 26.60      2157.3 0.16                                   
 TEH  BZ E    0    050 15.28       -99.0 0.28                                   
 LAS  SZ E    0    050 38.15      1323.9 0.24                                   
 SHM  SZ E    0    050 41.24       -99.0 0.28                                   
 GLO  SZ E    0    050 53.40      5303.1 0.44                                   
 VRN  BZ E    0    050 38.44      2651.8 0.28                                   
 PRN  SZ E    0    050  8.16     36896.9 0.12                                   
 DMV  SZ E    0    050 17.88      3906.1 0.24                                   
 ANJ  SZ E    0    050 53.68       825.1 0.16                                   
 MZPU BZ EPg  0    049 52.30                                    0.40   20.0 280 
 PRN  SZ EPg  0    049 57.40                                    0.10   53.0 110 
 TEH  BZ EPg  0    050  2.10                                    0.10   81.0 206 
 DMV  SZ EPg  0    050  4.50                                    0.10   95.0 166 
 HSB  BZ EPg  0    050  7.60                                   -0.50    117 203 
 FIR  BZ EPg  0    050  9.40                                    0.40    122 134 
 SFB  BZ E    0    050 29.62       871.3 0.20                                   
 GZV  SZ EPg  0    050 11.80                                   -0.30    141 269 
 SHM  SZ EPg  0    050 13.80                                   -0.10    151 116 
 VRN  BZ EPg  0    050 14.20                                   -0.50    157 182 
 LAS  SZ EPg  0    050 14.70                                    0.10    156 137 
 GLO  SZ EPn  0    050 17.70                                   -0.60    184  86 
 QOM  SZ EPn  0    050 19.00                                    0.50    186 201 
 ANJ  SZ EPn  0    050 23.70                                    0.40    219 118 
 SFB  BZ EPn  0    050 24.70                                   -0.10    232 170 
                                                                                

 2021  226 1041  9.9 L  35.754  52.851 10.1  Teh 11 0.4 2.8LTeh                1
 GAP=85    Teh             4.1     3.3  3.9                                    E
 Action:ARG 24-08-11 12:34 OP:OBSP STATUS:               ID:20210226104109     I
 STAT SP IPHASW D HRMM SECON CODA AMPLIT PERI AZIMU VELO AIN AR TRES W  DIS CAZ7
 FIR  BZ E    0   1041 18.14     40712.3 0.28                                   
 TEH  BZ E    0   1041 52.42      3172.0 0.40                                   
 DMV  SZ E    0   1041 39.08      6573.7 0.40                                   
 HSB  BZ E    0   1041 36.38       907.7 0.28                                   
 PRN  SZ E    0   1041 32.48     10605.3 0.36                                   
 TEHA BZ E    0   1042  7.12      2797.2 0.68                                   
 GLO  SZ E    0   1041 54.02      3654.2 0.60                                   
 SFB  BZ E    0   1041 40.60      1455.0 0.24                                   
 VRN  BZ E    0   1042  0.60      1511.8 0.28                                   
 FIR  BZ EPg  0   1041 13.20                                   -0.20   15.0 219 
 SHM  SZ EPg  0   1041 17.00                                   -0.20   39.0  81 
 LAS  SZ EPg  0   1041 18.40                                    0.70   42.0 168 
 PRN  SZ EPg  0   1041 22.90                                    0.20   72.0 319 
 DMV  SZ EPg  0   1041 23.40                                   -0.30   77.0 256 
 GLO  SZ EPg  0   1041 31.20                                    0.30    120  46 
 TEH  BZ EPg  0   1041 32.60                                   -0.30    133 271 
 VRN  BZ EPg  0   1041 32.70                                   -0.20    133 231 
 TEHA BZ EPg  0   1041 33.10                                    0.10    133 270 
 DMV  SN ESg  0   1041 35.00                                    0.00   77.0 256 
 HSB  BZ EPg  0   1041 35.00                                   -0.40    148 257 
 SFB  BZ EPg  0   1041 37.90                                   -0.40    165 200 
                                                                                

 2021  227 2234 18.4 L  36.079  53.443  6.6  Teh 37 0.4 3.3LTeh                1
 GAP=111   Teh             2.9     2.4  3.5                                    E
 Action:ARG 24-08-11 12:34 OP:OBSP STATUS:               ID:20210227223418     I
 STAT SP IPHASW D HRMM SECON CODA AMPLIT PERI AZIMU VELO AIN AR TRES W  DIS CAZ7
 GLO  SZ E    0   2234 47.76     39267.7 0.52                                   
 SHM  SZ E    0   2234 31.88       -99.0 0.32                                   
 FIR  BZ E    0   2234 48.00     15711.6 0.48                                   
 ZEF  SZ E    0   2236 13.40       567.3 0.72                                   
 PRN  SZ E    0   2234 58.98     14819.0 0.48                                   
 SBZV BZ E    0   2236 17.02       523.6 1.04                                   
 MND  BZ E    0   2235 33.04      3175.5 0.92                                   
 SFB  BZ E    0   2235 26.12      2938.8 0.40                                   
 TKDS BZ E    0   2236 42.62       -99.0 0.72                                   
 SFR  SZ E    0   2236 32.23       667.7 0.52                                   
 HGHA BZ E    0   2235 35.62       439.4 0.40                                   
 GZV  SZ E    0   2235 52.76      4027.7 1.00                                   
 VRN  BZ E    0   2235 23.24      3687.4 0.36                                   
 QOM  SZ E    0   2235 45.90      1314.0 0.64                                   
 SHRO BZ E    0   2235 29.62       -99.0 0.60                                   
 TAPT BZ E    0   2236  5.66       -99.0 0.52                                   
 HSB  BZ E    0   2235  0.74      1871.9 0.52                                   
 TPRV BZ E    0   2236 54.18       -99.0 0.76                                   
 QABG BZ E    0   2236 24.58       573.6 1.20                                   
 ANAR BZ E    0   2235 59.90       526.8 0.80                                   
 MRVT BZ E    0   2235 48.52       -99.0 0.76                                   
 TSHB BZ E    0   2235 28.54       -99.0 0.40                                   
 JHBN BZ E    0   2237  2.12       248.3 1.00                                   
 SHM  SZ EPg  0   2234 24.80                                   -0.20   34.0 200 
 DOBD BZ E    0   2236 45.50       338.2 0.72                                   
 KLH  SZ E    0   2236  7.60       838.2 0.52                                   
 GLO  SZ EPg  0   2234 28.80                                   -0.40   59.0  40 
 BAF  SZ E    0   2237  1.22       235.5 0.96                                   
 GRMI BZ E    0   2236 44.98       -99.0 0.56                                   
 FIR  BZ EPg  0   2234 32.20                                   -0.30   78.0 230 
 ANJ  SZ EPg  0   2234 32.60                                   -0.70   83.0 147 
 LAS  SZ EPg  0   2234 34.60                                    0.30   89.0 207 
 PRN  SZ EPg  0   2234 36.30                                    0.50   98.0 280 
 DMV  SN EPg  0   2234 42.30                                   -0.40    137 246 
 TEHA BZ EPn  0   2234 49.80                                   -0.00    187 259 
 VRN  BZ EPn  0   2234 51.30                                    0.20    195 232 
 HSB  BZ EPn  4   2234 53.40                                    0.50    206 250 
 MND  BZ EPn  0   2234 53.90                                   -0.40    218  54 
 SFB  BZ EPn  4   2234 54.90                                    0.10    221 209 
 SHRO BZ EPn  0   2234 56.80                                    0.20    234  92 
 QOM  SZ EPn  4   2234 59.40                                    0.40    254 238 
 MRVT BZ EPn  0   2235  3.50                                   -0.50    295  53 
 KLH  SZ EPn  4   2235 11.70                                    0.50    351 209 
 TAPT BZ EPn  0   2235 13.20                                    0.30    366 110 
 ZEF  SZ EPn  4   2235 13.60                                    0.20    368 196 
 TNSJ BZ EPn  0   2235 14.20                                    0.10    376 128 
 SBZV BZ EPn  0   2235 14.80                                    0.20    379  84 
 HGHA BZ EPn  4   2235 19.80                                    0.40    417 262 
 SFR  SZ EPn  0   2235 20.60                                    0.30    424  74 
 SLJL BZ EPn  0   2235 21.90                                    0.30    435  65 
 TKDS BZ EPn  0   2235 22.10                                    0.40    437 128 
 TPRV BZ EPn  4   2235 24.00                                    0.30    454 138 
 DOBD BZ EPn  4   2235 25.80                                    0.40    466 167 
 TAFT BZ EPn  4   2235 28.90                                    0.50    490 172 
 PAY  SN EPn  0   2235 30.20                                    0.20    502  84 
 MEH  SZ EPn  4   2235 34.10                                    0.30    533 168 
 BAF  SZ EPn  4   2235 34.30                                    0.00    538 158 
 SRB  SZ EPn  0   2235 35.70                                    0.30    547 292 
 KRD  SZ EPn  4   2235 36.00                                   -0.20    552  80 
 GRMI BZ EPn  0   2235 38.10                                   -0.60    573 303 
 TEG  SZ EPn  4   2235 43.40                                    0.70    605 124 
 HRS  SZ EPn  0   2235 44.50                                    0.30    617 295 
 KOO  SZ EPn  4   2235 49.30                                    0.20    656 127 
 SHRT BZ EPn  4   2235 52.60                                    0.20    685 111 
                                                                                

