# 2023 05 14 22 59 22.600000 34.749 50.018   8.0  2.5 0.0 0.0 0.0       333
QOM  17.000 1.00 Pg
QABG 20.300 1.00 Pg
HGHA 23.400 1.00 Pg
HSB  23.700 1.00 Pg
VRN  26.900 1.00 Pg
HNVD 28.300 1.00 Pg
QAMS 29.300 1.00 Pg
DMV  33.900 1.00 Pn
KLH  35.200 1.00 Pn
PIR  40.000 1.00 Pn
# 2023 05 16 00 41 03.500000 36.150 53.256   6.0  3.1 0.0 0.0 0.0       334
ALA   7.600 1.00 Pg
GLO  11.200 1.00 Pg
FIR  13.100 1.00 Pg
PRN  14.800 1.00 Pg
LAS  16.100 1.00 Pg
ANJ  16.800 1.00 Pg
GLO  20.900 1.00 Sg
DMV  22.100 0.00 Pg
FIR  22.300 1.00 Sg
MZPU 26.300 1.00 Pn
LAS  28.400 1.00 Sg
ANJ  28.500 1.00 Sg
VRN  32.200 1.00 Pn
QOM  39.900 1.00 Pn
MRVT 45.800 1.00 Pn
MZPU 46.400 1.00 Sg
QAMS 49.100 0.00 Pn
ANAR 50.400 1.00 Pn
QABG 51.400 1.00 Pn
KLH  52.800 0.00 Pn
SFR  63.800 1.00 Pn
TKDS 65.700 1.00 Pn
HNVD 72.300 0.00 Pn
SRB  76.000 0.00 Pn
MEH  76.800 0.00 Pn
SHRT 96.400 1.00 Pn
# 2023 05 16 09 49 04.200000 36.800 49.470   6.0  2.9 0.0 0.0 0.0       335
GIDE  8.300 1.00 Pg
CSN1 17.300 1.00 Pg
QABG 22.500 0.50 Pg
HGHA 28.200 0.50 Pn
GAS1 31.300 1.00 Pn
MZPU 33.700 1.00 Pn
SRB  34.400 0.50 Pn
HSH  35.300 1.00 Pn
HSB  37.900 1.00 Pn
QABG 38.000 1.00 Sg
GRMI 41.900 1.00 Pn
PRN  42.700 1.00 Pn
SNJK 42.900 1.00 Pn
HRS  43.800 1.00 Pn
# 2023 05 21 10 30 50.300000 36.878 53.985   6.7  2.6 0.0 0.0 0.0       336
GLO   9.100 1.00 Pg
ALA  25.300 1.00 Pg
ANJ  28.100 1.00 Pg
PRN  29.100 1.00 Pn
FIR  30.800 1.00 Pg
MRVT 35.000 1.00 Pn
MZPU 37.000 1.00 Pn
DMV  38.800 1.00 Pn
# 2023 06 01 15 36 28.700000 35.648 53.779   8.0  3.4 0.0 0.0 0.0       337
ANJ   4.900 1.00 Pg
ANJ   7.900 1.00 Sg
LAS  14.400 1.00 Pg
GLO  16.200 1.00 Pg
FIR  16.200 1.00 Pg
ALA  17.200 1.00 Pg
PRN  25.000 1.00 Pg
LAS  25.900 1.00 Sg
DMV  27.300 1.00 Pg
FIR  28.800 1.00 Sg
GLO  29.800 1.00 Sg
ALA  30.900 1.00 Sg
VRN  33.100 1.00 Pn
SFB  33.200 1.00 Pn
TEHA 35.800 1.00 Pn
MZPU 36.500 0.00 Pn
MND  37.200 1.00 Pn
HSB  37.200 1.00 Pn
QOM  41.100 1.00 Pn
ANAR 42.500 1.00 Pn
PRN  44.000 1.00 Sg
MRVT 46.300 1.00 Pn
QAMS 46.700 1.00 Pn
TNSJ 48.500 1.00 Pn
KLH  49.300 1.00 Pn
TSHB 49.300 1.00 Pn
ZEF  49.900 1.00 Pn
SBZV 52.700 1.00 Pn
TKDS 55.600 1.00 Pn
TPRV 57.500 1.00 Pn
GAR  58.400 0.00 Pn
SFR  60.000 1.00 Pn
SLJL 62.000 1.00 Pn
AKL  62.100 0.00 Pn
TAFT 63.100 1.00 Pn
RAM  63.800 1.00 Pn
BAF  68.100 1.00 Pn
MEH  68.500 1.00 Pn
KANR 75.500 1.00 Pn
TEG  76.700 0.00 Pn
DAH  89.000 0.00 Pn
# 2023 06 07 06 07 55.300000 36.830 53.259  16.0  2.7 0.0 0.0 0.0       338
GLO  11.100 1.00 Pg
ALA  16.200 1.00 Pg
PRN  18.100 1.00 Pg
GLO  19.900 1.00 Sg
FIR  23.400 1.00 Pg
ANJ  27.100 1.00 Pn
LAS  27.300 1.00 Pn
DMV  29.400 1.00 Pn
PRN  31.800 1.00 Sg
VRN  37.400 1.00 Pn
SFB  43.500 1.00 Pn
LAS  47.500 1.00 Sg
ANJ  47.700 1.00 Sg
# 2023 06 13 19 17 38.400000 37.564 49.050  13.3  2.5 0.0 0.0 0.0       339
GAS1 16.800 1.00 Pg
ZNJK 18.900 1.00 Pg
GIDE 19.200 1.00 Pg
SRB  22.800 1.00 Pg
HSH  27.900 1.00 Pn
HRS  33.700 1.00 Pn
QABG 35.300 1.00 Pn
# 2023 06 17 14 23 01.600000 36.134 51.581   8.0  3.3 0.0 0.0 0.0       340
MZPU  6.800 1.00 Pg
TEHA  8.800 1.00 Pg
PRN  12.300 1.00 Pg
DMV  13.400 1.00 Pg
TEHA 15.200 1.00 Sg
ALA  19.100 1.00 Pg
FIR  20.800 1.00 Pg
PRN  21.400 1.00 Sg
VRN  22.200 1.00 Pg
DMV  23.400 1.00 Sg
QOM  25.400 1.00 Pg
LAS  25.900 1.00 Pg
GIDE 29.500 1.00 Pn
QABG 31.200 1.00 Pg
SFB  34.200 1.00 Pn
GLO  34.400 1.00 Pn
ANJ  37.100 0.00 Pn
KLH  47.600 1.00 Pn
ZEF  54.600 0.00 Pn
MRVT 62.600 1.00 Pn
MEH  83.200 0.00 Pn
# 2023 06 17 21 45 20.800000 35.229 51.987  12.0  2.9 0.0 0.0 0.0       341
VRN   6.500 1.00 Pg
DMV   7.200 1.00 Pg
VRN  12.700 1.00 Sg
TEHA 13.500 1.00 Pn
FIR  14.900 1.00 Pg
QOM  15.800 1.00 Pn
LAS  16.300 1.00 Pn
SFB  17.100 1.00 Pn
PRN  19.800 1.00 Pn
ALA  20.700 1.00 Pn
MZPU 23.800 1.00 Pn
ANJ  29.300 1.00 Pg
KLH  34.200 1.00 Pn
GLO  35.900 1.00 Pn
# 2023 06 30 19 58 26.700000 35.932 53.278   8.0  2.5 0.0 0.0 0.0       342
ALA   8.600 1.00 Pg
FIR  10.600 1.00 Pg
LAS  12.300 1.00 Pg
ANJ  13.600 1.00 Pg
GLO  14.300 1.00 Pg
PRN  16.100 1.00 Pg
DMV  21.000 1.00 Pg
MZPU 28.400 1.00 Pg
VRN  30.100 1.00 Pg
HSB  32.200 1.00 Pg
SFB  33.200 1.00 Pn
MND  38.400 1.00 Pn
QOM  38.400 1.00 Pn
# 2023 07 06 01 19 14.300000 36.303 53.618   9.6  2.5 0.0 0.0 0.0       343
GLO   5.100 1.00 Pg
GLO  10.400 1.00 Sg
ALA  13.900 1.00 Pg
FIR  18.600 1.00 Pg
PRN  20.100 1.00 Pg
LAS  21.000 1.00 Pg
DMV  28.200 1.00 Pg
MZPU 30.900 1.00 Pn
# 2023 07 07 17 33 08.900000 34.718 53.015   7.3  2.9 0.0 0.0 0.0       344
LAS  14.300 1.00 Pg
SFB  15.500 1.00 Pg
FIR  19.400 1.00 Pg
VRN  21.700 1.00 Pg
DMV  23.800 1.00 Pg
SFB  26.700 1.00 Sg
ALA  26.900 1.00 Pg
QOM  30.500 1.00 Pn
PRN  31.600 1.00 Pn
KLH  35.100 1.00 Pn
ZEF  36.000 1.00 Pn
MZPU 39.100 1.00 Pn
# 2023 07 09 01 44 02.800000 36.542 49.830  10.0  2.9 0.0 0.0 0.0       345
QABG 16.600 1.00 Pg
ZNJK 17.400 1.00 Pg
CSN1 21.700 1.00 Pn
MZPU 24.700 0.50 Pg
HGHA 25.800 1.00 Pg
HSB  29.100 0.50 Pg
QABG 29.300 1.00 Sg
QOM  35.500 1.00 Pn
PRN  36.600 1.00 Pn
DMV  36.800 1.00 Pn
HSH  38.600 1.00 Pn
SRB  38.800 1.00 Pn
ALA  42.200 1.00 Pn
HRS  47.900 1.00 Pn
# 2023 07 11 03 34 59.000000 35.550 51.509  15.5  3.5 0.0 0.0 0.0       346
HSB   4.900 1.00 Pg
TEHA  5.200 1.00 Pg
TEH   5.400 1.00 Pg
DMV   8.700 1.00 Pg
HSB   9.100 1.00 Sg
TEH   9.300 1.00 Sg
TEHA  9.300 1.00 Sg
VRN  11.500 1.00 Pg
DMV  15.500 1.00 Sg
MZPU 16.900 1.00 Pg
PRN  18.300 1.00 Pg
FIR  18.700 1.00 Pg
ALA  22.000 1.00 Pg
LAS  22.400 1.00 Pg
SFB  24.400 1.00 Pg
QABG 28.300 1.00 Pg
PRN  31.600 1.00 Sg
ANJ  34.900 1.00 Pn
GLO  37.200 1.00 Pn
ALA  37.600 1.00 Sg
KLH  38.100 1.00 Pn
HGHA 38.200 1.00 Pn
LAS  39.400 1.00 Sg
ZNJK 42.100 1.00 Pn
ZEF  45.100 1.00 Pn
HNVD 48.900 1.00 Pn
GAR  52.000 1.00 Pn
SNQR 52.400 1.00 Pn
SNJK 57.800 1.00 Pn
HSH  60.000 0.00 Pn
RAM  60.400 0.00 Pn
SRB  61.000 1.00 Pn
GHG  66.600 1.00 Pn
DHR  66.900 1.00 Pn
TNSJ 69.500 1.00 Pn
TSHB 70.300 0.00 Pn
MEH  74.800 1.00 Pn
TPRV 76.300 1.00 Pn
TKDS 77.200 1.00 Pn
BAF  79.900 1.00 Pn
# 2023 07 11 07 48 30.300000 36.762 50.379  19.2  2.9 0.0 0.0 0.0       347
GIDE  8.900 1.00 Pg
MZPU 18.300 1.00 Pg
QABG 23.000 1.00 Pg
ZNJK 25.700 1.00 Pn
PRN  29.700 1.00 Pn
DMV  31.600 1.00 Pn
MZPU 33.400 1.00 Sg
ALA  36.200 1.00 Pn
VRN  36.700 1.00 Pn
QABG 39.900 1.00 Sg
HSH  42.600 1.00 Pn
GLO  46.700 1.00 Pn
# 2023 07 15 02 23 51.500000 34.617 50.489   9.4  3.1 0.0 0.0 0.0       348
HSB  20.900 1.00 Pg
VRN  21.800 1.00 Pg
QABG 25.600 1.00 Pg
SFB  27.300 0.50 Pn
DMV  30.400 0.00 Pg
HGHA 30.400 1.00 Pn
PIR  35.400 0.00 Pn
HSB  36.500 1.00 Sg
VRN  37.600 1.00 Sg
MZPU 37.800 1.00 Pn
FIR  38.500 0.00 Pn
LAS  39.100 1.00 Pn
BZA  39.500 1.00 Pn
PRN  40.300 0.00 Pn
ZEF  41.400 1.00 Pn
GIDE 41.900 1.00 Pn
JHBN 42.300 1.00 Pn
SNQR 42.400 1.00 Pn
ZNJK 44.300 1.00 Pn
ZNGN 45.000 0.00 Pn
GAR  45.300 1.00 Pn
BRJ  47.900 1.00 Pn
SNJK 49.900 1.00 Pn
RAM  54.400 0.00 Pn
DHR  56.600 1.00 Pn
SRB  63.600 0.00 Pn
BAF  81.300 0.00 Pn
TKDS 86.000 1.00 Pn
# 2023 07 18 01 59 17.500000 35.580 53.321  15.6  2.9 0.0 0.0 0.0       349
LAS   7.700 1.00 Pg
FIR   9.400 1.00 Pg
ANJ  10.200 1.00 Pg
ALA  13.100 1.00 Pg
KIA  13.800 1.00 Pg
FIR  16.000 1.00 Sg
ANJ  17.100 1.00 Sg
GLO  19.400 1.00 Pg
DMV  19.900 1.00 Pg
PRN  20.100 1.00 Pg
KIA  23.500 1.00 Sg
VRN  26.900 1.00 Pg
SFB  28.600 1.00 Pg
DMV  34.800 1.00 Sg
SFB  49.500 1.00 Sg
TNSJ 50.500 1.00 Pn
TSHB 52.300 1.00 Pn
SBZV 56.900 1.00 Pn
TKDS 58.900 1.00 Pn
TPRV 59.900 1.00 Pn
SFR  64.300 1.00 Pn
BAF  67.800 1.00 Pn
TEG  80.500 1.00 Pn
# 2023 07 19 14 14 46.300000 36.351 53.802   8.0  4.4 0.0 0.0 0.0       350
GLO   3.200 1.00 Pg
KIA   3.600 1.00 Pg
GLO   6.500 1.00 Sg
KIA   6.800 1.00 Sg
ALA  16.500 1.00 Pg
ANJ  17.500 1.00 Pg
FIR  20.800 1.00 Pg
PRN  22.400 1.00 Pg
LAS  22.600 1.00 Pg
MND  28.200 1.00 Pn
ALA  30.200 1.00 Sg
DMV  30.200 1.00 Pn
MZPU 33.100 1.00 Pn
FIR  35.500 1.00 Sg
TEHA 36.800 1.00 Pn
TEH  37.500 0.00 Pn
VRN  38.200 1.00 Pn
MRVT 38.400 0.00 Pn
HSB  39.900 1.00 Pn
SFB  41.100 1.00 Pn
SBZV 51.200 1.00 Pn
GIDE 51.400 0.00 Pn
TNSJ 54.400 1.00 Pn
SFR  56.900 1.00 Pn
QABG 56.900 1.00 Pn
SLJL 57.100 1.00 Pn
KLH  57.100 0.00 Pn
TKDS 61.900 1.00 Pn
AKL  64.600 1.00 Pn
TPRV 65.200 1.00 Pn
HGHA 65.200 0.00 Pn
EMG  65.400 0.00 Pn
ZNJK 66.000 0.00 Pn
PAY  67.600 0.00 Pn
TAFT 72.500 0.00 Pn
RAM  73.100 0.00 Pn
JHBN 75.500 0.00 Pn
HNVD 77.000 0.00 Pn
MEH  77.800 0.00 Pn
BAF  78.100 0.00 Pn
MYA  79.300 1.00 Pn
SRB  79.400 1.00 Pn
SNQR 80.400 0.00 Pn
AFRZ 80.500 0.00 Pn
HSH  81.900 0.00 Pn
KRVR 82.300 1.00 Pn
TBJM 83.400 1.00 Pn
SNJK 85.600 0.00 Pn
KANR 85.600 0.00 Pn
KKOM 86.600 0.00 Pn
HRS  87.400 0.00 Pn
BSRN 94.700 0.00 Pn
AZR  97.200 0.00 Pn
KSHD 101.300 1.00 Pn
ILBA 102.200 0.00 Pn
SHB  102.600 0.00 Pn
MRD  103.800 0.00 Pn
MAKU 116.000 0.00 Pn
DSBU 122.300 0.00 Pn
ZHSF 131.400 0.00 Pn
BNDS 135.600 0.00 Pn
# 2023 07 21 13 38 27.600000 34.293 51.541   8.0  3.0 0.0 0.0 0.0       351
SFB  11.600 1.00 Pg
VRN  14.600 1.00 Pg
KLH  19.400 1.00 Pg
SFB  19.900 1.00 Sg
HSB  22.100 1.00 Pg
DMV  25.500 1.00 Pg
ZEF  29.200 1.00 Pn
LAS  30.100 1.00 Pn
FIR  31.400 1.00 Pn
PIR  32.500 1.00 Pg
KLH  33.100 1.00 Sg
PRN  37.000 1.00 Pn
ALA  38.100 1.00 Pn
QABG 38.600 1.00 Pn
# 2023 07 24 14 50 03.000000 36.339 49.444   5.0  3.2 0.0 0.0 0.0       352
QABG 12.700 1.00 Pg
ZNJK 14.400 1.00 Pg
GIDE 14.600 1.00 Pg
HGHA 19.700 1.00 Pg
LHJ2 19.900 1.00 Pg
CSN1 25.700 1.00 Pg
TEH  31.700 1.00 Pn
HSB  32.300 1.00 Pn
MZPU 32.500 1.00 Pn
HSH  37.300 1.00 Pn
GAS1 37.700 1.00 Pn
SNQR 38.600 1.00 Pn
SNJK 39.200 1.00 Pn
HNVD 40.400 1.00 Pn
VRN  41.700 1.00 Pn
SAQZ 46.500 1.00 Pn
SFB  51.400 1.00 Pn
# 2023 07 24 19 12 00.200000 36.814 49.654   8.0  2.8 0.0 0.0 0.0       353
GIDE  5.000 1.00 Pg
LHJ2  9.400 1.00 Pg
ZNJK 15.700 1.00 Pg
CSN1 17.100 1.00 Pg
QABG 21.600 1.00 Pg
HGHA 27.500 1.00 Pn
MZPU 30.100 1.00 Pg
HSH  36.000 1.00 Pn
PRN  40.500 1.00 Pn
DMV  40.900 1.00 Pn
# 2023 08 02 21 13 09.600000 35.182 51.792   8.2  3.5 0.0 0.0 0.0       354
VRN   4.400 1.00 Pg
VRN   7.600 1.00 Sg
DMV   9.100 1.00 Pg
HSB   9.500 1.00 Pg
TEH  12.900 1.00 Pg
DMV  16.300 1.00 Sg
HSB  17.400 1.00 Sg
SFB  17.600 1.00 Pg
FIR  17.700 1.00 Pg
PRN  22.000 1.00 Pg
TEH  22.600 1.00 Sg
ALA  23.500 1.00 Pg
SFB  30.600 1.00 Sg
FIR  31.200 1.00 Sg
QABG 33.800 1.00 Pn
KIA  34.200 1.00 Pn
GLO  37.700 1.00 Pn
PRN  38.100 1.00 Sg
HGHA 42.200 1.00 Pn
RAZA 48.700 1.00 Pn
HNVD 51.300 0.00 Pn
RAM  55.800 1.00 Pn
SNQR 57.600 0.00 Pn
KKOM 59.600 1.00 Pn
SNJK 62.200 1.00 Pn
TSHB 65.900 1.00 Pn
SRB  67.400 1.00 Pn
DHR  70.600 1.00 Pn
TKDS 72.900 1.00 Pn
KANR 80.500 1.00 Pn
AFRZ 94.400 1.00 Pn
# 2023 08 03 12 42 24.900000 36.778 50.529  28.0  2.5 0.0 0.0 0.0       355
LHJ2 12.200 1.00 Pg
GIDE 12.400 1.00 Pg
MZPU 20.000 1.00 Pg
QABG 26.600 1.00 Pg
PRN  28.100 1.00 Pn
ZNJK 28.900 1.00 Pg
MZPU 32.400 1.00 Sg
# 2023 08 08 12 34 47.000000 36.033 53.715   7.0  2.8 0.0 0.0 0.0       356
KIA   3.400 1.00 Pg
KIA   6.300 1.00 Sg
GLO   9.300 1.00 Pg
ALA  14.200 1.00 Pg
FIR  16.900 1.00 Pg
LAS  17.100 1.00 Pg
GLO  17.800 1.00 Sg
ANJ  20.100 1.00 Sg
PRN  21.700 1.00 Pg
ALA  25.400 1.00 Sg
DMV  27.000 1.00 Pg
MZPU 32.900 1.00 Pn
VRN  35.200 1.00 Pn
SFB  36.700 1.00 Pn
# 2023 08 17 15 26 32.100000 35.563 52.259  10.9  2.9 0.0 0.0 0.0       357
DMV   4.400 1.00 Pg
DMV   8.100 1.00 Sg
FIR   8.300 1.00 Pg
LAS  11.800 1.00 Pg
ALA  13.500 1.00 Pg
PRN  13.600 1.00 Pg
VRN  14.200 1.00 Pg
TEH  14.300 1.00 Pg
FIR  14.500 1.00 Sg
HSB  14.900 1.00 Pg
ANJ  25.300 1.00 Pn
# 2023 08 17 21 39 33.000000 34.405 51.181  10.0  2.6 0.0 0.0 0.0       358
VRN  15.000 1.00 Pg
HSB  19.300 1.00 Pg
KLH  21.700 1.00 Pg
DMV  25.800 1.00 Pg
PIR  32.300 1.00 Pn
ZEF  33.100 1.00 Pn
QABG 33.700 1.00 Pn
KLH  37.200 1.00 Sg
# 2023 08 19 10 18 30.800000 35.790 52.043   7.9  3.9 0.0 0.0 0.0       359
DMV   5.100 1.00 Pg
DMV   9.300 1.00 Sg
TEH  10.600 1.00 Pg
TEHA 10.700 0.00 Pg
PRN  10.700 1.00 Pg
FIR  12.000 1.00 Pg
HSB  13.400 1.00 Pg
ALA  13.600 1.00 Pg
MZPU 14.800 1.00 Pg
VRN  16.500 1.00 Pg
LAS  16.800 1.00 Pg
PRN  17.500 1.00 Sg
TEH  18.300 1.00 Sg
FIR  21.200 1.00 Sg
ALA  24.000 1.00 Sg
MZPU 26.000 1.00 Sg
KIA  26.100 1.00 Pg
VRN  27.700 1.00 Sg
LAS  28.600 1.00 Sg
ANJ  29.500 1.00 Pg
GLO  30.300 1.00 Pn
QABG 35.300 0.00 Pn
LHJ2 37.600 1.00 Pn
GIDE 37.800 0.00 Pn
KLH  43.000 1.00 Pn
HGHA 45.200 1.00 Pn
ZNJK 47.900 1.00 Pn
ZEF  48.600 1.00 Pn
MND  50.900 1.00 Pn
PIR  54.000 1.00 Pn
GAR  55.900 0.00 Pn
HNVD 56.000 1.00 Pn
BZA  59.600 1.00 Pn
SNQR 60.000 1.00 Pn
MRVT 60.400 1.00 Pn
JHBN 61.000 0.00 Pn
ZNGN 61.100 0.00 Pn
RAM  63.400 0.00 Pn
BRJ  63.500 0.00 Pn
KKOM 64.700 1.00 Pn
SNJK 64.800 1.00 Pn
SRB  64.900 1.00 Pn
HSH  65.500 0.00 Pn
TNSJ 66.100 0.00 Pn
TAFT 69.200 1.00 Pn
KCHF 69.300 0.00 Pn
SBZV 71.700 1.00 Pn
TKDS 73.700 0.00 Pn
TPRV 73.900 0.00 Pn
SAQZ 74.000 0.00 Pn
HRS  74.300 0.00 Pn
DHR  74.400 0.00 Pn
KLNJ 75.000 0.00 Pn
MEH  75.800 1.00 Pn
SFR  77.500 1.00 Pn
SLJL 78.400 1.00 Pn
BAF  79.300 0.00 Pn
KANR 85.800 1.00 Pn
EMG  86.000 0.00 Pn
KRVR 87.900 0.00 Pn
KZRD 93.400 1.00 Pn
AFRZ 93.800 0.00 Pn
MYA  99.300 0.00 Pn
SHRT 106.500 0.00 Pn
KSHD 106.600 0.00 Pn
DAH  107.700 0.00 Pn
# 2023 08 19 11 12 27.500000 35.787 52.018  14.0  2.5 0.0 0.0 0.0       360
DMV   5.200 1.00 Pg
DMV   9.000 1.00 Sg
PRN  10.600 1.00 Pg
TEH  10.900 1.00 Pg
FIR  12.200 1.00 Pg
HSB  13.000 1.00 Pg
ALA  13.400 1.00 Pg
MZPU 14.400 1.00 Pg
VRN  16.400 1.00 Pg
LAS  16.700 1.00 Pg
PRN  18.300 1.00 Sg
FIR  20.900 1.00 Sg
HSB  22.400 1.00 Sg
ALA  23.400 1.00 Sg
MZPU 25.200 1.00 Sg
ANJ  29.600 1.00 Pn
# 2023 08 23 07 43 28.000000 35.050 53.597  13.5  2.9 0.0 0.0 0.0       361
ANJ   9.700 1.00 Pg
LAS  12.400 1.00 Pg
FIR  17.300 1.00 Pg
LAS  20.800 1.00 Sg
ALA  22.800 1.00 Pn
DMV  25.900 1.00 Pn
GLO  28.000 0.00 Pn
VRN  28.200 1.00 Pn
PRN  29.300 1.00 Pn
# 2023 08 25 18 10 35.400000 34.531 52.440   7.6  4.2 0.0 0.0 0.0       362
VRN  15.500 1.00 Pg
LAS  19.000 1.00 Pg
DMV  21.800 1.00 Pg
FIR  21.800 1.00 Pg
HSB  24.500 1.00 Pg
VRN  26.000 1.00 Sg
KLH  27.300 1.00 Pg
TEH  27.700 1.00 Pg
ANJ  29.100 1.00 Pg
ALA  30.200 1.00 Pg
ZEF  31.400 1.00 Pg
PRN  32.400 1.00 Pn
LAS  32.700 1.00 Sg
KIA  35.700 1.00 Pn
DMV  36.900 1.00 Sg
MZPU 37.200 1.00 Pn
FIR  39.000 1.00 Sg
GLO  39.900 1.00 Pn
QABG 44.800 1.00 Pn
ZNGN 46.100 1.00 Pn
JHBN 46.600 1.00 Pn
RAM  46.700 1.00 Pn
TAFT 51.400 1.00 Pn
HGHA 51.500 1.00 Pn
TSHB 56.500 1.00 Pn
HNVD 56.600 1.00 Pn
TNSJ 57.000 1.00 Pn
KLNJ 58.300 1.00 Pn
MEH  59.200 1.00 Pn
BZA  60.900 1.00 Pn
TPRV 61.500 1.00 Pn
BAF  62.700 1.00 Pn
TKDS 63.800 1.00 Pn
SNQR 64.100 1.00 Pn
MRVT 67.600 1.00 Pn
KANR 69.200 1.00 Pn
SNJK 70.800 1.00 Pn
KCHF 70.900 1.00 Pn
SBZV 71.800 1.00 Pn
KRVR 73.200 1.00 Pn
DHR  77.200 1.00 Pn
KZRD 78.500 0.00 Pn
SRB  79.400 0.00 Pn
SFR  80.400 1.00 Pn
ILBA 80.800 1.00 Pn
SLJL 82.600 1.00 Pn
AKL  85.000 1.00 Pn
AFRZ 85.600 0.00 Pn
PAY  87.500 1.00 Pn
KSHD 91.400 0.00 Pn
MON  94.000 0.00 Pn
MYA  99.200 1.00 Pn
JRKH 99.900 1.00 Pn
# 2023 08 25 19 00 29.800000 34.553 52.461   8.2  3.8 0.0 0.0 0.0       363
VRN  16.000 1.00 Pg
LAS  19.200 1.00 Pg
FIR  21.900 1.00 Pg
DMV  22.000 1.00 Pg
HSB  24.700 0.00 Pg
VRN  25.900 1.00 Sg
KLH  27.400 0.00 Pg
TEH  29.100 1.00 Pg
ANJ  29.100 1.00 Pg
ALA  30.600 1.00 Pg
ZEF  31.500 1.00 Pn
PRN  32.500 1.00 Pn
LAS  32.800 1.00 Sg
KIA  36.100 1.00 Pn
GLO  41.000 1.00 Pn
PIR  41.100 1.00 Pn
QABG 45.600 1.00 Pn
ZNGN 48.400 1.00 Pn
JHBN 48.400 0.00 Pn
TSHB 56.500 1.00 Pn
TNSJ 57.100 1.00 Pn
MEH  59.300 1.00 Pn
TPRV 61.900 1.00 Pn
TKDS 64.300 1.00 Pn
BAF  64.500 1.00 Pn
SNQR 64.800 1.00 Pn
KKOM 66.700 1.00 Pn
KANR 69.700 1.00 Pn
SBZV 72.300 1.00 Pn
KRVR 73.800 1.00 Pn
SRB  79.900 0.00 Pn
SFR  80.600 1.00 Pn
SLJL 83.600 1.00 Pn
AKL  85.700 1.00 Pn
AFRZ 86.000 0.00 Pn
EMG  88.800 0.00 Pn
MYA  98.700 1.00 Pn
JRKH 100.100 1.00 Pn
# 2023 08 27 15 35 30.900000 34.204 51.707  10.0  2.7 0.0 0.0 0.0       364
VRN  15.300 1.00 Pg
KLH  17.300 1.00 Pg
HSB  23.000 0.50 Pg
DMV  25.900 1.00 Pg
ZEF  26.500 1.00 Pg
LAS  28.800 1.00 Pn
PIR  31.000 1.00 Pn
FIR  31.400 1.00 Pn
ALA  38.000 1.00 Pn
ZNGN 39.200 1.00 Pn
MZPU 39.600 1.00 Pn
QABG 40.000 1.00 Pn
KIA  44.600 0.50 Pn
# 2023 08 29 21 59 08.400000 36.472 51.587  19.1  2.9 0.0 0.0 0.0       365
MZPU  4.300 1.00 Pg
PRN  13.200 1.00 Pg
TEH  14.600 1.00 Pg
DMV  18.800 1.00 Pg
HSB  19.700 1.00 Pg
ALA  20.200 1.00 Pg
FIR  24.200 1.00 Pg
LHJ2 25.500 1.00 Pg
VRN  27.400 1.00 Pg
LAS  29.000 1.00 Pg
KIA  30.700 1.00 Pn
GLO  31.900 1.00 Pn
HGHA 41.200 1.00 Pn
HRS  63.700 1.00 Pn
# 2023 08 30 06 46 53.200000 35.808 53.751  14.7  2.7 0.0 0.0 0.0       366
KIA   8.100 1.00 Pg
GLO  14.100 1.00 Pg
KIA  14.500 1.00 Sg
ALA  15.600 1.00 Pg
FIR  15.700 1.00 Pg
PRN  23.200 1.00 Pg
DMV  26.300 1.00 Pn
FIR  28.300 1.00 Sg
VRN  33.500 1.00 Pn
MZPU 33.700 1.00 Pn
# 2023 09 02 18 17 31.900000 36.978 50.881  10.0  2.5 0.0 0.0 0.0       367
MZPU 15.800 1.00 Pg
GIDE 15.900 1.00 Pg
PRN  25.300 1.00 Pn
GIDE 26.200 1.00 Sg
QABG 29.800 1.00 Pn
DMV  31.200 1.00 Pn
ALA  32.000 1.00 Pn
FIR  36.500 1.00 Pn
# 2023 09 05 06 46 52.400000 35.590 49.225   6.0  2.8 0.0 0.0 0.0       368
QABG  7.200 1.00 Pg
HGHA  8.400 1.00 Pg
SNQR 29.500 1.00 Pn
BZA  30.800 1.00 Pn
SNJK 33.100 1.00 Pn
RAZA 38.700 1.00 Pn
MZPU 38.800 1.00 Pn
DMV  41.900 1.00 Pn
HSH  42.600 1.00 Pn
SAQZ 45.400 1.00 Pn
SRB  45.500 1.00 Pn
FIR  49.600 1.00 Pn
HRS  54.400 1.00 Pn
# 2023 09 08 18 14 14.000000 35.603 49.149   9.0  3.4 0.0 0.0 0.0       369
QABG  7.700 1.00 Pg
SNQR 28.900 1.00 Pg
HNVD 29.200 1.00 Pg
SNJK 32.100 1.00 Pn
HSB  32.400 1.00 Pn
TEH  34.400 1.00 Pn
KKOM 36.600 1.00 Pn
MZPU 39.000 1.00 Pn
VRN  39.900 1.00 Pn
HSH  41.100 1.00 Pn
DMV  42.100 1.00 Pn
SAQZ 44.400 1.00 Pn
PRN  46.400 1.00 Pn
GAS1 47.500 1.00 Pn
SNQR 49.800 1.00 Sg
FIR  50.300 0.00 Pn
HNVD 50.400 1.00 Sg
LAS  52.300 0.00 Pn
HRS  53.900 1.00 Pn
JHBN 59.400 1.00 Pn
KIA  61.600 0.00 Pn
SHB  63.500 1.00 Pn
TNSJ 96.300 1.00 Pn
TPRV 102.700 1.00 Pn
TKDS 105.000 1.00 Pn
# 2023 09 16 03 06 01.700000 36.482 51.889  16.0  2.7 0.0 0.0 0.0       370
PRN   9.200 1.00 Pg
PRN  15.800 1.00 Sg
ALA  16.400 1.00 Pg
DMV  17.800 1.00 Pg
FIR  20.900 1.00 Pg
HSB  21.400 1.00 Pg
KIA  27.200 1.00 Pg
ALA  27.700 1.00 Sg
GLO  29.300 1.00 Pn
DMV  30.600 1.00 Sg
# 2023 09 17 00 44 50.700000 36.388 53.354   8.0  2.9 0.0 0.0 0.0       371
KIA   7.300 1.00 Pg
GLO   8.000 1.00 Pg
ALA  10.700 1.00 Pg
PRN  16.300 1.00 Pg
FIR  17.200 1.00 Pg
DMV  25.300 1.00 Pg
PRN  28.800 1.00 Sg
TEH  32.800 1.00 Pn
HSB  34.600 1.00 Pn
VRN  35.300 1.00 Pn
# 2023 09 17 14 47 53.600000 36.302 53.653  10.0  2.5 0.0 0.0 0.0       372
KIA   2.700 1.00 Pg
KIA   5.500 1.00 Sg
GLO   5.600 1.00 Pg
ALA  13.500 1.00 Pg
ANJ  16.800 1.00 Pg
FIR  18.500 1.00 Pg
PRN  19.800 1.00 Pg
LAS  20.900 1.00 Pg
ALA  25.400 1.00 Sg
DMV  28.100 1.00 Pg
FIR  32.200 1.00 Sg
VRN  36.600 1.00 Pn
# 2023 09 20 00 21 49.300000 35.835 52.367  10.0  2.6 0.0 0.0 0.0       373
FIR   7.400 1.00 Pg
DMV   8.100 1.00 Pg
PRN   8.500 1.00 Pg
ALA   8.800 1.00 Pg
LAS  13.400 1.00 Pg
DMV  13.800 1.00 Sg
ALA  15.300 1.00 Sg
MZPU 17.300 1.00 Pg
HSB  17.900 1.00 Pg
KIA  21.500 1.00 Pg
GLO  26.800 1.00 Pg
# 2023 09 21 14 10 38.900000 35.554 49.826  11.2  2.5 0.0 0.0 0.0       374
QABG  6.500 1.00 Pg
QABG 11.000 1.00 Sg
HGHA 17.300 1.00 Pg
ZNJK 28.300 1.00 Pn
HGHA 28.900 1.00 Sg
VRN  31.400 1.00 Pn
MZPU 32.200 1.00 Pn
HNVD 33.100 1.00 Pn
# 2023 09 22 06 02 51.200000 35.050 52.107   8.0  2.5 0.0 0.0 0.0       375
DMV  11.400 1.00 Pg
HSB  14.700 1.00 Pn
LAS  15.200 1.00 Pg
FIR  15.500 1.00 Pg
ALA  22.800 1.00 Pg
MZPU 27.100 1.00 Pn
ANJ  28.800 1.00 Pg
KLH  33.400 1.00 Pn
GLO  37.200 1.00 Pn
ALA  40.200 1.00 Sg
# 2023 09 25 17 33 40.000000 35.751 49.239   6.5  2.9 0.0 0.0 0.0       376
QABG  5.900 1.00 Pg
HGHA  9.500 1.00 Pg
ZNJK 21.000 1.00 Pg
SNQR 29.400 1.00 Pn
HSB  30.400 1.00 Pn
SNJK 33.100 1.00 Pn
MZPU 37.900 1.00 Pn
DMV  41.500 1.00 Pn
DHR  48.000 0.00 Pn
# 2023 09 26 09 42 55.600000 36.225 52.796  14.0  2.6 0.0 0.0 0.0       377
ALA   4.600 1.00 Pg
PRN   7.800 1.00 Pg
ALA   8.100 1.00 Sg
FIR  11.500 1.00 Pg
KIA  13.700 1.00 Pg
PRN  13.900 1.00 Sg
LAS  16.300 1.00 Pg
DMV  17.200 1.00 Pg
GLO  17.400 1.00 Pg
MZPU 18.700 1.00 Pg
FIR  20.000 1.00 Sg
VRN  28.100 1.00 Pn
LAS  28.700 1.00 Sg
