# 2022 01 20 02 48 09.400000 34.225 51.667   8.0  2.8 0.0 0.0 0.0       145
VRN  15.700 1.00 Pg
QOM  15.700 1.00 Pg
KLH  17.900 1.00 Pg
HSB  24.100 1.00 Pg
DMV  26.200 1.00 Pg
ZEF  27.000 1.00 Pg
LAS  29.600 1.00 Pn
ILP6 29.900 1.00 Pn
KLH  31.000 1.00 Sg
FIR  31.200 1.00 Pn
PIR  31.500 1.00 Pn
ANAR 36.600 1.00 Pn
ANJ  39.700 1.00 Pn
HSB  41.900 1.00 Sg
# 2022 01 20 23 45 00.100000 34.243 51.683   9.0  2.8 0.0 0.0 0.0       146
SFB   9.400 1.00 Pg
VRN  15.600 1.00 Pg
QOM  15.700 1.00 Pg
KLH  18.100 1.00 Pg
HSB  24.000 1.00 Pg
DMV  26.200 1.00 Pg
ZEF  27.200 1.00 Pg
LAS  29.600 1.00 Pg
ILP6 30.100 1.00 Pg
FIR  31.500 1.00 Pg
PIR  32.100 1.00 Pn
ANAR 36.600 1.00 Pn
HGHA 44.500 1.00 Pn
# 2022 01 21 19 02 58.800000 34.221 51.673   8.0  2.7 0.0 0.0 0.0       147
SFB   9.800 1.00 Pg
QOM  15.700 1.00 Pg
VRN  15.800 1.00 Pg
KLH  18.300 1.00 Pg
HSB  23.900 1.00 Pg
DMV  26.200 1.00 Pg
ZEF  27.300 1.00 Pg
LAS  29.600 1.00 Pn
FIR  31.600 1.00 Pg
PIR  31.700 1.00 Pg
ANAR 36.400 1.00 Pn
PRN  37.800 1.00 Pn
ANJ  39.900 1.00 Pn
# 2022 01 22 16 33 06.500000 37.581 49.038  18.0  2.6 0.0 0.0 0.0       148
CSN1  4.000 1.00 Pg
GAS1 15.800 1.00 Pg
ZNJK 18.400 1.00 Pg
GIDE 18.500 1.00 Pg
GRMI 27.300 1.00 Pn
GZV  27.700 1.00 Pn
GAS1 28.000 1.00 Sg
# 2022 01 22 18 39 40.200000 34.243 51.642   9.4  3.7 0.0 0.0 0.0       149
SFB  10.700 1.00 Pg
QOM  16.000 1.00 Pg
VRN  16.600 1.00 Pg
KLH  18.800 1.00 Pg
HSB  24.900 1.00 Pg
DMV  27.100 1.00 Pg
ZEF  28.000 0.00 Pg
TEH  29.400 1.00 Pg
LAS  30.000 1.00 Pn
ILP6 30.700 1.00 Pg
FIR  31.800 1.00 Pn
PIR  32.300 1.00 Pn
ANAR 37.500 1.00 Pn
JHBN 39.700 1.00 Pn
ANJ  40.400 1.00 Pn
HSB  42.600 1.00 Sg
GZV  43.400 0.00 Pn
RAM  44.200 1.00 Pn
HGHA 45.100 1.00 Pn
LAS  53.200 1.00 Sg
TAFT 54.900 1.00 Pn
KKOM 56.300 1.00 Pn
TSHB 65.200 1.00 Pn
TNSJ 66.100 1.00 Pn
BAF  67.800 1.00 Pn
TAPT 72.200 1.00 Pn
TEG  93.600 1.00 Pn
AFRZ 94.500 0.00 Pn
KOO  98.000 1.00 Pn
TBJM 108.900 0.00 Pn
# 2022 01 23 18 04 34.000000 35.789 51.993  14.1  3.6 0.0 0.0 0.0       150
DMV   4.900 1.00 Pg
D011  7.900 0.00 Pg
DMV   9.000 0.00 Sg
TEH  10.100 1.00 Pg
PRN  10.500 1.00 Pg
FIR  12.100 1.00 Pg
HSB  13.400 1.00 Pg
MZPU 14.300 1.00 Pg
VRN  16.200 1.00 Pg
LAS  16.900 1.00 Pg
TEH  18.100 1.00 Sg
FIR  22.200 1.00 Sg
QOM  22.800 1.00 Pg
ILP6 24.200 1.00 Pg
MZPU 25.100 1.00 Sg
SFB  26.900 1.00 Pg
VRN  28.000 1.00 Sg
GZV  28.700 1.00 Pn
ANJ  29.400 1.00 Pn
GLO  30.800 1.00 Pn
GIDE 38.200 0.00 Pn
ILP6 42.300 1.00 Sg
KLH  42.500 0.00 Pn
ZEF  48.200 0.00 Pn
ANAR 49.300 0.00 Pn
MND  50.700 1.00 Pn
GAS1 57.400 1.00 Pn
MRVT 60.600 1.00 Pn
TNSJ 66.700 0.00 Pn
TAPT 67.600 0.00 Pn
GRMI 70.300 0.00 Pn
TPRV 74.200 0.00 Pn
BAF  79.500 0.00 Pn
AFRZ 93.600 0.00 Pn
TEG  95.700 0.00 Pn
KOO  100.500 0.00 Pn
# 2022 01 25 10 36 55.900000 35.697 52.592   6.0  2.5 0.0 0.0 0.0       151
FIR   3.200 1.00 Pg
FIR   5.800 1.00 Sg
LAS   8.900 1.00 Pg
DMV   9.400 1.00 Pg
PRN  11.400 1.00 Pg
DMV  17.300 1.00 Sg
VRN  19.300 1.00 Pg
MZPU 21.500 1.00 Pg
GLO  25.400 1.00 Pn
SFB  26.700 1.00 Pg
QOM  28.100 1.00 Pn
ILP6 32.600 1.00 Pn
KLH  45.000 1.00 Pn
ZEF  48.200 1.00 Pn
# 2022 01 25 11 38 06.700000 34.264 53.314   7.3  3.9 0.0 0.0 0.0       152
SFB  17.400 1.00 Pg
ANAR 21.700 1.00 Pg
LAS  23.000 1.00 Pg
ANJ  25.200 1.00 Pg
FIR  27.700 1.00 Pn
VRN  28.800 1.00 Pg
ZEF  29.400 1.00 Pn
KLH  31.700 1.00 Pn
DMV  31.800 1.00 Pn
HSB  36.800 1.00 Pn
PRN  38.200 0.00 Pn
TEH  38.500 1.00 Pn
ANJ  43.000 1.00 Sg
RAM  44.400 1.00 Pn
ILP6 45.100 1.00 Pn
MZPU 45.300 0.00 Pn
SHRO 47.800 1.00 Pn
JHBN 50.200 1.00 Pn
TPRV 51.600 1.00 Pn
GZV  53.800 0.00 Pn
KLNJ 58.300 1.00 Pn
AFRZ 75.100 1.00 Pn
KOO  79.000 1.00 Pn
# 2022 01 28 08 42 48.800000 36.125 52.608   8.3  3.1 0.0 0.0 0.0       153
PRN   6.000 1.00 Pg
FIR  10.800 1.00 Pg
DMV  15.200 1.00 Pg
LAS  16.600 1.00 Pg
MZPU 17.700 1.00 Pg
TEH  21.200 1.00 Pg
GLO  21.500 1.00 Pg
ANJ  24.500 1.00 Pg
HSB  26.000 1.00 Pg
DMV  26.300 1.00 Sg
VRN  26.500 1.00 Pg
MZPU 32.100 1.00 Sg
QOM  34.100 0.00 Pn
SFB  34.600 1.00 Pn
ILP6 36.100 1.00 Pn
GZV  36.800 1.00 Pn
TEH  37.900 1.00 Sg
GLO  38.000 1.00 Sg
MND  42.800 1.00 Pn
HSB  43.100 1.00 Sg
HAGD 52.100 0.00 Pn
ANAR 52.600 0.00 Pn
TAPT 63.000 1.00 Pn
# 2022 01 29 11 56 03.500000 35.320 53.427  13.0  2.9 0.0 0.0 0.0       154
ANJ   8.500 1.00 Pg
LAS   8.500 1.00 Pg
FIR  12.400 1.00 Pg
DMV  22.500 1.00 Pg
GLO  23.100 1.00 Pg
PRN  24.000 1.00 Pg
SFB  26.300 1.00 Pg
VRN  26.400 1.00 Pg
HSB  31.800 1.00 Pg
MZPU 34.700 1.00 Pn
QOM  35.000 1.00 Pn
# 2022 01 31 00 59 41.000000 34.225 51.688   8.0  2.7 0.0 0.0 0.0       155
SFB   9.200 1.00 Pg
QOM  15.700 1.00 Pg
VRN  15.700 1.00 Pg
KLH  18.000 1.00 Pg
HSB  24.100 1.00 Pg
DMV  26.200 1.00 Pn
ZEF  27.100 1.00 Pn
LAS  29.400 1.00 Pn
ILP6 30.000 1.00 Pn
KLH  30.800 1.00 Sg
FIR  31.000 1.00 Pn
PIR  31.800 1.00 Pn
ANAR 36.800 1.00 Pn
# 2022 01 31 02 22 54.700000 35.236 51.863  18.0  3.0 0.0 0.0 0.0       156
VRN   6.700 1.00 Pg
DMV   8.400 1.00 Pg
HSB  10.700 1.00 Pg
TEH  12.900 1.00 Pg
D011 12.900 1.00 Pg
DMV  14.400 1.00 Sg
QOM  14.900 1.00 Pg
FIR  15.800 1.00 Pg
LAS  17.400 1.00 Pg
HSB  18.400 1.00 Sg
PRN  20.700 1.00 Pg
ILP6 21.800 1.00 Pn
TEH  22.100 1.00 Sg
MZPU 23.300 1.00 Pg
QOM  25.700 1.00 Sg
ANJ  30.000 1.00 Pn
LAS  30.200 1.00 Sg
GZV  31.700 0.00 Pn
KLH  33.700 1.00 Pn
GLO  36.100 0.00 Pn
HAGD 38.800 1.00 Pn
ZEF  39.600 1.00 Pn
ANAR 42.500 1.00 Pn
TNSJ 64.000 1.00 Pn
# 2022 01 31 22 56 58.900000 35.038 49.288   9.4  2.8 0.0 0.0 0.0       157
HAGD  5.900 1.00 Pg
HAGD  9.300 1.00 Sg
HGHA 11.000 1.00 Pg
ILP6 20.000 1.00 Pg
SNQR 26.300 1.00 Pg
GZV  30.000 1.00 Pg
HSB  31.200 1.00 Pn
KKOM 31.800 1.00 Pn
SNJK 34.400 1.00 Pn
DMV  40.400 1.00 Pn
SFB  42.800 1.00 Pn
FIR  48.500 1.00 Pn
# 2022 02 01 19 27 36.600000 34.559 53.210   8.5  2.6 0.0 0.0 0.0       158
LAS  18.000 1.00 Pg
ANJ  21.700 1.00 Pg
FIR  22.300 1.00 Pg
VRN  25.700 1.00 Pg
DMV  27.800 1.00 Pg
ANAR 28.200 1.00 Pg
QOM  33.900 1.00 Pn
ZEF  34.200 1.00 Pn
KLH  35.300 1.00 Pn
# 2022 02 08 05 17 15.200000 36.468 52.058   8.5  3.1 0.0 0.0 0.0       159
PRN   6.600 1.00 Pg
MZPU  8.300 1.00 Pg
DMV  17.400 1.00 Pg
FIR  19.500 1.00 Pg
HSB  23.500 1.00 Pg
LAS  25.600 1.00 Pg
GLO  27.900 1.00 Pg
GZV  28.600 1.00 Pg
VRN  28.800 1.00 Pg
ILP6 31.600 1.00 Pn
FIR  33.200 1.00 Sg
GIDE 33.300 1.00 Pn
ANJ  34.100 1.00 Pn
QOM  35.000 1.00 Pg
HGHA 46.600 1.00 Pn
GZV  49.500 1.00 Sg
SHRO 53.400 1.00 Pn
MRVT 55.000 1.00 Pn
ANAR 58.000 0.00 Pn
TNSJ 71.100 0.00 Pn
SFR  75.600 0.00 Pn
# 2022 02 11 19 31 10.500000 36.077 53.599  11.0  2.6 0.0 0.0 0.0       160
GLO   9.700 1.00 Pg
ANJ  13.500 1.00 Pg
FIR  15.900 1.00 Pg
LAS  17.000 1.00 Pg
PRN  19.700 1.00 Pg
ANJ  22.800 1.00 Sg
DMV  26.100 1.00 Pg
VRN  34.500 1.00 Pn
SHRO 34.700 1.00 Pn
# 2022 02 11 19 32 45.000000 36.065 53.573  12.0  2.5 0.0 0.0 0.0       161
GLO   9.500 1.00 Pg
ANJ  13.200 1.00 Pg
FIR  15.700 1.00 Pg
LAS  17.000 1.00 Pg
GLO  18.000 1.00 Sg
PRN  19.600 1.00 Pg
ANJ  22.800 1.00 Sg
DMV  25.900 1.00 Pg
MZPU 30.700 1.00 Pg
VRN  34.300 1.00 Pn
SHRO 34.900 1.00 Pn
# 2022 02 21 08 32 47.800000 34.208 51.722   9.4  2.5 0.0 0.0 0.0       162
SFB   8.700 1.00 Pg
VRN  15.500 1.00 Pg
SFB  15.500 1.00 Sg
QOM  15.600 1.00 Pg
KLH  17.100 1.00 Pg
DMV  26.000 1.00 Pg
ZEF  26.200 1.00 Pn
QOM  27.500 1.00 Sg
LAS  29.200 1.00 Pn
KLH  30.000 1.00 Sg
ILP6 30.700 1.00 Pn
FIR  31.200 1.00 Pn
ANAR 35.400 1.00 Pn
# 2022 02 22 02 48 34.400000 35.803 52.835   8.0  3.2 0.0 0.0 0.0       163
FIR   3.900 1.00 Pg
LAS   8.900 1.00 Pg
PRN  12.000 1.00 Pg
DMV  14.000 1.00 Pg
LAS  15.500 1.00 Sg
ANJ  17.800 1.00 Pg
GLO  20.900 1.00 Pg
MZPU 23.200 1.00 Pg
VRN  23.700 1.00 Pg
DMV  24.500 1.00 Sg
HSB  25.800 1.00 Pg
QOM  32.200 1.00 Pn
GLO  36.300 1.00 Sg
ILP6 36.800 1.00 Pn
MND  43.200 1.00 Pn
HSB  43.600 1.00 Sg
SHRO 44.300 1.00 Pn
KLH  46.100 0.00 Pn
ANAR 46.500 1.00 Pn
ZEF  49.400 1.00 Pn
MRVT 53.000 1.00 Pn
HAGD 53.700 0.00 Pn
HGHA 53.900 1.00 Pn
TNSJ 58.500 0.00 Pn
TAPT 59.200 1.00 Pn
TSHB 60.000 0.00 Pn
JHBN 64.800 0.00 Pn
TPRV 67.000 0.00 Pn
SFR  69.400 1.00 Pn
KKOM 73.000 0.00 Pn
BAF  75.500 0.00 Pn
AKL  76.400 1.00 Pn
AFRZ 86.800 0.00 Pn
# 2022 02 22 09 08 46.700000 35.009 49.053  10.0  2.7 0.0 0.0 0.0       164
HAGD  5.500 1.00 Pg
HGHA 10.400 1.00 Pg
HGHA 19.300 1.00 Sg
BDRS 21.300 1.00 Pg
SNQR 24.400 1.00 Pg
GZV  33.400 1.00 Pg
# 2022 02 23 02 48 26.200000 34.210 51.701   8.0  3.7 0.0 0.0 0.0       165
SFB   9.400 1.00 Pg
VRN  16.100 1.00 Pg
QOM  16.300 1.00 Pg
KLH  17.900 1.00 Pg
HSB  24.600 1.00 Pg
DMV  26.400 1.00 Pg
ZEF  26.700 1.00 Pg
TEH  29.500 1.00 Pg
LAS  29.600 1.00 Pn
ILP6 31.100 1.00 Pg
FIR  31.600 1.00 Pn
PIR  31.700 1.00 Pg
ANAR 36.300 1.00 Pn
JHBN 38.700 0.00 Pn
HAGD 39.400 1.00 Pn
BRJ  42.000 0.00 Pn
HSB  42.600 1.00 Sg
GZV  43.300 0.00 Pn
KLNJ 53.200 0.00 Pn
KKOM 57.200 1.00 Pn
SHRO 63.200 0.00 Pn
TSHB 63.700 1.00 Pn
TNSJ 65.200 1.00 Pn
BAF  66.600 0.00 Pn
TPRV 68.400 1.00 Pn
TAPT 71.600 1.00 Pn
ILBA 72.300 1.00 Pn
DARN 75.000 1.00 Pn
MRVT 76.800 0.00 Pn
KRVR 78.200 0.00 Pn
GRMI 84.800 0.00 Pn
SFR  89.900 0.00 Pn
TEG  92.200 0.00 Pn
AFRZ 93.600 0.00 Pn
KOO  97.000 0.00 Pn
TBJM 107.900 0.00 Pn
# 2022 02 23 02 55 33.800000 34.206 51.725   8.0  3.2 0.0 0.0 0.0       166
SFB   8.900 1.00 Pg
SFB  15.400 1.00 Sg
VRN  15.700 1.00 Pg
QOM  15.900 1.00 Pg
KLH  17.300 1.00 Pg
HSB  24.200 1.00 Pg
DMV  26.000 1.00 Pg
ZEF  26.200 1.00 Pg
QOM  27.500 1.00 Sg
LAS  29.100 1.00 Pg
KLH  30.000 1.00 Sg
ILP6 30.400 1.00 Pn
FIR  31.100 1.00 Pg
PIR  31.300 1.00 Pg
ANAR 35.900 1.00 Pn
ANJ  39.100 1.00 Pn
HAGD 39.700 1.00 Pn
JHBN 40.200 0.00 Pn
HSB  42.300 1.00 Sg
GZV  43.500 0.00 Pn
RAM  43.600 0.00 Pn
BAF  66.300 1.00 Pn
# 2022 02 23 16 39 47.900000 34.206 51.709   8.0  2.8 0.0 0.0 0.0       167
SFB   8.700 1.00 Pg
VRN  15.800 1.00 Pg
QOM  16.000 1.00 Pg
KLH  17.400 1.00 Pg
HSB  23.800 1.00 Pg
ZEF  26.200 1.00 Pg
DMV  26.600 1.00 Pg
LAS  29.200 1.00 Pg
KLH  29.800 1.00 Sg
ILP6 30.200 1.00 Pg
PIR  31.000 1.00 Pg
FIR  31.100 1.00 Pg
ANAR 36.000 1.00 Pn
# 2022 02 28 04 29 00.800000 36.952 53.302  14.0  2.6 0.0 0.0 0.0       168
GLO  11.900 1.00 Pg
PRN  19.900 1.00 Pg
GLO  21.400 1.00 Sg
FIR  26.000 1.00 Pg
LAS  29.800 1.00 Pn
DMV  31.500 1.00 Pn
PRN  35.300 1.00 Sg
LAS  51.700 1.00 Sg
DMV  55.100 1.00 Sg
# 2022 03 01 11 29 44.600000 35.117 50.624  10.0  2.7 0.0 0.0 0.0       169
ILP6  8.500 1.00 Pg
QOM   9.200 1.00 Pg
HSB  12.700 1.00 Pg
VRN  17.900 1.00 Pg
DMV  23.400 1.00 Pg
HAGD 24.000 1.00 Pg
GZV  24.900 1.00 Pg
MZPU 29.100 1.00 Pg
# 2022 03 05 17 44 41.600000 36.121 54.000   8.0  2.8 0.0 0.0 0.0       170
GLO   7.800 1.00 Pg
ANJ  13.200 1.00 Pg
GLO  15.200 1.00 Sg
FIR  21.100 1.00 Pg
LAS  22.000 1.00 Pg
PRN  25.700 1.00 Pn
MND  28.700 1.00 Pn
DMV  31.600 1.00 Pn
MZPU 35.900 1.00 Pn
VRN  39.200 1.00 Pn
SFB  39.400 1.00 Pn
TAPT 48.700 1.00 Pn
ANAR 49.100 1.00 Pn
# 2022 03 10 02 58 31.400000 35.975 52.895   8.5  4.1 0.0 0.0 0.0       171
FIR   7.200 1.00 Pg
PRN  10.200 1.00 Pg
LAS  11.900 1.00 Pg
FIR  12.900 1.00 Sg
DMV  15.400 1.00 Pg
PRN  17.700 1.00 Sg
GLO  17.800 1.00 Pg
ANJ  18.300 1.00 Pg
MZPU 21.700 1.00 Pg
D011 22.400 1.00 Pg
TEH  23.300 1.00 Pg
VRN  25.800 1.00 Pg
HSB  26.600 1.00 Pg
DMV  26.900 1.00 Sg
ANJ  31.600 1.00 Sg
SFB  31.700 1.00 Pn
QOM  34.200 0.00 Pn
ILP6 37.300 1.00 Pn
MZPU 38.500 1.00 Sg
MND  40.800 1.00 Pn
SHRO 43.400 1.00 Pn
GIDE 44.100 1.00 Pn
ANAR 47.400 1.00 Pn
KLH  48.400 0.00 Pn
MRVT 50.400 1.00 Pn
ZEF  51.200 0.00 Pn
CSN1 55.400 1.00 Pn
TNSJ 58.500 0.00 Pn
TAPT 58.700 1.00 Pn
GAR  59.300 0.00 Pn
TSHB 59.400 0.00 Pn
RAM  66.100 0.00 Pn
SFR  67.400 1.00 Pn
TPRV 68.000 0.00 Pn
TAFT 68.600 0.00 Pn
SRB  72.900 0.00 Pn
HSH  74.300 0.00 Pn
EMG  76.200 0.00 Pn
BAF  76.200 1.00 Pn
HRS  80.000 0.00 Pn
KRVR 83.400 0.00 Pn
KRD  83.800 1.00 Pn
AFRZ 86.400 0.00 Pn
TEG  87.900 0.00 Pn
MYA  89.300 1.00 Pn
ILBA 90.800 0.00 Pn
JRKH 91.900 0.00 Pn
TBJM 93.000 1.00 Pn
KOO  93.800 0.00 Pn
MON  94.900 0.00 Pn
MRD  95.800 0.00 Pn
SHRT 98.500 0.00 Pn
DAH  100.200 0.00 Pn
KSHD 102.400 0.00 Pn
CHMN 109.100 0.00 Pn
NHDN 112.500 0.00 Pn
# 2022 03 11 03 52 08.300000 36.622 49.741   8.0  2.6 0.0 0.0 0.0       172
GIDE  7.000 1.00 Pg
ZNJK 16.100 1.00 Pg
ILP6 24.900 1.00 Pg
MZPU 28.000 1.00 Pg
QOM  37.700 1.00 Pn
DMV  38.500 1.00 Pn
ILP6 42.500 1.00 Sg
# 2022 03 18 16 17 08.300000 36.016 53.572   8.9  4.1 0.0 0.0 0.0       173
ANJ  12.300 1.00 Pg
FIR  14.900 1.00 Pg
LAS  15.800 1.00 Pg
PRN  19.600 1.00 Pg
ANJ  21.400 1.00 Sg
DMV  25.000 1.00 Pg
RDH  25.800 0.00 Pg
FIR  26.700 1.00 Sg
MZPU 31.200 1.00 Pn
VRN  34.000 1.00 Pg
MND  34.800 1.00 Pn
SHRO 35.400 1.00 Pn
SFB  35.800 1.00 Pn
QOM  41.500 0.00 Pn
DMV  44.500 1.00 Sg
ANAR 47.600 1.00 Pn
TAPT 51.500 1.00 Pn
GIDE 51.600 0.00 Pn
KLH  52.000 0.00 Pn
TNSJ 53.300 1.00 Pn
ZEF  53.300 1.00 Pn
TSHB 54.500 1.00 Pn
SFR  60.400 1.00 Pn
TPRV 63.400 0.00 Pn
ZNJK 63.900 1.00 Pn
AKL  66.900 1.00 Pn
TAFT 68.400 0.00 Pn
RAM  68.500 1.00 Pn
PAY  69.800 1.00 Pn
MOG  73.200 1.00 Pn
BAF  73.900 0.00 Pn
KRD  76.200 0.00 Pn
SRB  78.400 0.00 Pn
KRVR 79.800 0.00 Pn
AFRZ 80.100 1.00 Pn
MYA  81.800 0.00 Pn
TEG  82.000 0.00 Pn
TBJM 85.400 1.00 Pn
BAGH 86.300 0.00 Pn
KOO  88.100 0.00 Pn
MON  88.500 0.00 Pn
DAH  94.000 0.00 Pn
KSHD 98.900 0.00 Pn
NHDN 106.200 0.00 Pn
# 2022 03 22 12 04 20.400000 36.826 49.265   7.0  2.7 0.0 0.0 0.0       174
ZNJK  9.500 1.00 Pg
GIDE 10.500 1.00 Pg
CSN1 14.600 1.00 Pg
HGHA 25.200 1.00 Pn
GAS1 29.100 1.00 Pn
SRB  30.800 1.00 Pn
ILP6 30.900 1.00 Pn
GRMI 39.500 1.00 Pn
HRS  41.400 1.00 Pn
# 2022 03 24 01 46 37.900000 35.811 53.615   8.0  2.8 0.0 0.0 0.0       175
ANJ   8.700 1.00 Pg
LAS  13.800 1.00 Pg
FIR  14.000 1.00 Pg
GLO  14.000 1.00 Pg
ANJ  15.200 1.00 Sg
PRN  21.300 1.00 Pg
DMV  25.000 1.00 Pn
VRN  32.400 1.00 Pn
SFB  33.400 1.00 Pn
MZPU 33.400 1.00 Pn
SHRO 35.500 1.00 Pn
HSB  35.600 1.00 Pn
QOM  40.600 1.00 Pn
# 2022 03 24 12 01 53.300000 36.004 51.920   8.0  2.6 0.0 0.0 0.0       176
RDH   5.800 1.00 Pg
PRN   8.100 1.00 Pg
DMV   8.800 1.00 Pg
MZPU 10.400 1.00 Pg
FIR  14.900 1.00 Pg
HSB  15.200 1.00 Pg
LAS  19.800 1.00 Pg
VRN  20.000 1.00 Pg
ILP6 24.900 1.00 Pn
QOM  25.500 1.00 Pn
SFB  31.000 1.00 Pn
GLO  31.000 1.00 Pn
# 2022 03 26 06 57 19.000000 34.432 50.864   8.0  2.5 0.0 0.0 0.0       177
QOM   9.200 1.00 Pg
QOM  15.400 1.00 Sg
VRN  18.000 1.00 Pg
HSB  20.300 1.00 Pg
ILP6 20.800 1.00 Pg
SFB  22.200 1.00 Pg
KLH  24.700 1.00 Pg
DMV  28.000 1.00 Pn
HAGD 28.300 0.50 Pn
BDRS 32.500 1.00 Pn
HGHA 33.500 0.50 Pn
ZEF  37.000 0.50 Pn
MZPU 38.300 1.00 Pn
KLH  42.300 1.00 Sg
# 2022 03 31 21 58 34.000000 35.591 53.758   8.0  2.8 0.0 0.0 0.0       178
ANJ   5.400 1.00 Pg
ANJ   8.400 1.00 Sg
LAS  15.000 1.00 Pg
FIR  17.000 1.00 Pg
GLO  18.500 1.00 Pg
DMV  27.800 1.00 Pg
SFB  33.400 1.00 Pg
VRN  33.500 1.00 Pn
QOM  42.000 1.00 Pn
ANAR 42.600 1.00 Pn
# 2022 04 03 13 16 45.100000 37.946 49.077  25.7  2.6 0.0 0.0 0.0       179
CSN1  9.800 1.00 Pg
GAS1 11.600 1.00 Pg
GAS1 18.800 1.00 Sg
SRB  22.400 1.00 Pg
GRMI 24.700 1.00 Pg
ZNJK 25.500 1.00 Pg
HSH  29.800 1.00 Pn
HRS  30.800 1.00 Pn
MZPU 41.700 1.00 Pn
# 2022 04 05 10 19 07.700000 35.085 50.635   8.0  2.5 0.0 0.0 0.0       180
ILP6  8.400 1.00 Pg
QOM   9.000 1.00 Pg
HSB  12.900 1.00 Pg
ILP6 15.100 1.00 Sg
VRN  17.800 1.00 Pg
DMV  23.600 1.00 Pg
HAGD 24.100 1.00 Pg
SFB  27.900 1.00 Pg
MZPU 29.100 1.00 Pg
LAS  35.800 1.00 Pn
# 2022 04 06 09 25 42.900000 35.530 49.848   6.0  2.5 0.0 0.0 0.0       181
ILP6  9.700 1.00 Pg
ILP6 16.000 1.00 Sg
QOM  23.100 1.00 Pg
HGHA 27.700 1.00 Sg
VRN  30.600 1.00 Pn
MZPU 31.300 1.00 Pn
DMV  33.200 1.00 Pn
SFB  40.700 1.00 Pn
FIR  42.300 1.00 Pn
BDRS 60.600 1.00 Sg
# 2022 04 08 23 22 50.000000 36.120 53.071  10.0  2.7 0.0 0.0 0.0       182
FIR  10.500 1.00 Pg
PRN  11.900 1.00 Pg
GLO  14.200 1.00 Pg
LAS  14.400 1.00 Pg
ANJ  17.800 1.00 Pg
DMV  18.800 1.00 Pg
FIR  19.000 1.00 Sg
MZPU 23.700 1.00 Pg
VRN  29.400 1.00 Pn
HSB  29.800 1.00 Pg
# 2022 04 09 13 03 14.400000 34.208 51.340   8.0  2.8 0.0 0.0 0.0       183
QOM  13.400 1.00 Pg
SFB  15.200 1.00 Pg
VRN  17.200 1.00 Pg
KLH  18.400 1.00 Pg
QOM  23.300 1.00 Sg
SFB  25.800 1.00 Sg
ILP6 27.400 1.00 Pg
DMV  27.700 1.00 Pg
ZEF  29.400 1.00 Pg
KLH  30.800 1.00 Sg
LAS  32.700 1.00 Pn
FIR  34.000 1.00 Pn
GAR  36.600 1.00 Pg
PRN  39.600 1.00 Pn
ANAR 39.600 1.00 Pn
# 2022 04 15 05 14 27.500000 37.358 53.940  12.1  2.9 0.0 0.0 0.0       184
GLO  18.000 1.00 Pg
MND  23.000 1.00 Pg
GLO  30.600 1.00 Sg
PRN  31.600 1.00 Pn
ANJ  35.300 1.00 Pn
FIR  36.500 1.00 Pn
LAS  38.500 1.00 Pn
SHRO 38.500 1.00 Pn
DMV  42.200 1.00 Pn
# 2022 04 17 09 44 20.700000 35.187 49.753   8.0  3.7 0.0 0.0 0.0       185
ILP6 12.300 1.00 Pg
HAGD 12.700 1.00 Pg
HAGD 21.900 1.00 Sg
QOM  22.300 1.00 Pg
HSB  24.200 1.00 Pg
TEH  27.100 1.00 Pg
BDRS 27.300 1.00 Pg
HNVD 28.300 1.00 Pg
VRN  30.800 1.00 Pn
BZA  31.600 1.00 Pn
ZNJK 32.200 1.00 Pn
GIDE 32.300 1.00 Pn
RDH  34.200 0.00 Pn
DMV  35.200 1.00 Pn
MZPU 35.400 1.00 Pn
KKOM 38.600 0.00 Pn
PRN  42.200 0.00 Pn
FIR  44.200 0.00 Pn
LAS  45.400 1.00 Pn
SAQZ 52.300 1.00 Pn
GLO  58.600 0.00 Pn
HRS  61.100 1.00 Pn
GRMI 62.700 1.00 Pn
# 2022 04 17 10 48 42.000000 35.202 49.747   6.0  2.5 0.0 0.0 0.0       186
ILP6 13.500 1.00 Pg
HAGD 13.600 1.00 Pg
ILP6 22.100 1.00 Sg
QOM  23.700 0.50 Pg
BDRS 28.700 1.00 Pg
HNVD 29.500 1.00 Pg
MZPU 36.600 1.00 Pn
DMV  36.800 1.00 Pn
# 2022 04 18 14 13 01.000000 34.212 51.711   8.0  2.5 0.0 0.0 0.0       187
VRN  15.500 1.00 Pg
QOM  16.000 1.00 Pg
KLH  17.800 1.00 Pg
DMV  26.100 1.00 Pg
ZEF  26.700 1.00 Pg
QOM  27.500 1.00 Sg
LAS  29.400 1.00 Pg
KLH  30.300 1.00 Sg
FIR  31.500 1.00 Pn
# 2022 04 18 22 01 32.900000 36.240 53.180  19.8  3.7 0.0 0.0 0.0       188
GLO  11.900 1.00 Pg
FIR  13.100 1.00 Pg
PRN  13.100 1.00 Pg
LAS  16.700 1.00 Pg
ANJ  18.300 1.00 Pg
DMV  21.200 1.00 Pg
RDH  21.200 0.00 Pg
MZPU 24.100 1.00 Pg
LAS  29.600 1.00 Sg
VRN  31.100 1.00 Pg
HSB  32.000 1.00 Pg
MND  34.700 1.00 Pn
QOM  38.300 0.00 Pn
SHRO 39.400 1.00 Pn
ILP6 40.500 1.00 Pn
MZPU 43.200 1.00 Sg
GIDE 44.600 0.00 Pn
ANAR 49.600 0.00 Pn
KLH  51.600 0.00 Pn
ZEF  54.600 0.00 Pn
TAPT 55.400 1.00 Pn
HGHA 56.300 1.00 Pn
TNSJ 56.800 1.00 Pn
HAGD 57.900 0.00 Pn
TSHB 58.300 1.00 Pn
SFR  63.000 1.00 Pn
TKDS 64.700 1.00 Pn
TPRV 67.400 1.00 Pn
AKL  70.100 1.00 Pn
TAFT 70.500 0.00 Pn
EMG  71.300 0.00 Pn
SRB  72.500 0.00 Pn
PAY  72.500 0.00 Pn
ALIB 76.700 0.00 Pn
MOG  76.800 0.00 Pn
BAF  77.000 0.00 Pn
HRS  80.500 0.00 Pn
GBS  82.300 1.00 Pn
KRVR 83.200 0.00 Pn
AFRZ 84.500 0.00 Pn
MYA  84.700 0.00 Pn
TEG  86.000 0.00 Pn
SIZA 88.200 1.00 Pn
TBJM 88.400 1.00 Pn
KOO  92.000 0.00 Pn
MON  92.900 0.00 Pn
SHRT 95.400 0.00 Pn
KSHD 102.800 0.00 Pn
# 2022 04 18 22 31 10.500000 36.234 52.991   8.0  3.7 0.0 0.0 0.0       189
PRN  10.600 1.00 Pg
FIR  12.400 1.00 Pg
GLO  14.700 1.00 Pg
LAS  16.400 1.00 Pg
DMV  19.500 1.00 Pg
ANJ  20.100 1.00 Pg
FIR  21.900 1.00 Sg
MZPU 22.100 1.00 Pg
HSB  30.000 1.00 Pn
VRN  30.700 1.00 Pg
DMV  33.900 1.00 Sg
QOM  37.700 0.00 Pn
MND  37.800 1.00 Pn
ILP6 39.700 1.00 Pn
MZPU 40.700 0.00 Sg
LHJ2 41.500 0.00 Pn
SHRO 42.500 1.00 Pn
GIDE 43.400 1.00 Pn
ANAR 51.500 0.00 Pn
KLH  52.000 0.00 Pn
CSN1 54.400 0.00 Pn
ZEF  55.300 0.00 Pn
HAGD 56.500 0.00 Pn
TAPT 58.600 1.00 Pn
TNSJ 60.100 1.00 Pn
TSHB 61.600 1.00 Pn
SFR  65.700 1.00 Pn
TKDS 67.800 1.00 Pn
TPRV 69.800 1.00 Pn
RAM  70.200 0.00 Pn
SRB  71.100 0.00 Pn
GLBA 72.200 0.00 Pn
TAFT 72.200 1.00 Pn
AKL  72.900 1.00 Pn
GRMI 73.500 0.00 Pn
EMG  73.800 1.00 Pn
ALIB 76.300 1.00 Pn
BAF  78.900 0.00 Pn
HRS  79.600 0.00 Pn
GBS  82.200 1.00 Pn
AFRZ 87.400 0.00 Pn
TEG  88.700 0.00 Pn
KOO  95.300 0.00 Pn
MON  95.400 1.00 Pn
SHRT 98.300 1.00 Pn
NHDN 114.100 0.00 Pn
# 2022 04 23 00 46 15.300000 35.079 53.846  10.2  2.7 0.0 0.0 0.0       190
ANJ   9.100 1.00 Pg
ANJ  15.600 1.00 Sg
LAS  16.800 1.00 Pg
FIR  21.800 1.00 Pg
DMV  30.200 1.00 Pg
VRN  32.300 1.00 Pn
QOM  41.400 1.00 Pn
# 2022 04 26 18 54 56.900000 35.770 52.306   9.8  2.8 0.0 0.0 0.0       191
DMV   6.000 1.00 Pg
RDH   6.700 1.00 Pg
FIR   7.500 1.00 Pg
PRN   9.300 1.00 Pg
DMV  11.100 1.00 Sg
LAS  12.700 1.00 Pg
MZPU 17.100 1.00 Pg
HSB  17.400 1.00 Pg
VRN  17.700 1.00 Pg
ANJ  25.300 1.00 Pg
QOM  25.600 1.00 Pg
GLO  27.300 1.00 Pn
ILP6 28.500 1.00 Pg
