# 2022 04 27 18 12 47.400000 36.985 49.398   8.5  3.3 0.0 0.0 0.0       192
GIDE  9.000 1.00 Pg
LHJ2 11.100 1.00 Pg
ZNJK 12.200 1.00 Pg
CSN1 13.000 1.00 Pg
GAS1 26.700 1.00 Pn
SRB  29.400 1.00 Pn
ILP6 30.500 0.00 Pn
MZPU 33.500 1.00 Pn
GRMI 38.100 1.00 Pn
HSB  38.300 1.00 Pn
HRS  40.400 1.00 Pn
PRN  42.500 1.00 Pn
QOM  43.000 1.00 Pn
DMV  44.300 1.00 Pn
SAQZ 46.500 1.00 Pn
VRN  46.900 0.00 Pn
AZR  47.600 1.00 Pn
HNVD 47.900 1.00 Pn
MAHB 49.900 1.00 Pn
BDRS 50.500 1.00 Pn
FIR  51.900 0.00 Pn
SHB  54.000 1.00 Pn
GLO  58.100 0.00 Pn
KLH  64.800 1.00 Pn
ANAR 80.400 0.00 Pn
# 2022 05 01 08 46 14.700000 35.901 53.237   8.1  3.3 0.0 0.0 0.0       193
FIR   9.100 1.00 Pg
LAS  11.500 1.00 Pg
ANJ  13.700 1.00 Pg
GLO  14.800 1.00 Pg
PRN  15.100 1.00 Pg
FIR  16.300 1.00 Sg
DMV  19.700 1.00 Pg
GLO  26.000 1.00 Sg
MZPU 27.300 1.00 Pg
VRN  28.800 1.00 Pn
HSB  30.700 1.00 Pn
DMV  35.000 1.00 Sg
QOM  36.900 1.00 Pn
SHRO 39.700 1.00 Pn
ANAR 46.300 1.00 Pn
GIDE 48.500 1.00 Pn
MRVT 48.700 1.00 Pn
KLH  48.900 0.00 Pn
TAPT 54.800 1.00 Pn
TNSJ 55.100 1.00 Pn
TSHB 56.400 1.00 Pn
SFR  64.100 1.00 Pn
BAF  74.300 0.00 Pn
GRMI 79.100 0.00 Pn
AFRZ 82.700 0.00 Pn
KOO  90.700 0.00 Pn
DAH  96.600 0.00 Pn
# 2022 05 06 11 20 51.400000 34.230 50.437  10.2  2.5 0.0 0.0 0.0       194
QOM  15.800 1.00 Pg
ILP6 24.400 1.00 Pg
VRN  25.000 1.00 Pg
HGHA 33.100 1.00 Pn
DMV  34.500 1.00 Pn
ILP6 41.800 1.00 Sg
KLH  44.600 1.00 Sg
# 2022 05 09 21 11 30.500000 36.463 51.805   8.4  2.7 0.0 0.0 0.0       195
MZPU  4.200 1.00 Pg
MZPU  8.200 1.00 Sg
PRN   9.400 1.00 Pg
PRN  17.000 1.00 Sg
DMV  17.600 1.00 Pg
HSB  21.100 1.00 Pg
FIR  21.600 1.00 Pg
LAS  27.600 1.00 Pg
VRN  27.600 1.00 Pg
ILP6 27.900 1.00 Pg
GLO  30.100 1.00 Pn
DMV  30.800 1.00 Sg
QOM  31.900 1.00 Pn
ANJ  36.200 1.00 Pn
ILP6 49.300 1.00 Sg
# 2022 05 13 04 43 28.400000 35.907 53.079   8.0  3.6 0.0 0.0 0.0       196
FIR   8.000 1.00 Pg
LAS  11.200 1.00 Pg
FIR  13.400 1.00 Sg
PRN  13.700 1.00 Pg
ANJ  15.600 1.00 Pg
GLO  16.800 1.00 Pg
DMV  17.800 1.00 Pg
LAS  18.400 1.00 Sg
RDH  18.700 1.00 Pg
MZPU 25.500 1.00 Pg
TEH  26.900 1.00 Pg
VRN  27.500 1.00 Pg
HSB  29.400 1.00 Pg
DMV  30.800 1.00 Sg
QOM  35.900 1.00 Pn
ILP6 39.400 1.00 Pn
MND  40.100 1.00 Pn
SHRO 41.100 1.00 Pn
ANAR 46.600 1.00 Pn
GIDE 46.800 1.00 Pn
KLH  48.500 1.00 Pn
MRVT 49.400 1.00 Pn
ZEF  51.100 0.00 Pn
HAGD 56.400 0.00 Pn
TAPT 56.400 1.00 Pn
GAR  58.500 1.00 Pn
RAM  66.500 0.00 Pn
SFR  66.800 0.00 Pn
TAFT 68.000 1.00 Pn
HNVD 68.400 0.00 Pn
MEH  73.800 1.00 Pn
SRB  74.500 1.00 Pn
EMG  74.500 1.00 Pn
BAF  75.400 1.00 Pn
KKOM 76.600 0.00 Pn
GRMI 77.500 0.00 Pn
KLNJ 79.300 0.00 Pn
HRS  83.400 1.00 Pn
AFRZ 84.700 1.00 Pn
TEG  86.000 0.00 Pn
MON  93.200 0.00 Pn
# 2022 05 25 09 33 30.500000 36.168 49.157   9.4  3.4 0.0 0.0 0.0       197
GIDE 19.000 0.00 Pg
LHJ2 23.900 1.00 Pg
ILP6 24.500 1.00 Pg
HAGD 25.800 1.00 Pg
CSN1 26.400 1.00 Pg
SNQR 33.900 1.00 Pn
SNJK 34.000 1.00 Pn
HSH  34.100 1.00 Pn
MZPU 35.100 1.00 Pn
SRB  36.500 1.00 Pn
BZA  37.500 0.00 Pn
GAS1 38.900 1.00 Pn
SAQZ 42.200 1.00 Pn
ILP6 42.200 1.00 Sg
KKOM 42.400 1.00 Pn
HAGD 44.400 1.00 Sg
HRS  45.700 1.00 Pn
GRMI 47.500 1.00 Pn
# 2022 05 25 22 02 22.400000 37.824 49.101  20.2  3.4 0.0 0.0 0.0       198
CSN1  6.400 1.00 Pg
GAS1 11.800 1.00 Pg
GIDE 20.900 1.00 Pg
GAS1 21.100 1.00 Sg
SRB  21.500 1.00 Pg
GRMI 25.100 1.00 Pg
HSH  28.600 1.00 Pg
HRS  30.800 1.00 Pg
SRB  36.900 1.00 Sg
MZPU 39.200 1.00 Pn
ILP6 42.400 1.00 Pn
GRMI 44.500 1.00 Sg
SAQZ 45.900 1.00 Pn
MRD  46.000 1.00 Pn
SNJK 47.200 1.00 Pn
PRN  48.100 1.00 Pn
HSH  49.800 1.00 Sg
# 2022 05 27 12 03 11.900000 35.092 51.291  12.1  3.8 0.0 0.0 0.0       199
HSB   7.200 1.00 Pg
TEH  12.600 1.00 Pg
HSB  13.100 1.00 Sg
DMV  15.200 1.00 Pg
FIR  24.700 1.00 Pg
MZPU 25.500 1.00 Pg
LAS  26.200 1.00 Pg
PRN  26.900 1.00 Pg
DMV  27.100 1.00 Sg
KLH  31.800 1.00 Pn
GIDE 37.600 1.00 Pn
ANJ  38.100 1.00 Pn
BDRS 39.300 1.00 Pn
ZEF  40.900 1.00 Pn
FIR  43.400 1.00 Sg
LAS  46.000 0.00 Sg
ANAR 46.100 1.00 Pn
PRN  47.200 1.00 Sg
SNQR 49.800 1.00 Pn
KKOM 52.900 1.00 Pn
SNJK 55.800 1.00 Pn
SAD  60.700 0.00 Pn
HSH  61.200 0.00 Pn
SRB  63.000 1.00 Pn
GHG  63.200 1.00 Pn
KLNJ 64.900 0.00 Pn
TAFT 65.000 0.00 Pn
ILBA 68.900 1.00 Pn
TSHB 70.000 1.00 Pn
MRVT 71.400 0.00 Pn
HRS  72.100 1.00 Pn
TAPT 74.400 1.00 Pn
BAF  77.500 0.00 Pn
KANR 82.900 0.00 Pn
TEG  99.400 0.00 Pn
AFRZ 99.700 0.00 Pn
KOO  104.300 1.00 Pn
# 2022 05 29 09 52 30.200000 35.601 49.048  11.7  2.8 0.0 0.0 0.0       200
HAGD 16.400 1.00 Pg
SNQR 27.500 1.00 Pn
SNJK 30.600 1.00 Pn
BDRS 31.400 1.00 Pn
KKOM 35.900 1.00 Pn
MZPU 39.500 1.00 Pn
DMV  43.000 1.00 Pn
SRB  43.800 1.00 Pn
# 2022 05 30 16 42 57.100000 37.054 49.004   8.0  4.0 0.0 0.0 0.0       201
CSN1 11.100 1.00 Pg
GIDE 14.100 1.00 Pg
LHJ2 16.500 1.00 Pg
CSN1 18.600 1.00 Sg
SRB  25.000 1.00 Pn
GAS1 25.300 1.00 Pg
HSH  26.000 1.00 Pn
GRMI 35.800 1.00 Pn
HRS  36.200 1.00 Pn
MZPU 37.800 1.00 Pn
HAGD 39.300 1.00 Pn
SNJK 39.500 1.00 Pn
TEHA 40.800 1.00 Pn
SAQZ 41.500 1.00 Pn
HSB  42.600 1.00 Pn
SNQR 43.100 1.00 Pn
GAS1 44.200 1.00 Sg
PRN  47.000 1.00 Pn
DMV  48.400 1.00 Pn
SHB  50.000 1.00 Pn
MRD  51.700 0.00 Pn
BDRS 52.100 1.00 Pn
DHR  53.000 1.00 Pn
FIR  55.200 0.00 Pn
GLO  62.600 0.00 Pn
ILBA 65.500 0.00 Pn
MAKU 65.500 0.00 Pn
ANAR 84.800 0.00 Pn
SFR  107.500 0.00 Pn
# 2022 06 01 21 22 54.800000 35.768 49.147  10.0  2.8 0.0 0.0 0.0       202
ZNJK 18.500 1.00 Pg
SNQR 29.100 1.00 Pn
HNVD 30.400 1.00 Pg
SNJK 32.200 1.00 Pn
HSB  32.900 1.00 Pn
QOM  33.400 1.00 Pn
VRN  39.100 1.00 Pn
# 2022 06 04 11 47 15.400000 36.717 53.896   8.0  4.1 0.0 0.0 0.0       203
GLO   4.900 1.00 Pg
ANJ  24.000 1.00 Pg
MND  24.700 1.00 Pg
PRN  25.600 1.00 Pg
FIR  27.300 1.00 Pg
LAS  29.200 1.00 Pg
MRVT 34.600 0.00 Pn
MZPU 35.100 1.00 Pn
DMV  35.600 1.00 Pn
ANJ  42.400 1.00 Sg
VRN  43.300 1.00 Pn
PRN  46.100 1.00 Sg
QOM  50.400 0.00 Pn
LAS  50.800 1.00 Sg
TAPT 53.400 1.00 Pn
SFR  54.400 1.00 Pn
ANAR 57.200 0.00 Pn
TSHB 59.500 1.00 Pn
QABG 60.800 0.00 Pn
KLH  62.900 0.00 Pn
AKL  63.100 0.00 Pn
ZEF  64.500 1.00 Pn
PAY  64.700 1.00 Pn
TKDS 64.900 1.00 Pn
KRD  71.700 1.00 Pn
GAR  71.900 0.00 Pn
SAD  75.000 0.00 Pn
TAFT 78.000 0.00 Pn
SRB  78.500 1.00 Pn
RAM  79.900 0.00 Pn
HSH  81.900 1.00 Pn
BAF  82.000 1.00 Pn
MEH  82.500 1.00 Pn
AFRZ 83.300 0.00 Pn
TBJM 83.500 1.00 Pn
BZA  84.100 0.00 Pn
HRS  86.100 0.00 Pn
KRVR 86.400 0.00 Pn
KOO  92.400 0.00 Pn
SHRT 92.400 1.00 Pn
SAQZ 95.700 0.00 Pn
DAH  96.300 0.00 Pn
BSRN 97.000 0.00 Pn
DHR  98.600 0.00 Pn
MRD  103.200 0.00 Pn
ILBA 105.600 0.00 Pn
KSHD 105.900 0.00 Pn
# 2022 06 04 13 03 18.500000 36.720 53.939   8.0  2.7 0.0 0.0 0.0       204
GLO   6.100 1.00 Pg
GLO   9.800 1.00 Sg
MND  25.400 1.00 Pg
ANJ  25.600 1.00 Pg
PRN  27.200 1.00 Pg
FIR  28.800 1.00 Pg
LAS  30.800 1.00 Pn
SHRO 34.500 1.00 Pn
MZPU 36.400 1.00 Pn
DMV  36.900 1.00 Pn
MRVT 37.400 1.00 Pg
# 2022 06 07 15 02 03.500000 37.619 49.121  15.9  2.7 0.0 0.0 0.0       205
CSN1  4.500 1.00 Pg
GAS1 16.100 1.00 Pg
GIDE 18.500 1.00 Pg
GAS1 28.200 1.00 Sg
HSH  29.100 1.00 Pg
HRS  33.100 1.00 Pn
QABG 36.100 1.00 Pn
MRD  49.600 1.00 Pn
# 2022 06 10 23 57 03.000000 34.219 51.720   6.0  3.1 0.0 0.0 0.0       206
VRN  16.900 1.00 Pg
QOM  17.200 1.00 Pg
KLH  18.700 1.00 Pg
HSB  25.300 1.00 Pg
DMV  27.300 1.00 Pg
ZEF  27.600 1.00 Pg
QOM  28.200 1.00 Sg
LAS  30.300 1.00 Pn
KLH  31.300 1.00 Sg
FIR  32.400 1.00 Pg
GAR  35.200 1.00 Pn
ANAR 37.200 1.00 Pn
JHBN 41.100 0.00 Pn
MZPU 41.200 0.00 Pn
ZNGN 41.200 1.00 Pn
QABG 42.300 1.00 Pn
BRJ  43.200 0.00 Pn
HSB  43.400 1.00 Sg
HNVD 49.600 1.00 Pn
TAFT 54.800 1.00 Pn
SNQR 57.600 1.00 Pn
TNSJ 64.400 1.00 Pn
SNJK 66.500 0.00 Pn
BAF  67.100 1.00 Pn
TAPT 72.200 1.00 Pn
TKDS 72.500 1.00 Pn
# 2022 06 13 18 24 46.700000 34.199 51.709  10.0  2.9 0.0 0.0 0.0       207
VRN  15.600 1.00 Pg
QOM  15.700 1.00 Pg
KLH  17.400 1.00 Pg
HSB  24.000 1.00 Pg
DMV  25.800 1.00 Pg
ZEF  26.300 1.00 Pg
VRN  27.500 1.00 Sg
LAS  29.200 1.00 Pg
FIR  31.000 1.00 Pg
GAR  33.800 1.00 Pg
ANAR 35.600 1.00 Pn
HSB  41.600 1.00 Sg
# 2022 06 14 15 30 19.900000 36.684 49.702   8.6  4.6 0.0 0.0 0.0       208
GIDE  6.800 1.00 Pg
GIDE 10.500 1.00 Sg
LHJ2 11.800 1.00 Pg
QABG 18.600 1.00 Pg
CSN1 19.700 1.00 Pg
MZPU 28.400 1.00 Pg
TEH  30.600 1.00 Pn
TEHA 30.700 1.00 Pn
D011 31.100 1.00 Pn
GAS1 32.000 0.00 Pn
HSB  32.400 1.00 Pn
CSN1 33.500 1.00 Sg
HSH  36.200 1.00 Pn
SRB  36.700 1.00 Pn
QOM  37.800 1.00 Pn
PRN  38.800 1.00 Pn
DMV  39.300 0.00 Pn
VRN  40.900 0.00 Pn
SNJK 42.300 1.00 Pn
GRMI 43.100 1.00 Pn
SNQR 43.300 1.00 Pn
HNVD 45.100 1.00 Pn
HRS  45.500 1.00 Pn
BZA  46.300 0.00 Pn
FIR  46.300 0.00 Pn
SAQZ 47.600 1.00 Pn
BDRS 47.900 1.00 Pn
LAS  49.700 0.00 Pn
MAHB 52.900 1.00 Pn
KCHF 53.600 0.00 Pn
GLO  54.000 1.00 Pn
ANJ  58.900 0.00 Pn
SHB  59.000 1.00 Pn
KLH  60.400 0.00 Pn
MRD  61.000 0.00 Pn
ILBA 66.100 0.00 Pn
ZEF  68.900 0.00 Pn
MND  69.300 0.00 Pn
JHBN 71.300 1.00 Pn
ZNGN 73.100 0.00 Pn
GAR  74.400 0.00 Pn
MAKU 75.100 0.00 Pn
ANAR 75.200 0.00 Pn
SAD  88.800 0.00 Pn
TAFT 93.800 0.00 Pn
TNSJ 94.900 0.00 Pn
TSHB 95.200 0.00 Pn
TAPT 95.700 0.00 Pn
SFR  99.500 0.00 Pn
MEH  101.200 0.00 Pn
TPRV 102.200 0.00 Pn
TKDS 102.500 0.00 Pn
BAF  105.700 0.00 Pn
AKL  108.600 0.00 Pn
PAY  111.300 0.00 Pn
KANR 111.400 0.00 Pn
MOG  115.300 0.00 Pn
KRD  116.500 0.00 Pn
AFRZ 123.300 0.00 Pn
TEG  123.500 0.00 Pn
MYA  123.600 0.00 Pn
JRKH 127.000 0.00 Pn
TBJM 128.300 0.00 Pn
MON  131.700 0.00 Pn
BSRN 134.100 0.00 Pn
SHRT 134.900 0.00 Pn
DAH  136.400 0.00 Pn
# 2022 06 14 15 39 17.400000 36.654 49.677   6.9  3.3 0.0 0.0 0.0       209
GIDE  7.000 1.00 Pg
LHJ2  9.900 0.00 Pg
GIDE 11.700 1.00 Sg
QABG 18.300 1.00 Pg
CSN1 20.100 1.00 Pg
MZPU 28.700 1.00 Pn
TEH  31.000 1.00 Pn
D011 31.300 1.00 Pn
HSB  32.500 1.00 Pn
CSN1 34.600 1.00 Sg
SRB  36.800 1.00 Pn
HSH  37.600 1.00 Pn
QOM  38.500 1.00 Pn
PRN  38.800 1.00 Pn
VRN  42.200 0.00 Pn
HRS  45.800 1.00 Pn
# 2022 06 14 16 54 46.900000 34.221 51.691   8.0  2.5 0.0 0.0 0.0       210
VRN  14.900 1.00 Pg
QOM  15.200 1.00 Pg
KLH  17.400 1.00 Pg
HSB  23.000 1.00 Pg
DMV  25.700 1.00 Pg
VRN  26.900 1.00 Sg
LAS  28.900 1.00 Pg
KLH  30.300 1.00 Sg
FIR  30.800 1.00 Pg
ANAR 36.400 1.00 Pn
QABG 40.300 1.00 Pn
HSB  41.100 1.00 Sg
# 2022 06 14 22 36 32.800000 35.617 50.843  25.5  2.7 0.0 0.0 0.0       211
D221  7.500 1.00 Pg
HSB   8.900 1.00 Pg
TEHA  9.800 1.00 Pg
TEH   9.900 1.00 Pg
D011 11.300 1.00 Pg
HSB  15.000 1.00 Sg
QOM  15.300 1.00 Pg
VRN  18.400 1.00 Pg
DMV  18.500 1.00 Pg
QABG 19.300 1.00 Pg
MZPU 19.300 1.00 Pg
PRN  25.200 1.00 Pg
QOM  26.500 1.00 Sg
DMV  31.900 1.00 Sg
# 2022 06 21 03 49 00.400000 37.468 50.446   8.9  3.6 0.0 0.0 0.0       212
LHJ2  9.800 1.00 Pg
GIDE 14.700 1.00 Pg
CSN1 21.300 1.00 Pg
MZPU 27.100 1.00 Pg
GAS1 29.700 1.00 Pg
TEHA 35.600 1.00 Pn
PRN  36.100 1.00 Pn
HSB  38.700 1.00 Pn
SRB  40.200 1.00 Pn
DMV  41.300 0.00 Pn
GLBA 42.000 0.00 Pn
GRMI 42.300 1.00 Pn
HSH  44.800 1.00 Pn
FIR  46.000 0.00 Pn
VRN  46.500 0.00 Pn
HRS  48.200 1.00 Pn
LAS  49.500 0.00 Pn
SNJK 55.700 0.00 Pn
SNQR 57.200 1.00 Pn
HNVD 58.900 1.00 Pn
PQL  59.800 1.00 Pn
BDRS 61.100 1.00 Pn
SIZA 62.500 1.00 Pn
KKOM 66.100 0.00 Pn
KLH  68.500 0.00 Pn
MRVT 70.500 1.00 Pn
ZEF  76.200 0.00 Pn
ANAR 78.700 0.00 Pn
# 2022 06 26 16 48 57.300000 37.520 49.714   8.3  2.6 0.0 0.0 0.0       213
CSN1  9.900 1.00 Pg
GIDE 12.200 1.00 Pg
GAS1 21.400 1.00 Pg
ZNJK 22.800 1.00 Pg
SRB  30.400 1.00 Pn
GRMI 34.800 1.00 Pn
HRS  40.300 1.00 Pn
# 2022 06 26 23 50 17.700000 35.379 53.249  11.3  3.5 0.0 0.0 0.0       214
LAS   5.400 1.00 Pg
FIR   9.700 1.00 Pg
ANJ  10.300 1.00 Pg
FIR  17.200 1.00 Sg
DMV  19.500 1.00 Pg
PRN  21.900 1.00 Pg
GLO  23.700 1.00 Pg
VRN  24.900 1.00 Pg
TEHA 29.700 0.00 Pg
TEH  29.900 1.00 Pg
HSB  30.200 1.00 Pg
MZPU 32.800 0.00 Pn
QOM  33.900 1.00 Pn
ANAR 38.700 1.00 Pn
KLH  42.400 1.00 Pn
VRN  43.800 1.00 Sg
ZEF  43.900 1.00 Pn
TNSJ 50.600 1.00 Pn
HSB  51.900 1.00 Sg
TAPT 52.400 1.00 Pn
MRVT 52.600 1.00 Pn
TKDS 58.300 1.00 Pn
TAFT 59.300 1.00 Pn
MEH  66.000 1.00 Pn
SFR  66.400 1.00 Pn
BAF  67.400 1.00 Pn
KKHK 71.100 0.00 Pn
AFRZ 79.300 0.00 Pn
TEG  80.100 1.00 Pn
KOO  85.800 1.00 Pn
TBJM 88.300 1.00 Pn
BSRN 90.700 1.00 Pn
NHDN 103.800 1.00 Pn
# 2022 06 28 18 21 14.300000 35.355 52.547   6.8  2.6 0.0 0.0 0.0       215
FIR   8.100 1.00 Pg
LAS   8.500 1.00 Pg
DMV  10.700 1.00 Pg
FIR  13.500 1.00 Sg
VRN  16.100 1.00 Pg
PRN  18.500 1.00 Pg
ANJ  22.000 1.00 Pg
QOM  25.300 1.00 Pg
MZPU 26.900 1.00 Pg
GLO  30.700 1.00 Pn
# 2022 07 02 03 13 46.800000 37.059 50.608  10.1  2.9 0.0 0.0 0.0       216
GIDE 11.600 1.00 Pg
MZPU 19.500 1.00 Pg
PRN  29.200 1.00 Pn
MZPU 32.900 1.00 Sg
DMV  34.400 1.00 Pn
GAS1 34.700 1.00 Pn
FIR  39.800 1.00 Pn
SRB  42.900 1.00 Pn
HSH  44.900 1.00 Pn
GLO  45.100 1.00 Pn
# 2022 07 03 14 05 33.300000 37.359 50.301  12.0  4.2 0.0 0.0 0.0       217
LHJ2  6.500 1.00 Pg
CSN1 19.300 1.00 Pg
MZPU 26.400 1.00 Pg
GAS1 28.200 1.00 Pg
TEH  33.400 1.00 Pn
TEHA 33.500 0.00 Pn
D011 33.600 0.00 Pn
PRN  35.500 1.00 Pn
HSB  36.700 1.00 Pn
SRB  37.100 1.00 Pn
DMV  40.300 0.00 Pn
QOM  43.200 1.00 Pn
MZPU 44.200 1.00 Sg
VRN  44.400 1.00 Pn
HRS  45.400 1.00 Pn
FIR  45.500 0.00 Pn
LAS  49.600 0.00 Pn
GLO  50.200 0.00 Pn
SNQR 53.600 1.00 Pn
HNVD 55.100 1.00 Pn
BZA  56.500 1.00 Pn
ANJ  57.300 0.00 Pn
BDRS 57.600 1.00 Pn
SHB  61.200 0.00 Pn
KKOM 61.400 0.00 Pn
MRD  61.800 0.00 Pn
MND  64.400 1.00 Pn
KLH  65.900 0.00 Pn
MRVT 72.000 1.00 Pn
ANAR 78.100 0.00 Pn
EMG  101.300 0.00 Pn
AKL  103.200 0.00 Pn
KRD  111.500 0.00 Pn
MYA  118.900 0.00 Pn
# 2022 07 09 10 07 43.100000 36.607 49.879   8.3  3.2 0.0 0.0 0.0       218
GIDE  7.300 1.00 Pg
LHJ2 12.400 1.00 Pg
MZPU 26.600 1.00 Pg
TEH  28.900 1.00 Pg
HAGD 35.100 1.00 Pn
QOM  37.000 1.00 Pn
PRN  37.900 1.00 Pn
DMV  38.000 1.00 Pn
SRB  39.800 1.00 Pn
HSH  39.900 1.00 Pn
VRN  39.900 1.00 Pn
SNQR 44.900 1.00 Pn
GRMI 46.100 1.00 Pn
# 2022 07 11 15 56 09.000000 36.035 51.606   7.6  3.4 0.0 0.0 0.0       219
TEH   7.500 1.00 Pg
TEHA  7.600 0.00 Pg
RDH   7.900 1.00 Pg
MZPU  8.300 1.00 Pg
DMV  11.600 1.00 Pg
TEH  12.300 1.00 Sg
PRN  12.500 1.00 Pg
MZPU 14.200 1.00 Sg
FIR  19.700 1.00 Pg
VRN  20.400 1.00 Pg
PRN  22.000 1.00 Sg
QOM  24.100 1.00 Pg
LAS  24.700 1.00 Pg
GIDE 31.000 1.00 Pn
VRN  34.900 1.00 Sg
GLO  34.900 1.00 Pn
ANJ  36.600 0.00 Pn
HAGD 42.000 1.00 Pn
KLH  47.700 0.00 Pn
ZEF  52.000 0.00 Pn
SNQR 55.600 1.00 Pn
SRB  58.700 1.00 Pn
SNJK 60.100 1.00 Pn
HSH  60.400 1.00 Pn
MRVT 63.000 1.00 Pn
GRMI 63.900 1.00 Pn
TAPT 74.000 0.00 Pn
TPRV 80.300 0.00 Pn
TKDS 80.500 0.00 Pn
MEH  82.200 0.00 Pn
# 2022 07 12 16 03 58.500000 35.843 52.932  10.0  2.7 0.0 0.0 0.0       220
FIR   5.300 1.00 Pg
LAS   9.500 1.00 Pg
FIR  10.100 1.00 Sg
PRN  12.400 1.00 Pg
DMV  15.100 1.00 Pg
ANJ  17.000 1.00 Pg
GLO  19.500 1.00 Pg
VRN  25.200 1.00 Pg
# 2022 07 13 04 56 11.100000 36.750 52.810  24.0  2.5 0.0 0.0 0.0       221
PRN  12.700 1.00 Pg
GLO  16.500 1.00 Pg
MZPU 19.800 1.00 Pg
FIR  20.700 1.00 Pg
PRN  22.300 1.00 Sg
DMV  24.900 1.00 Pg
LAS  25.000 1.00 Pg
GLO  29.100 1.00 Sg
VRN  33.400 1.00 Pn
# 2022 07 20 20 06 36.500000 34.208 51.757   8.0  2.7 0.0 0.0 0.0       222
VRN  16.100 1.00 Pg
QOM  16.500 1.00 Pg
KLH  17.800 1.00 Pg
DMV  26.400 1.00 Pg
ZEF  27.000 1.00 Pg
LAS  29.600 1.00 Pg
KLH  30.400 1.00 Sg
FIR  31.400 1.00 Pg
GAR  34.300 1.00 Pn
# 2022 07 24 00 50 16.500000 36.461 53.871   7.6  3.8 0.0 0.0 0.0       223
GLO   2.600 1.00 Pg
ANJ  19.200 1.00 Pg
FIR  23.000 1.00 Pg
PRN  24.500 1.00 Pg
LAS  24.800 1.00 Pg
MND  26.800 1.00 Pg
DMV  32.300 1.00 Pn
ANJ  33.600 1.00 Sg
MZPU 34.500 1.00 Pn
MRVT 37.500 1.00 Pn
VRN  40.700 0.00 Pn
QOM  47.800 0.00 Pn
TAPT 51.200 1.00 Pn
GIDE 53.300 1.00 Pn
SFR  56.000 1.00 Pn
KLH  59.200 0.00 Pn
PAY  66.200 1.00 Pn
GAS1 69.700 1.00 Pn
SAD  71.400 1.00 Pn
BAF  78.500 1.00 Pn
MEH  79.700 1.00 Pn
GRMI 81.000 1.00 Pn
KANR 86.900 1.00 Pn
# 2022 07 25 14 38 14.800000 35.215 53.264   4.4  3.6 0.0 0.0 0.0       224
LAS   7.100 1.00 Pg
ANJ  12.100 1.00 Pg
FIR  12.600 1.00 Pg
ANJ  20.100 1.00 Sg
FIR  20.200 1.00 Sg
DMV  21.300 1.00 Pg
PRN  24.700 1.00 Pg
VRN  24.700 1.00 Pg
GLO  26.800 1.00 Pg
TEHA 31.100 0.00 Pg
TEH  31.300 0.00 Pg
QOM  34.100 0.00 Pn
MZPU 35.200 0.00 Pn
DMV  36.200 1.00 Sg
KLH  41.900 1.00 Pn
ZEF  42.900 1.00 Pn
MND  46.600 1.00 Pn
GLO  46.700 1.00 Sg
TNSJ 50.300 0.00 Pn
TSHB 51.100 1.00 Pn
TAPT 52.900 1.00 Pn
MRVT 55.100 1.00 Pn
SAD  55.200 1.00 Pn
HAGD 56.500 1.00 Pn
TPRV 58.400 1.00 Pn
TKDS 58.600 1.00 Pn
HGHA 59.100 1.00 Pn
ZNGN 60.700 1.00 Pn
JHBN 60.800 0.00 Pn
MEH  64.700 1.00 Pn
BAF  66.100 1.00 Pn
SFR  68.500 1.00 Pn
KANR 73.200 0.00 Pn
SNQR 74.000 1.00 Pn
BAGH 84.000 0.00 Pn
KOO  85.800 0.00 Pn
MON  88.300 0.00 Pn
BSRN 90.000 0.00 Pn
DAH  92.700 0.00 Pn
# 2022 07 29 06 17 51.600000 35.574 50.098  10.0  2.5 0.0 0.0 0.0       225
HGHA 19.100 1.00 Pg
QOM  19.900 1.00 Pg
VRN  28.100 1.00 Pg
DMV  30.600 1.00 Pg
BDRS 35.200 1.00 Pn
HNVD 36.200 1.00 Pn
# 2022 08 08 02 44 14.000000 36.301 52.224  10.0  2.5 0.0 0.0 0.0       226
PRN   3.600 1.00 Pg
MZPU 10.700 1.00 Pg
DMV  14.700 1.00 Pg
FIR  15.700 1.00 Pg
MZPU 19.500 1.00 Sg
LAS  21.200 1.00 Pg
GLO  25.200 1.00 Pg
DMV  25.600 1.00 Sg
ANJ  30.300 1.00 Pg
# 2022 08 12 18 21 14.100000 37.600 49.146  20.2  4.3 0.0 0.0 0.0       227
CSN1  3.600 1.00 Pg
CSN1  6.300 1.00 Sg
GIDE 17.200 1.00 Pg
SRB  21.900 1.00 Pg
YRD  27.300 1.00 Pg
GRMI 28.200 1.00 Pg
GIDE 30.100 1.00 Sg
GLBA 30.600 1.00 Pn
HRS  32.100 1.00 Pn
MZPU 37.100 1.00 Pn
SRB  37.400 0.00 Sg
AZR  41.500 1.00 Pn
TEHA 42.500 1.00 Pn
SNJK 43.700 1.00 Pn
MAHB 45.900 1.00 Pn
PRN  46.300 1.00 Pn
SNQR 48.100 1.00 Pn
MRD  48.100 0.00 Pn
GRMI 48.900 1.00 Sg
DMV  49.300 1.00 Pn
QOM  49.300 0.00 Pn
SDS1 52.000 1.00 Pn
VRN  52.600 1.00 Pn
DHR  56.800 1.00 Pn
BDRS 57.300 1.00 Pn
KKOM 57.900 0.00 Pn
LAS  59.400 0.00 Pn
GLO  60.200 1.00 Pn
GHG  60.500 0.00 Pn
MAKU 61.400 0.00 Pn
ANJ  67.600 0.00 Pn
ILBA 69.700 0.00 Pn
KLH  71.900 1.00 Pn
MND  74.000 0.00 Pn
ZEF  81.200 0.00 Pn
MRVT 81.400 0.00 Pn
JHBN 82.500 0.00 Pn
ZNGN 84.500 1.00 Pn
GAR  86.300 0.00 Pn
RAM  95.100 0.00 Pn
KLNJ 102.400 0.00 Pn
# 2022 08 13 01 08 53.600000 35.253 52.330  10.6  2.8 0.0 0.0 0.0       228
DMV   8.000 1.00 Pg
FIR   9.900 1.00 Pg
LAS  10.500 1.00 Pg
VRN  11.500 1.00 Pg
LAS  18.600 1.00 Sg
PRN  19.300 1.00 Pg
QOM  20.900 1.00 Pg
ANJ  24.100 1.00 Pg
MZPU 25.000 1.00 Pg
GLO  33.200 1.00 Pg
KLH  36.300 1.00 Pn
# 2022 08 16 23 21 12.800000 36.583 52.010   8.4  2.8 0.0 0.0 0.0       229
MZPU  8.200 1.00 Pg
PRN   9.200 1.00 Pg
DMV  19.900 1.00 Pg
FIR  21.700 1.00 Pg
LAS  27.000 1.00 Pn
GLO  27.600 1.00 Pg
VRN  30.000 1.00 Pn
TEHA 32.600 1.00 Sg
ANJ  34.700 1.00 Pn
QOM  34.900 1.00 Pn
# 2022 08 25 20 18 09.500000 36.615 51.193   7.8  2.5 0.0 0.0 0.0       230
MZPU  7.400 1.00 Pg
PRN  19.100 1.00 Pg
GIDE 20.900 1.00 Pg
DMV  24.100 1.00 Pg
FIR  30.400 1.00 Pg
VRN  31.700 1.00 Pn
QOM  32.100 1.00 Pn
# 2022 08 28 05 20 00.200000 36.206 52.534  22.8  3.6 0.0 0.0 0.0       231
PRN   4.500 1.00 Pg
FIR  11.500 1.00 Pg
RDH  13.300 1.00 Pg
DMV  14.500 1.00 Pg
LAS  17.100 1.00 Pg
GLO  19.800 1.00 Pg
TEH  19.900 1.00 Pg
FIR  20.400 1.00 Sg
RDH  23.300 1.00 Sg
DMV  25.000 1.00 Sg
ANJ  25.000 1.00 Pg
VRN  25.800 1.00 Pg
LAS  30.100 1.00 Sg
QOM  31.900 1.00 Pn
TEH  34.300 1.00 Sg
GLO  37.100 1.00 Sg
MND  40.600 1.00 Pn
ANJ  42.900 1.00 Sg
KLH  48.500 0.00 Pn
HAGD 50.400 1.00 Pn
ZEF  52.700 0.00 Pn
BDRS 59.800 0.00 Pn
TAPT 61.800 1.00 Pn
TNSJ 62.200 0.00 Pn
SRB  65.900 1.00 Pn
RAM  68.200 0.00 Pn
SFR  69.000 1.00 Pn
SLJL 69.400 1.00 Pn
TKDS 70.100 0.00 Pn
TPRV 71.600 0.00 Pn
HRS  73.500 1.00 Pn
AKL  76.800 1.00 Pn
MEH  77.100 0.00 Pn
BAF  79.400 0.00 Pn
KANR 86.700 0.00 Pn
AFRZ 90.100 0.00 Pn
# 2022 08 28 07 35 01.100000 36.190 52.548  15.3  3.4 0.0 0.0 0.0       232
PRN   4.400 1.00 Pg
PRN   7.600 1.00 Sg
FIR  11.500 1.00 Pg
RDH  13.300 1.00 Pg
DMV  14.500 1.00 Pg
LAS  17.000 1.00 Pg
FIR  19.500 1.00 Sg
TEH  20.200 1.00 Pg
GLO  20.600 1.00 Pg
ANJ  24.900 1.00 Pg
DMV  25.100 1.00 Sg
VRN  25.800 1.00 Pg
LAS  29.300 1.00 Sg
QOM  32.400 1.00 Pn
TEH  34.300 1.00 Sg
GLO  36.100 1.00 Sg
ANJ  43.000 1.00 Sg
KLH  48.700 0.00 Pn
ZEF  52.800 0.00 Pn
TAPT 61.900 0.00 Pn
SLJL 69.400 0.00 Pn
SFR  69.400 1.00 Pn
TKDS 70.000 0.00 Pn
AFRZ 89.800 0.00 Pn
KOO  97.200 0.00 Pn
