# 2018 02 11 04 50 23.400000 35.335 52.335  10.0  1.3 0.0 0.0 0.0       157
DMV   7.000 1.00 Pg
SFB  19.160 1.00 Pg
VRN  12.340 1.00 Pg
SFB  33.280 1.00 Sg
FIR   9.480 1.00 Pg
# 2018 02 11 10 22 55.400000 34.205 51.227  10.0  1.8 0.0 0.0 0.0       158
KRSH 15.860 1.00 Pg
QAMS 10.080 1.00 Pg
QAMS 17.180 1.00 Sg
SFB  16.560 1.00 Pg
VRN  17.520 1.00 Pg
VRN  30.280 1.00 Sg
# 2018 02 11 15 23 24.200000 35.789 52.671  10.0  1.5 0.0 0.0 0.0       159
ALA  11.700 1.00 Sg
DMV  11.160 1.00 Pg
FIR   4.040 1.00 Pg
PRN  10.680 1.00 Pg
# 2018 02 11 22 39 58.600000 35.311 52.234  10.0  1.5 0.0 0.0 0.0       160
DMV   6.580 1.00 Pg
FIR  11.060 1.00 Pg
KRSH 25.220 1.00 Pg
SFB  19.000 1.00 Pg
VRN  10.740 1.00 Pg
FIR  19.080 1.00 Sg
# 2018 02 12 02 41 11.100000 35.303 52.263  10.0  1.7 0.0 0.0 0.0       161
DMV   6.640 1.00 Pg
VRN  10.620 1.00 Pg
SFB  18.080 1.00 Pg
QOM  20.540 1.00 Pg
MZPU 24.400 1.00 Pg
FIR  10.460 1.00 Pg
# 2018 02 12 05 22 38.100000 35.688 52.856   9.0  1.3 0.0 0.0 0.0       162
VRN  22.420 1.00 Pg
FIR   2.720 1.00 Pg
DMV  13.220 1.00 Pg
DMV  23.060 1.00 Sg
VRN  38.000 1.00 Sg
FIR   4.380 1.00 Sg
# 2018 02 12 22 20 23.100000 35.656 50.951  10.0  1.3 0.0 0.0 0.0       163
HSB   7.120 1.00 Pg
HSB  12.440 1.00 Sg
MHD   5.120 1.00 Pg
QOM  15.940 1.00 Pg
# 2018 02 13 08 41 41.100000 36.312 51.646   9.3  1.6 0.0 0.0 0.0       164
DMV  16.280 1.00 Pg
PRN  10.800 1.00 Pg
MZPU  3.680 1.00 Pg
KLST  9.940 1.00 Pg
MZPU  6.780 1.00 Sg
# 2018 02 13 12 42 28.700000 35.685 53.128   8.0  1.7 0.0 0.0 0.0       165
ALA   9.720 1.00 Pg
ANJ  13.130 1.00 Pg
DMV  17.440 1.00 Pg
FIR   5.980 1.00 Pg
GLO  19.520 1.00 Pg
KRSH 36.060 0.50 Pn
LAS   7.550 1.00 Pg
MZPU 28.680 1.00 Pg
SFB  29.000 1.00 Pg
VRN  25.860 1.00 Pg
# 2018 02 13 15 34 29.900000 34.695 50.523  10.0  2.0 0.0 0.0 0.0       166
DMV  28.340 1.00 Pg
KRSH 29.180 1.00 Pg
MHD  19.740 1.00 Pg
QOM   9.560 1.00 Pg
SFB  27.720 1.00 Pg
VRN  20.000 1.00 Pg
QOM  17.040 1.00 Sg
KLH  30.450 1.00 Pg
# 2018 02 13 16 21 26.000000 36.349 53.942  10.0  2.3 0.0 0.0 0.0       167
ALA  18.980 1.00 Pg
ANJ  17.320 1.00 Pg
DMV  32.520 1.00 Pg
FIR  22.880 1.00 Pg
GLO   3.960 1.00 Pg
LAS  24.650 1.00 Pg
PRN  25.280 1.00 Pg
GLO   7.680 1.00 Sg
# 2018 02 13 16 28 09.400000 36.344 53.926  10.0  2.2 0.0 0.0 0.0       168
ALA  18.820 1.00 Pg
ANJ  17.250 1.00 Pg
DMV  32.340 1.00 Pg
FIR  22.940 1.00 Pg
GLO   3.540 1.00 Pg
LAS  24.180 1.00 Pg
PRN  24.460 1.00 Pg
GLO   7.900 1.00 Sg
# 2018 02 13 16 30 59.400000 36.358 53.987  10.0  2.0 0.0 0.0 0.0       169
ALA  19.580 1.00 Pg
ANJ  17.670 1.00 Pg
FIR  23.700 1.00 Pg
GLO   3.920 1.00 Pg
GLO   8.280 1.00 Sg
LAS  24.550 1.00 Pg
PRN  25.320 1.00 Pg
# 2018 02 14 04 34 30.200000 34.260 51.116   8.0  1.6 0.0 0.0 0.0       170
QAMS 11.740 1.00 Pg
KLH  19.790 1.00 Pg
KRSH 17.000 1.00 Pg
VRN  17.900 1.00 Pg
QOM  11.240 1.00 Pg
# 2018 02 14 09 51 19.200000 36.936 50.476   9.0  2.4 0.0 0.0 0.0       171
GZV  12.380 1.00 Pg
MZPU 18.840 1.00 Pg
LHJ2  8.180 1.00 Pg
KLST 13.120 1.00 Pg
LHJ2 14.240 1.00 Sg
JIR1 11.240 1.00 Pg
JIR1 20.040 1.00 Sg
# 2018 02 14 10 06 07.900000 34.265 50.642  10.0  2.0 0.0 0.0 0.0       172
KLH  23.910 1.00 Pg
ZEF  36.760 1.00 Pn
VRN  22.240 1.00 Pg
SFB  25.460 1.00 Pg
QOM  13.320 1.00 Pg
QAMS 16.580 1.00 Pg
KRSH 24.640 1.00 Pg
# 2018 02 14 16 58 52.800000 35.360 52.646  10.0  1.7 0.0 0.0 0.0       173
DMV  11.240 1.00 Pg
FIR   6.040 1.00 Pg
LAS   5.430 1.00 Pg
LAS   9.990 1.00 Sg
SFB  20.320 1.00 Pg
# 2018 02 15 00 30 48.300000 34.506 52.114   8.0  2.2 0.0 0.0 0.0       174
KLH  23.930 1.00 Pg
KRSH 10.760 1.00 Pg
LAS  21.270 1.00 Pg
PIR  38.010 1.00 Pn
QAMS 19.240 1.00 Pg
QOM  17.540 1.00 Pg
SFB   4.420 1.00 Pg
VRN  12.180 1.00 Pg
ZEF  30.030 1.00 Pg
# 2018 02 15 01 06 08.000000 34.461 52.081  10.0  1.5 0.0 0.0 0.0       175
KLH  23.060 1.00 Pg
KRSH 10.420 1.00 Pg
QAMS 18.160 1.00 Pg
SFB   3.980 1.00 Pg
VRN  12.000 1.00 Pg
ZEF  29.850 1.00 Pg
# 2018 02 15 11 15 21.300000 35.592 53.185  10.0  1.5 0.0 0.0 0.0       176
DMV  18.540 1.00 Pg
FIR   7.320 1.00 Pg
FIR  13.020 1.00 Sg
LAS   5.890 1.00 Pg
LAS  10.530 1.00 Sg
# 2018 02 15 11 44 22.600000 35.282 51.878  12.0  2.3 0.0 0.0 0.0       177
DMV   7.920 1.00 Pg
DMV  13.080 1.00 Sg
HSB  10.780 1.00 Pg
KLH  35.700 1.00 Pn
QAMS 29.520 1.00 Pg
QOM  16.120 1.00 Pg
SFB  19.540 1.00 Pg
VRN   7.720 1.00 Pg
VRN  12.660 1.00 Sg
# 2018 02 15 17 28 50.200000 35.146 51.429  10.0  1.7 0.0 0.0 0.0       178
DMV  12.700 1.00 Pg
QOM   8.800 1.00 Pg
VRN   6.100 1.00 Pg
DMV  23.200 1.00 Sg
# 2018 02 15 18 32 28.100000 36.194 52.434  10.0  1.4 0.0 0.0 0.0       179
DMV  13.880 1.00 Pg
FIR  12.360 1.00 Pg
LAS  18.060 1.00 Pg
PRN   2.660 1.00 Pg
LAS  31.200 1.00 Sg
# 2018 02 16 07 11 02.900000 34.335 51.645   7.7  3.1 0.0 0.0 0.0       180
ALA  36.820 0.00 Pn
AMD1 28.760 0.00 Pg
ANAR 38.280 0.00 Pn
ANJ  39.150 1.00 Pn
DMV  24.560 1.00 Pg
FIR  30.160 1.00 Pg
HSB  22.260 1.00 Pg
HSB  38.460 1.00 Sg
KLH  19.510 1.00 Pg
KRSH 11.000 1.00 Pg
MHD  29.700 0.00 Pg
MZPU 38.480 0.00 Pn
PIR  33.040 0.00 Pg
PRN  36.960 0.00 Pn
QAMS 12.720 1.00 Pg
LAS  29.160 1.00 Pg
HSAM 44.100 1.00 Pn
GAR  35.490 0.00 Pn
ZNGN 40.160 0.00 Pn
ZEF  28.420 0.00 Pg
VRN  13.900 1.00 Pg
TKDS 71.740 1.00 Pn
SFB   9.880 1.00 Pg
RAZ  32.360 1.00 Pg
QOM  14.100 1.00 Pg
QOM  23.900 1.00 Sg
# 2018 02 16 10 03 11.000000 34.131 50.645  12.0  1.6 0.0 0.0 0.0       181
DMV  33.840 1.00 Pn
KLH  21.660 1.00 Pg
KRSH 24.020 1.00 Pg
PIR  27.540 1.00 Pg
QAMS 14.160 1.00 Pg
QOM  15.540 1.00 Pg
SFB  25.180 1.00 Pg
VRN  23.820 1.00 Pg
QAMS 25.320 1.00 Sg
# 2018 02 16 12 33 43.300000 34.498 52.133  10.0  1.4 0.0 0.0 0.0       182
DMV  20.780 1.00 Pg
KLH  24.170 1.00 Pg
KRSH 10.660 1.00 Pg
QAMS 19.320 1.00 Pg
SFB   4.020 1.00 Pg
SFB   7.380 1.00 Sg
VRN  12.220 1.00 Pg
ZEF  30.310 1.00 Pg
# 2018 02 17 01 38 48.900000 34.483 52.110  10.0  1.3 0.0 0.0 0.0       183
KLH  23.770 1.00 Pg
KRSH 10.480 1.00 Pg
QAMS 18.940 1.00 Pg
SFB   3.940 1.00 Pg
ZEF  30.120 1.00 Pg
VRN  11.920 1.00 Pg
SFB   7.200 1.00 Sg
# 2018 02 17 02 28 15.600000 34.470 52.095  10.0  1.3 0.0 0.0 0.0       184
ZEF  30.010 1.00 Pg
VRN  11.980 1.00 Pg
SFB   3.920 1.00 Pg
QAMS 18.760 1.00 Pg
KRSH 10.320 1.00 Pg
KLH  23.060 1.00 Pg
SFB   7.060 1.00 Sg
# 2018 02 17 09 53 38.500000 35.357 52.298   8.9  2.2 0.0 0.0 0.0       185
ALA  16.960 1.00 Pg
VRN  12.340 1.00 Pg
SFB  19.500 1.00 Pg
QOM  21.320 1.00 Pg
PRN  16.760 1.00 Pg
MZPU 23.240 1.00 Pg
LAS  10.710 1.00 Pg
KLST 28.960 1.00 Pg
KLH  38.000 1.00 Pn
GLO  31.960 1.00 Pg
FIR   9.300 1.00 Pg
DMV   6.800 1.00 Pg
ANJ  25.190 1.00 Pg
DMV  12.080 1.00 Sg
# 2018 02 17 10 01 03.800000 35.368 52.322  10.0  1.4 0.0 0.0 0.0       186
VRN  12.220 1.00 Pg
SFB  19.460 1.00 Pg
LAS  10.570 1.00 Pg
FIR   9.120 1.00 Pg
DMV   6.780 1.00 Pg
# 2018 02 17 11 39 08.300000 35.609 52.145   8.0  1.2 0.0 0.0 0.0       187
VRN  13.580 1.00 Pg
SFB  23.620 1.00 Pg
MZPU 18.200 1.00 Pg
FIR  10.000 1.00 Pg
DMV   2.460 1.00 Pg
DMV   4.820 1.00 Sg
MZPU 31.580 1.00 Sg
# 2018 02 17 11 45 01.700000 34.488 52.134   9.7  1.8 0.0 0.0 0.0       188
ZEF  29.780 1.00 Pg
VRN  11.900 1.00 Pg
SFB   4.000 1.00 Pg
QAMS 18.820 1.00 Pg
MZPU 36.260 1.00 Pn
KRSH 10.180 1.00 Pg
KLH  23.980 1.00 Pg
DMV  20.420 1.00 Pg
FIR  24.300 1.00 Pg
ANAR 34.220 1.00 Pn
VRN  21.400 1.00 Sg
# 2018 02 17 12 52 38.000000 35.485 53.053   8.0  1.8 0.0 0.0 0.0       189
ALA  12.060 1.00 Pg
ANJ  13.570 1.00 Pg
DMV  16.460 1.00 Pg
FIR   6.080 1.00 Pg
GLO  23.540 1.00 Pg
KRSH 31.400 1.00 Pg
LAS   3.020 1.00 Pg
SFB  25.360 1.00 Pg
VRN  22.940 1.00 Pg
# 2018 02 17 18 11 58.000000 36.485 49.531  10.0  2.5 0.0 0.0 0.0       190
JIR1  6.560 1.00 Pg
JIR1 11.280 1.00 Sg
KLST 23.940 1.00 Pg
RAZ  22.160 1.00 Pg
RAZ  37.900 1.00 Sg
MZPU 31.680 1.00 Pg
SRB  35.970 1.00 Pn
# 2018 02 18 00 14 22.300000 35.943 53.389  10.0  1.3 0.0 0.0 0.0       191
ALA   9.660 1.00 Pg
ANJ  12.430 1.00 Pg
FIR  12.080 1.00 Pg
GLO  13.300 1.00 Pg
LAS  13.220 1.00 Pg
# 2018 02 18 03 38 56.100000 34.495 52.096   8.0  1.4 0.0 0.0 0.0       192
KLH  23.920 1.00 Pg
KRSH 10.420 1.00 Pg
QAMS 18.780 1.00 Pg
SFB   4.000 1.00 Pg
SFB   7.180 1.00 Sg
ZEF  30.120 1.00 Pg
# 2018 02 18 05 20 59.900000 35.840 52.211  10.0  1.6 0.0 0.0 0.0       193
DMV   6.180 1.00 Pg
FIR   9.760 1.00 Pg
MZPU 15.520 1.00 Pg
PRN   8.440 1.00 Pg
VRN  18.620 1.00 Pg
DMV  11.140 1.00 Sg
# 2018 02 18 06 45 34.900000 35.374 52.663  16.3  2.1 0.0 0.0 0.0       194
ANJ  19.800 1.00 Pg
DMV  11.440 1.00 Pg
FIR   6.300 1.00 Pg
FIR  10.800 1.00 Sg
KRSH 26.780 1.00 Pg
LAS   5.530 1.00 Pg
LAS  10.090 1.00 Sg
QOM  26.000 1.00 Pg
SFB  20.280 1.00 Pg
VRN  16.540 1.00 Pg
# 2018 02 18 15 19 07.600000 34.480 52.104   8.4  2.0 0.0 0.0 0.0       195
KLH  23.690 1.00 Pg
KRSH 10.340 1.00 Pg
QAMS 18.660 1.00 Pg
SFB   3.900 1.00 Pg
VRN  11.920 1.00 Pg
ZEF  29.770 1.00 Pg
SFB   6.880 1.00 Sg
# 2018 02 18 22 04 02.300000 36.966 50.794  20.6  3.3 0.0 0.0 0.0       196
ALA  33.140 1.00 Pn
AMD1 22.780 1.00 Pg
ANAR 69.720 0.00 Pn
DMV  31.520 1.00 Pg
FIR  37.120 0.00 Pn
GLO  41.940 1.00 Pn
HAGD 42.860 1.00 Pn
HSH  46.790 1.00 Pn
KFM  66.460 0.00 Pn
KLH  58.720 0.00 Pn
KRSH 51.440 0.00 Pn
LAS  40.830 0.00 Pn
MRVT 65.920 1.00 Pn
PRN  26.500 1.00 Pg
QOM  37.160 0.00 Pn
RAZ  30.400 1.00 Pg
SFB  47.220 0.00 Pn
SRB  44.050 0.00 Pn
TEH  24.480 1.00 Pg
VRN  36.840 0.00 Pn
ZEF  67.100 0.00 Pn
GRMI 47.860 1.00 Pn
MHD  23.300 1.00 Pg
GAS1 35.540 1.00 Pn
LHJ2 12.340 1.00 Pg
# 2018 02 19 03 48 29.500000 35.300 52.201  10.3  1.5 0.0 0.0 0.0       197
VRN  10.440 1.00 Pg
SFB  17.600 1.00 Pg
LAS  11.920 1.00 Pg
LAS  21.620 1.00 Sg
FIR  10.500 1.00 Pg
DMV   6.520 1.00 Pg
FIR  19.960 1.00 Sg
# 2018 02 19 06 10 02.100000 37.510 49.105  19.3  2.9 0.0 0.0 0.0       198
SRB  24.900 1.00 Pg
JIR1 20.760 1.00 Pg
HSH  29.260 1.00 Pg
GAS1 18.500 1.00 Pg
GRMI 30.660 1.00 Pg
GAS1 31.660 1.00 Sg
RAZ  37.760 1.00 Pn
JIR1 34.620 1.00 Sg
HSH  50.840 1.00 Sg
# 2018 02 19 15 39 53.800000 35.768 51.973  11.0  1.6 0.0 0.0 0.0       199
DMV   4.460 1.00 Pg
DMV   8.380 1.00 Sg
FIR  12.960 1.00 Pg
VRN  15.900 1.00 Pg
VRN  27.340 1.00 Sg
# 2018 02 20 17 13 32.800000 35.554 49.747   8.0  3.2 0.0 0.0 0.0       200
AMD1 19.980 1.00 Pg
BZA  35.480 1.00 Pn
DMV  34.200 0.00 Pn
FIR  42.360 0.00 Pn
GHG  48.600 1.00 Pn
HAGD 17.120 1.00 Pg
HSB  23.740 1.00 Pg
JIR1 22.240 1.00 Pg
KRSH 43.740 0.00 Pn
LAS  44.880 1.00 Pn
LHJ2 31.380 1.00 Pg
LIN  42.240 1.00 Pn
MHD  15.080 1.00 Pg
PRN  39.260 0.00 Pn
QOM  24.060 1.00 Pg
RAZ   4.720 1.00 Pg
RAZ   8.100 1.00 Sg
SFB  41.200 0.00 Pn
SRB  47.830 1.00 Pn
VRN  31.780 1.00 Pg
QAMS 40.820 1.00 Pn
HSAM 30.180 1.00 Pg
HRS  57.250 1.00 Pn
HSH  45.490 1.00 Pn
SHB  67.420 0.00 Pn
# 2018 02 20 22 43 51.800000 35.818 51.940   8.0  3.0 0.0 0.0 0.0       201
ALA  14.660 1.00 Pg
ALA  25.080 1.00 Sg
AMD1 16.260 1.00 Pg
ANAR 50.440 1.00 Pn
ANJ  31.060 0.00 Pg
DMV   5.820 1.00 Pg
DMV   9.820 1.00 Sg
FIR  13.340 1.00 Pg
FIR  23.600 1.00 Sg
GLO  32.080 1.00 Pg
GRMI 70.020 1.00 Pn
HAGD 43.680 1.00 Pn
HSB  13.220 1.00 Pg
HSB  22.180 1.00 Sg
JIR1 36.320 1.00 Pn
KLH  43.160 0.00 Pn
KRSH 33.460 0.00 Pn
LAS  18.070 1.00 Pg
LHJ2 36.860 1.00 Pn
MHD  20.100 1.00 Pg
MHD  34.380 1.00 Sg
MRVT 60.940 0.00 Pn
PRN  10.920 1.00 Pg
PRN  19.100 1.00 Sg
QAMS 37.560 0.00 Pn
QOM  22.740 1.00 Pg
RAM  64.220 0.00 Pn
RAZ  31.420 1.00 Pg
SFB  27.840 0.00 Pg
SRB  64.030 1.00 Pn
TEH   9.500 1.00 Pg
TPRV 74.320 0.00 Pn
TKDS 75.280 0.00 Pn
VRN  16.560 1.00 Pg
ZEF  49.170 0.00 Pn
# 2018 02 21 03 09 18.800000 34.267 52.041   7.3  3.1 0.0 0.0 0.0       202
ALA  35.480 1.00 Pn
AMD1 32.560 0.00 Pg
ANAR 33.260 1.00 Pg
ANJ  35.360 1.00 Pn
BAF  64.370 0.00 Pn
BRJ  43.200 0.00 Pn
DMV  24.860 1.00 Pg
FIR  27.720 1.00 Pg
GAR  35.070 1.00 Pn
GLO  46.000 1.00 Pn
HAGD 43.120 1.00 Pn
HSB  25.300 1.00 Pg
KLH  19.720 1.00 Pg
LAS  25.670 1.00 Pg
MHD  32.920 0.00 Pn
PIR  34.030 0.00 Pn
PRN  35.860 0.00 Pn
QAMS 15.040 1.00 Pg
QOM  19.080 1.00 Pg
RAZ  36.700 0.00 Pn
SAD  46.790 1.00 Pn
SFB   4.280 1.00 Pg
SFB   7.500 1.00 Sg
TEH  29.520 0.00 Pg
TKDS 67.540 1.00 Pn
TPRV 64.360 1.00 Pn
VRN  15.660 1.00 Pg
ZEF  26.240 1.00 Pg
ZNGN 41.720 0.00 Pn
VRN  26.960 1.00 Sg
KRSH  6.640 1.00 Pg
KRSH 11.800 1.00 Sg
# 2018 02 21 04 31 45.800000 36.538 51.580  11.0  3.3 0.0 0.0 0.0       203
ALA  21.340 1.00 Pg
AMD1 18.280 1.00 Pg
ANJ  39.290 0.00 Pn
DMV  19.560 1.00 Pg
FIR  24.780 1.00 Pg
GLO  33.120 1.00 Pn
HAGD 45.000 0.00 Pn
HSB  21.620 1.00 Pg
JIR1 27.400 1.00 Pg
LAS  30.880 0.00 Pg
LHJ2 25.960 1.00 Pg
MHD  21.820 1.00 Pg
PRN  13.740 1.00 Pg
QAMS 47.760 0.00 Pn
QOM  32.140 0.00 Pg
RAZ  31.960 1.00 Pg
SFB  40.060 0.00 Pn
VRN  28.840 1.00 Pg
ANAR 60.560 0.00 Pn
HRS  64.230 1.00 Pn
HSH  57.580 1.00 Pn
SRB  55.010 1.00 Pn
ZEF  60.120 0.00 Pn
TPRV 84.560 0.00 Pn
# 2018 02 21 11 59 20.200000 36.121 52.121   8.0  1.9 0.0 0.0 0.0       204
DMV  10.780 1.00 Pg
FIR  13.740 1.00 Pg
GLO  27.540 1.00 Pg
KLST 18.200 1.00 Pg
MZPU 11.020 1.00 Pg
PRN   4.240 1.00 Pg
VRN  22.680 1.00 Pg
# 2018 02 21 21 55 13.300000 35.609 52.121  10.0  1.3 0.0 0.0 0.0       205
DMV   2.840 1.00 Pg
FIR  10.480 1.00 Pg
VRN  13.800 1.00 Pg
VRN  23.460 1.00 Sg
# 2018 02 22 08 19 51.900000 35.519 53.113   8.0  1.3 0.0 0.0 0.0       206
FIR   6.500 1.00 Pg
DMV  17.460 1.00 Pg
GLO  22.100 1.00 Pg
LAS   4.120 1.00 Pg
SFB  26.320 1.00 Pg
VRN  24.020 1.00 Pg
# 2018 02 22 09 06 37.300000 35.477 52.994   8.0  1.2 0.0 0.0 0.0       207
VRN  21.880 1.00 Pg
SFB  24.640 1.00 Pg
LAS   2.100 1.00 Pg
GLO  23.960 1.00 Pg
FIR   5.180 1.00 Pg
DMV  16.180 1.00 Pg
LAS   4.600 1.00 Sg
# 2018 02 22 09 32 58.500000 35.494 53.032   8.0  1.5 0.0 0.0 0.0       208
VRN  22.620 1.00 Pg
SFB  25.200 1.00 Pg
LAS   2.490 1.00 Pg
GLO  23.320 1.00 Pg
FIR   5.620 1.00 Pg
DMV  16.400 1.00 Pg
LAS   5.390 1.00 Sg
# 2018 02 22 13 50 36.800000 35.700 53.127   8.0  1.7 0.0 0.0 0.0       209
ALA   8.960 1.00 Pg
ANJ  13.270 1.00 Pg
DMV  17.440 1.00 Pg
FIR   6.240 1.00 Pg
GLO  19.280 1.00 Pg
LAS   7.600 1.00 Pg
VRN  25.960 1.00 Pg
SFB  28.980 1.00 Pg
ALA  16.720 1.00 Sg
# 2018 02 22 17 30 58.800000 34.699 51.433  12.0  1.6 0.0 0.0 0.0       210
KLH  25.700 1.00 Pg
KRSH 17.760 1.00 Pg
QAMS 18.920 1.00 Pg
QOM   7.240 1.00 Pg
SFB  14.620 1.00 Pg
VRN   7.820 1.00 Pg
QOM  12.120 1.00 Sg
# 2018 02 22 19 41 10.100000 35.355 52.371  10.0  1.0 0.0 0.0 0.0       211
DMV   7.440 1.00 Pg
FIR   8.460 1.00 Pg
LAS   9.970 1.00 Pg
VRN  12.520 1.00 Pg
DMV  13.180 1.00 Sg
# 2018 02 22 21 00 14.400000 34.495 52.155  10.0  1.6 0.0 0.0 0.0       212
DMV  20.880 1.00 Pg
FIR  23.920 1.00 Pg
KLH  23.940 1.00 Pg
KRSH 10.740 1.00 Pg
LAS  21.330 1.00 Pg
QAMS 19.380 1.00 Pg
SFB   4.380 1.00 Pg
VRN  12.500 1.00 Pg
ZEF  30.360 1.00 Pg
# 2018 02 22 21 48 58.300000 34.624 52.852  10.0  1.2 0.0 0.0 0.0       213
DMV  22.780 1.00 Pg
FIR  19.540 1.00 Pg
KLH  31.070 1.00 Pg
KRSH 17.260 1.00 Pg
QAMS 28.580 1.00 Pg
SFB  11.660 1.00 Pg
SFB  19.840 1.00 Sg
# 2018 02 23 03 09 48.900000 36.416 52.804  21.9  1.8 0.0 0.0 0.0       214
ALA   6.960 1.00 Pg
DMV  19.620 1.00 Pg
FIR  14.540 1.00 Pg
GLO  15.640 1.00 Pg
KLST 25.460 1.00 Pg
LAS  18.890 1.00 Pg
PRN   8.540 1.00 Pg
ALA  12.560 1.00 Sg
# 2018 02 23 03 12 05.100000 36.430 52.008  12.0  1.8 0.0 0.0 0.0       215
ALA  14.560 1.00 Pg
DMV  16.780 1.00 Pg
FIR  19.200 1.00 Pg
GLO  27.740 1.00 Pg
KLST 15.200 1.00 Pg
MZPU  9.140 0.50 Pg
PRN   7.460 1.00 Pg
VRN  27.360 1.00 Pg
PRN  12.540 1.00 Sg
# 2018 02 23 09 01 57.500000 35.345 50.191   9.7  1.8 0.0 0.0 0.0       216
HAGD 19.860 1.00 Pg
JIR1 26.380 1.00 Pg
KLST 25.980 1.00 Pg
MHD  10.680 1.00 Pg
QOM  16.580 1.00 Pg
RAZ   4.360 1.00 Pg
VRN  25.400 1.00 Pg
RAZ   9.200 1.00 Sg
# 2018 02 23 11 19 26.300000 35.723 49.404  10.0  2.0 0.0 0.0 0.0       217
JIR1 19.820 1.00 Pg
KLST 28.920 1.00 Pg
MHD  20.360 1.00 Pg
RAZ  10.840 1.00 Pg
RAZ  18.560 1.00 Sg
# 2018 02 23 13 19 20.000000 36.648 49.865   8.0  2.1 0.0 0.0 0.0       218
JIR1  1.760 1.00 Pg
KLST 18.640 1.00 Pg
LHJ2 16.180 1.00 Pg
MZPU 26.660 1.00 Pg
PRN  36.820 1.00 Pn
RAZ  23.860 1.00 Pg
DMV  38.880 1.00 Pn
JIR1  4.160 1.00 Sg
MHD  22.820 1.00 Pg
# 2018 02 23 13 40 06.300000 36.696 49.874   8.0  3.0 0.0 0.0 0.0       219
GRMI 43.920 1.00 Pn
HAGD 36.480 1.00 Pn
HRS  47.450 1.00 Pn
HSB  31.880 1.00 Pg
HSH  39.100 1.00 Pn
JIR1  2.340 1.00 Pg
KLST 18.900 1.00 Pg
KRSH 54.960 0.00 Pn
LHJ2 10.120 1.00 Pg
LAS  48.140 0.00 Pn
MHD  23.160 1.00 Pg
MZPU 26.980 1.00 Pg
PRN  37.320 1.00 Pn
QAMS 53.580 0.00 Pn
QOM  37.920 1.00 Pn
SFB  50.640 0.00 Pn
SRB  37.740 1.00 Pn
VRN  40.360 0.00 Pn
RAZ  24.140 1.00 Pg
DMV  38.960 1.00 Pn
# 2018 02 23 14 00 28.000000 34.981 53.273   5.4  2.0 0.0 0.0 0.0       220
ALA  22.600 1.00 Pg
ANJ  14.580 1.00 Pg
DMV  22.940 1.00 Pg
FIR  16.140 1.00 Pg
KRSH 26.440 1.00 Pg
LAS  10.610 1.00 Pg
SFB  20.380 1.00 Pg
QOM  33.200 1.00 Pn
VRN  24.100 1.00 Pg
ZEF  40.860 1.00 Pn
LAS  17.610 1.00 Sg
# 2018 02 23 14 47 20.200000 34.865 53.332  10.0  2.0 0.0 0.0 0.0       221
DMV  24.700 1.00 Pg
FIR  17.560 1.00 Pg
LAS  12.050 1.00 Pg
VRN  25.420 1.00 Pg
ANJ  15.070 1.00 Pg
# 2018 02 23 20 26 35.400000 34.492 52.170  16.5  1.9 0.0 0.0 0.0       222
FIR  23.020 1.00 Pg
KRSH 10.700 1.00 Pg
KRSH 18.560 1.00 Sg
KLH  23.800 1.00 Pg
QAMS 18.980 1.00 Pg
LAS  21.010 1.00 Pg
SFB   4.320 1.00 Pg
SFB   7.360 1.00 Sg
VRN  12.320 1.00 Pg
ZEF  30.010 1.00 Pg
# 2018 02 24 01 16 27.100000 35.351 53.245  10.0  1.5 0.0 0.0 0.0       223
ANJ  11.370 1.00 Pg
DMV  20.360 1.00 Pg
FIR   9.460 1.00 Pg
LAS   5.300 1.00 Pg
LAS   9.240 1.00 Sg
SFB  24.740 1.00 Pg
VRN  24.140 1.00 Pg
# 2018 02 24 07 51 28.800000 36.040 53.484  12.0  1.6 0.0 0.0 0.0       224
MZPU 29.720 1.00 Pg
KLST 36.320 1.00 Pn
GLO  11.000 1.00 Pg
FIR  14.420 1.00 Pg
ANJ  13.150 1.00 Pg
DMV  24.420 1.00 Pg
ALA  11.480 1.00 Pg
# 2018 02 24 07 59 22.200000 36.059 53.485  15.5  2.9 0.0 0.0 0.0       225
ALA  11.200 1.00 Pg
VRN  32.740 1.00 Pg
SFB  35.260 1.00 Pn
PRN  18.420 1.00 Pg
MZPU 29.580 1.00 Pg
MRVT 44.060 1.00 Pn
ANJ  13.430 1.00 Pg
DMV  24.420 1.00 Pg
FIR  14.220 1.00 Pg
GLO  10.520 1.00 Pg
KLST 35.940 1.00 Pn
KRSH 40.340 1.00 Pn
LAS  15.880 1.00 Pg
# 2018 02 24 18 12 49.800000 34.504 52.124   7.9  2.5 0.0 0.0 0.0       226
ALA  31.960 1.00 Pg
ANAR 34.340 1.00 Pn
ANJ  32.700 1.00 Pg
DMV  20.480 1.00 Pg
FIR  23.320 1.00 Pg
KLH  24.000 1.00 Pg
KRSH 10.840 1.00 Pg
LAS  21.480 1.00 Pg
QAMS 19.040 1.00 Pg
QOM  18.140 1.00 Pg
SFB   4.340 1.00 Pg
VRN  12.320 1.00 Pg
ZEF  30.340 1.00 Pg
# 2018 02 24 18 21 35.800000 34.477 52.111   7.9  1.8 0.0 0.0 0.0       227
KLH  23.580 1.00 Pg
KRSH 10.200 1.00 Pg
QAMS 18.660 1.00 Pg
SFB   3.760 1.00 Pg
VRN  11.960 1.00 Pg
ZEF  29.670 1.00 Pg
# 2018 02 24 18 24 08.500000 34.476 52.103   7.2  1.5 0.0 0.0 0.0       228
KLH  23.520 1.00 Pg
KRSH 10.040 1.00 Pg
QAMS 18.640 1.00 Pg
ZEF  29.810 1.00 Pg
VRN  11.900 1.00 Pg
SFB   3.840 1.00 Pg
# 2018 02 25 09 11 13.600000 35.536 53.192  11.6  1.4 0.0 0.0 0.0       229
SFB  27.420 1.00 Pg
LAS   5.140 1.00 Pg
FIR   7.740 1.00 Pg
ALA  22.460 1.00 Sg
FIR  13.640 1.00 Sg
LAS  10.040 1.00 Sg
VRN  24.980 1.00 Pg
# 2018 02 25 10 10 23.500000 36.256 52.494  17.0  2.1 0.0 0.0 0.0       230
ALA   6.580 1.00 Pg
VRN  26.140 1.00 Pg
SFB  33.440 1.00 Pn
PRN   3.940 1.00 Pg
LAS  18.590 1.00 Pg
GLO  21.000 1.00 Pg
FIR  12.380 1.00 Pg
DMV  15.160 1.00 Pg
# 2018 02 26 08 01 35.900000 35.223 53.384   6.3  1.7 0.0 0.0 0.0       231
VRN  26.180 1.00 Pg
SFB  25.240 1.00 Pg
MZPU 35.920 1.00 Pn
LAS   8.250 1.00 Pg
KRSH 30.560 1.00 Pg
FIR  13.320 1.00 Pg
GLO  26.160 1.00 Pg
DMV  22.800 1.00 Pg
ANJ   9.950 1.00 Pg
ALA  19.280 1.00 Pg
# 2018 02 26 10 45 01.700000 36.384 51.405  10.9  2.2 0.0 0.0 0.0       232
VRN  26.920 1.00 Pg
PRN  14.780 1.00 Pg
MZPU  4.140 1.00 Pg
MHD  18.220 1.00 Pg
KLST  6.520 1.00 Pg
GLO  35.680 1.00 Pn
DMV  18.420 1.00 Pg
# 2018 02 26 14 29 53.400000 34.191 50.376   8.0  2.0 0.0 0.0 0.0       233
DMV  35.640 1.00 Pn
HAGD 22.880 1.00 Pg
ZEF  37.790 1.00 Pn
RAZ  24.840 1.00 Pg
QAMS 18.520 1.00 Pg
MHD  50.820 1.00 Sg
KLH  25.350 1.00 Pg
VRN  26.820 1.00 Pg
# 2018 02 26 21 16 58.400000 36.160 52.686  10.0  1.4 0.0 0.0 0.0       234
ALA   3.560 1.00 Pg
DMV  15.660 1.00 Pg
FIR  10.440 1.00 Pg
LAS  15.800 1.00 Pg
PRN   6.160 1.00 Pg
