# 2018 02 28 05 41 56.700000 36.406 51.398  14.2  2.5 0.0 0.0 0.0       235
ALA  22.180 1.00 Pg
VRN  26.780 1.00 Pg
SFB  38.760 1.00 Pn
RAZ  27.680 1.00 Pg
QOM  29.180 1.00 Pg
PRN  15.100 1.00 Pg
MZPU  4.100 1.00 Pg
MHD  18.080 1.00 Pg
KLST  6.620 1.00 Pg
JIR1 25.440 1.00 Pg
GLO  34.840 1.00 Pn
FIR  25.360 1.00 Pg
DMV  18.820 1.00 Pg
TEH  13.140 1.00 Pg
# 2018 02 28 07 17 01.200000 35.943 53.117   9.0  1.5 0.0 0.0 0.0       236
ALA   5.860 1.00 Pg
LAS  11.770 1.00 Pg
FIR   7.900 1.00 Pg
DMV  18.660 1.00 Pg
ALA  10.940 1.00 Sg
# 2018 02 28 08 19 29.600000 36.003 53.045  10.6  1.3 0.0 0.0 0.0       237
ALA   4.840 1.00 Pg
SFB  32.620 1.00 Pg
LAS  12.390 1.00 Pg
GLO  15.940 1.00 Pg
FIR   8.320 1.00 Pg
FIR  15.900 1.00 Sg
# 2018 02 28 09 13 57.400000 37.556 53.231  12.3  2.9 0.0 0.0 0.0       238
ALA  28.780 1.00 Pg
PRN  27.920 1.00 Pg
MZPU 31.960 1.00 Pg
LAS  37.730 1.00 Pn
KLST 35.720 1.00 Pn
GLO  22.300 1.00 Pg
FIR  35.660 1.00 Pn
DMV  39.180 1.00 Pn
SFB  53.920 1.00 Pn
GLO  37.540 1.00 Sg
ALA  49.480 1.00 Sg
# 2018 02 28 15 30 15.300000 36.380 52.294  10.0  2.0 0.0 0.0 0.0       239
ALA  10.180 1.00 Pg
DMV  15.820 1.00 Pg
DMV  27.920 1.00 Sg
FIR  15.900 1.00 Pg
GLO  23.780 1.00 Pg
KLST 19.520 1.00 Pg
LAS  21.740 1.00 Pg
MZPU 12.300 1.00 Pg
PRN   4.400 1.00 Pg
PRN   7.420 1.00 Sg
# 2018 02 28 18 18 46.000000 35.161 52.240  13.6  1.6 0.0 0.0 0.0       240
KLH  34.750 1.00 Pn
KRSH 22.240 1.00 Pg
LAS  12.400 1.00 Pg
QAMS 29.780 1.00 Pg
QOM  19.040 1.00 Pg
SFB  15.700 1.00 Pg
VRN   8.960 1.00 Pg
VRN  16.040 1.00 Sg
# 2018 03 01 09 15 34.000000 34.300 50.615   8.0  2.1 0.0 0.0 0.0       241
ALA  43.980 1.00 Pn
DMV  32.100 1.00 Pg
KLH  24.620 1.00 Pg
KRSH 25.260 1.00 Pg
QAMS 17.240 1.00 Pg
QOM  13.700 1.00 Pg
RAZ  23.240 1.00 Pg
SFB  25.900 1.00 Pg
VRN  22.360 1.00 Pg
ZEF  37.890 1.00 Pn
SFB  44.840 1.00 Sg
# 2018 03 02 02 51 49.000000 36.595 53.173  10.0  1.6 0.0 0.0 0.0       242
ALA  12.020 1.00 Pg
DMV  26.800 1.00 Pg
GLO  10.780 1.00 Pg
KLST 31.360 1.00 Pg
MZPU 24.720 1.00 Pg
PRN  14.820 1.00 Pg
ALA  20.620 1.00 Sg
# 2018 03 03 05 45 17.300000 35.382 52.334  10.0  1.8 0.0 0.0 0.0       243
VRN  11.960 1.00 Pg
VRN  21.580 1.00 Sg
LAS  10.200 1.00 Pg
FIR   8.520 1.00 Pg
DMV   6.380 1.00 Pg
DMV  11.760 1.00 Sg
ALA  16.100 1.00 Pg
# 2018 03 04 09 14 37.500000 35.596 53.629  17.6  1.9 0.0 0.0 0.0       244
ALA  15.960 1.00 Pg
VRN  30.100 1.00 Pg
SFB  29.960 1.00 Pg
LAS  11.660 1.00 Pg
KRSH 35.420 1.00 Pn
GLO  17.660 1.00 Pg
FIR  14.160 1.00 Pg
DMV  24.460 1.00 Pg
# 2018 03 05 01 49 21.700000 36.111 53.274  19.2  2.8 0.0 0.0 0.0       245
ALA   8.200 1.00 Pg
ANJ  16.130 1.00 Pg
DMV  21.480 1.00 Pg
FIR  12.360 1.00 Pg
GLO  12.620 1.00 Pg
HSB  31.540 1.00 Pg
KRSH 39.400 1.00 Pn
LAS  15.220 1.00 Pg
MHD  37.260 1.00 Pn
PRN  14.620 1.00 Pg
MRVT 44.140 1.00 Pn
MND  34.640 1.00 Pn
QOM  38.120 1.00 Pn
SFB  33.860 1.00 Pn
VRN  29.740 1.00 Pg
LAS  26.280 1.00 Sg
# 2018 03 06 07 58 00.300000 35.578 53.228  11.2  1.6 0.0 0.0 0.0       246
SFB  28.180 1.00 Pg
LAS   6.210 1.00 Pg
FIR   8.540 1.00 Pg
DMV  18.380 1.00 Pg
FIR  14.380 1.00 Sg
# 2018 03 06 09 38 58.300000 35.334 52.387   9.0  1.7 0.0 0.0 0.0       247
VRN  12.840 1.00 Pg
SFB  18.840 1.00 Pg
QAMS 32.860 1.00 Pg
QOM  22.800 1.00 Pg
LAS   9.920 1.00 Pg
FIR   8.420 1.00 Pg
DMV   7.800 1.00 Pg
# 2018 03 06 10 04 23.900000 35.379 52.733   9.0  1.1 0.0 0.0 0.0       248
LAS   4.100 1.00 Pg
FIR   5.680 1.00 Pg
DMV  11.720 1.00 Pg
SFB  21.180 1.00 Pg
FIR  10.260 1.00 Sg
# 2018 03 06 21 44 51.100000 35.905 53.251   8.3  2.0 0.0 0.0 0.0       249
ALA   8.400 1.00 Pg
ANJ  13.460 1.00 Pg
DMV  20.320 1.00 Pg
FIR   9.880 1.00 Pg
GLO  15.160 1.00 Pg
KLST 34.720 1.00 Pn
KRSH 38.040 1.00 Pn
LAS  11.730 1.00 Pg
MZPU 27.820 1.00 Pg
PRN  15.480 1.00 Pg
QOM  37.400 1.00 Pn
SFB  32.100 1.00 Pg
VRN  29.180 1.00 Pg
FIR  17.360 1.00 Sg
# 2018 03 07 10 34 13.500000 35.345 52.757   8.0  1.2 0.0 0.0 0.0       250
VRN  17.800 1.00 Pg
LAS   4.000 1.00 Pg
FIR   6.280 1.00 Pg
DMV  12.180 1.00 Pg
DMV  22.540 1.00 Sg
# 2018 03 07 10 49 14.700000 34.498 51.108  10.0  1.5 0.0 0.0 0.0       251
VRN  14.060 1.00 Pg
SFB  17.920 1.00 Pg
QAMS 15.940 1.00 Pg
QOM   7.000 1.00 Pg
VRN  24.840 1.00 Sg
# 2018 03 07 11 47 31.500000 36.713 49.640   8.0  2.4 0.0 0.0 0.0       252
RAZ  25.520 1.00 Pg
MZPU 29.900 1.00 Pg
MHD  25.440 1.00 Pg
LHJ2 11.100 1.00 Pg
KLST 22.060 1.00 Pg
JIR1  3.200 1.00 Pg
JIR1  5.220 1.00 Sg
# 2018 03 07 14 39 05.900000 37.254 50.431  12.2  2.7 0.0 0.0 0.0       253
RAZ  33.920 1.00 Pn
MHD  29.340 1.00 Pg
LHJ2  6.680 1.00 Pg
KLST 17.500 1.00 Pg
JIR1 13.920 1.00 Pg
JIR1 25.620 1.00 Sg
# 2018 03 07 18 25 33.000000 35.564 50.872  10.0  2.0 0.0 0.0 0.0       254
HSB   7.060 1.00 Pg
HSB  13.720 1.00 Sg
MHD   4.080 1.00 Pg
MHD   8.840 1.00 Sg
RAZ  15.020 1.00 Pg
RAZ  27.740 1.00 Sg
VRN  17.100 1.00 Pg
# 2018 03 08 13 52 27.100000 36.374 52.411  10.0  1.5 0.0 0.0 0.0       255
MZPU 13.420 1.00 Pg
PRN   4.000 1.00 Pg
ALA   8.880 1.00 Pg
DMV  16.320 1.00 Pg
MZPU 23.740 1.00 Sg
# 2018 03 09 08 09 14.200000 35.321 50.199   8.0  2.2 0.0 0.0 0.0       256
DMV  29.040 1.00 Pg
MHD  10.320 1.00 Pg
LHJ2 35.420 1.00 Pn
QOM  16.400 1.00 Pg
RAZ   4.320 1.00 Pg
VRN  25.280 1.00 Pg
MHD  18.280 1.00 Sg
QAMS 34.680 1.00 Pn
RAZ   9.040 1.00 Sg
SFB  35.520 1.00 Pn
# 2018 03 09 13 07 28.000000 35.272 50.693   8.0  2.2 0.0 0.0 0.0       257
DMV  21.440 1.00 Pg
HSB  10.440 1.00 Pg
KRSH 32.540 1.00 Pg
LAS  34.690 1.00 Pn
QAMS 30.600 1.00 Pg
QOM  10.600 1.00 Pg
RAZ  12.920 1.00 Pg
SFB  28.480 1.00 Pg
VRN  17.500 1.00 Pg
MHD   8.020 1.00 Pg
HSB  17.940 1.00 Sg
# 2018 03 11 08 29 56.900000 35.198 50.047   9.0  1.6 0.0 0.0 0.0       258
VRN  26.740 1.00 Pg
SFB  37.720 1.00 Pn
QOM  17.880 1.00 Pg
MHD  13.840 1.00 Pg
KLST 29.880 1.00 Pg
# 2018 03 11 09 05 36.200000 35.515 53.737  10.0  1.6 0.0 0.0 0.0       259
ANJ   3.240 1.00 Pg
SFB  31.320 1.00 Pg
LAS  12.920 1.00 Pg
GLO  18.860 1.00 Pg
ANJ   7.000 1.00 Sg
VRN  32.240 1.00 Pg
# 2018 03 11 10 02 29.500000 35.231 50.287   8.0  2.0 0.0 0.0 0.0       260
VRN  23.180 1.00 Pg
SFB  34.240 1.00 Pn
RAZ   6.940 1.00 Pg
QOM  14.600 1.00 Pg
MHD  11.300 1.00 Pg
DMV  27.800 1.00 Pg
RAZ  12.260 1.00 Sg
# 2018 03 11 23 53 01.100000 35.643 52.342  10.0  1.7 0.0 0.0 0.0       261
DMV   5.780 1.00 Pg
DMV  10.080 1.00 Sg
VRN  16.160 1.00 Pg
SFB  24.760 1.00 Pg
# 2018 03 12 01 13 51.800000 35.633 52.357   8.0  1.3 0.0 0.0 0.0       262
ALA  11.520 1.00 Pg
DMV   5.700 1.00 Pg
FIR   6.860 1.00 Pg
LAS  10.900 1.00 Pg
KRSH 31.240 1.00 Pg
SFB  24.480 1.00 Pg
VRN  15.980 1.00 Pg
# 2018 03 12 08 11 02.400000 35.570 53.095   6.0  1.4 0.0 0.0 0.0       263
SFB  26.780 1.00 Pg
LAS   4.390 1.00 Pg
GLO  21.600 1.00 Pg
FIR   5.800 1.00 Pg
DMV  17.440 1.00 Pg
# 2018 03 12 08 26 32.600000 35.525 53.031   9.0  1.3 0.0 0.0 0.0       264
SFB  25.340 1.00 Pg
LAS   3.610 1.00 Pg
FIR   4.960 1.00 Pg
GLO  22.300 1.00 Pg
FIR  10.000 1.00 Sg
# 2018 03 12 12 59 49.900000 35.825 53.162   9.7  1.7 0.0 0.0 0.0       265
ALA   7.960 1.00 Pg
ALA  13.920 1.00 Sg
ANJ  14.120 1.00 Pg
DMV  19.060 1.00 Pg
FIR   7.880 1.00 Pg
LAS   9.770 1.00 Pg
SFB  31.260 1.00 Pg
VRN  27.640 1.00 Pg
# 2018 03 12 13 20 37.600000 35.706 53.111   8.0  1.6 0.0 0.0 0.0       266
FIR   6.340 1.00 Pg
LAS   7.420 1.00 Pg
KLST 34.700 1.00 Pn
SFB  29.300 1.00 Pg
VRN  25.520 1.00 Pg
GLO  19.160 1.00 Pg
# 2018 03 12 19 26 04.300000 34.901 50.086  14.0  1.9 0.0 0.0 0.0       267
QAMS 29.800 1.00 Pg
QOM  15.660 1.00 Pg
RAZ  10.420 1.00 Pg
VRN  25.380 1.00 Pg
QOM  27.260 1.00 Sg
# 2018 03 13 21 40 49.200000 35.113 52.109   7.6  2.8 0.0 0.0 0.0       268
ALA  21.760 1.00 Pg
ANJ  28.440 1.00 Pg
DMV   9.660 1.00 Pg
FIR  14.620 1.00 Pg
GLO  36.640 1.00 Pn
HSB  14.320 1.00 Pg
KLH  33.480 1.00 Pn
KLST 30.420 1.00 Pg
LAS  14.790 1.00 Pg
PRN  22.120 1.00 Pg
QOM  17.180 1.00 Pg
SFB  15.100 1.00 Pg
VRN   6.940 1.00 Pg
VRN  13.020 1.00 Sg
# 2018 03 15 04 53 00.800000 36.583 49.711   5.0  2.8 0.0 0.0 0.0       269
HRS  49.290 0.50 Pn
HSH  38.400 1.00 Pn
JIR1  3.480 1.00 Pg
MHD  24.240 1.00 Pg
PRN  39.800 1.00 Pn
RAZ  24.280 1.00 Pg
LHJ2 13.420 1.00 Pg
JIR1  5.300 1.00 Sg
CSN1 22.540 1.00 Pg
VRN  40.800 1.00 Pn
# 2018 03 15 13 24 51.100000 35.473 52.948   9.3  1.3 0.0 0.0 0.0       270
ALA  12.840 1.00 Pg
FIR   4.720 1.00 Pg
LAS   2.090 1.00 Pg
SFB  24.300 1.00 Pg
VRN  21.620 1.00 Pg
KRSH 30.380 1.00 Pg
LAS   5.270 1.00 Sg
# 2018 03 15 14 04 25.200000 35.346 50.175   8.0  1.8 0.0 0.0 0.0       271
DMV  29.720 1.00 Pg
MHD  10.940 1.00 Pg
MZPU 29.980 1.00 Pg
QAMS 35.500 1.00 Pn
QOM  16.840 1.00 Pg
RAZ   4.300 1.00 Pg
SFB  36.560 1.00 Pn
VRN  25.520 1.00 Pg
# 2018 03 15 14 15 39.300000 35.351 50.165   8.0  1.8 0.0 0.0 0.0       272
DMV  29.940 1.00 Pg
KLST 26.380 1.00 Pg
MHD  10.960 1.00 Pg
KRSH 38.600 1.00 Pn
MZPU 30.100 1.00 Pg
QOM  17.100 1.00 Pg
RAZ   4.440 1.00 Pg
SFB  35.600 1.00 Pn
VRN  25.480 1.00 Pg
# 2018 03 16 05 59 42.000000 34.911 50.134   8.0  3.3 0.0 0.0 0.0       273
HSB  21.120 1.00 Pg
KLH  37.130 1.00 Pn
KLST 32.720 0.00 Pg
MHD  17.380 1.00 Pg
QOM  15.760 1.00 Pg
RAZ  10.320 1.00 Pg
TEH  25.700 1.00 Pg
DOB  35.760 1.00 Pn
MZPU 35.580 0.00 Pn
ANAR 56.660 0.00 Pn
FIR  40.200 0.00 Pn
HAGD 15.700 1.00 Pg
JIR1 33.320 1.00 Pn
ILBA 57.060 1.00 Pn
VRN  25.360 1.00 Pg
TKDS 90.400 0.00 Pn
TEHA 26.120 0.00 Pg
AMD1 21.180 1.00 Pg
DMV  31.820 1.00 Pg
HSB  36.240 1.00 Sg
JHBN 47.140 1.00 Pn
KRSH 34.760 1.00 Pn
LHJ2 39.700 1.00 Pn
LAS  41.480 1.00 Pn
PRN  39.740 0.00 Pn
QAMS 29.500 1.00 Pg
SFB  33.280 1.00 Pn
VRN  43.600 1.00 Sg
# 2018 03 16 08 23 39.700000 35.357 50.203   8.0  2.1 0.0 0.0 0.0       274
DMV  28.820 1.00 Pg
KLST 25.780 1.00 Pg
MHD  10.440 1.00 Pg
MZPU 30.000 1.00 Pg
QAMS 35.500 1.00 Pn
QOM  16.760 1.00 Pg
RAZ   4.680 1.00 Pg
VRN  25.120 1.00 Pg
# 2018 03 16 12 13 32.400000 35.067 52.134  10.0  2.4 0.0 0.0 0.0       275
ALA  22.340 1.00 Pg
ANJ  28.500 1.00 Pg
DMV   9.580 1.00 Pg
FIR  14.520 1.00 Pg
KLH  33.370 1.00 Pn
KRSH 21.280 1.00 Pg
LAS  14.600 1.00 Pg
PRN  23.140 1.00 Pg
QAMS 27.300 1.00 Pg
QOM  17.120 1.00 Pg
VRN   6.860 1.00 Pg
SFB  15.020 0.50 Pg
VRN  12.820 1.00 Sg
# 2018 03 16 13 33 24.000000 35.222 52.030  10.0  2.0 0.0 0.0 0.0       276
DMV   7.560 1.00 Pg
FIR  14.520 1.00 Pg
HSB  12.780 1.00 Pg
LAS  15.440 1.00 Pg
KRSH 23.500 1.00 Pg
MZPU 24.300 1.00 Pg
QOM  16.680 1.00 Pg
VRN   7.200 1.00 Pg
SFB  17.220 1.00 Pg
VRN  12.820 1.00 Sg
# 2018 03 17 10 10 17.300000 35.351 52.557  11.0  1.6 0.0 0.0 0.0       277
SFB  19.800 1.00 Pg
LAS   7.420 1.00 Pg
KRSH 26.200 1.00 Pg
FIR   6.480 1.00 Pg
DMV   9.740 1.00 Pg
DMV  17.200 1.00 Sg
# 2018 03 17 13 23 57.600000 35.736 53.140   5.0  1.4 0.0 0.0 0.0       278
ALA   9.240 1.00 Pg
FIR   6.800 1.00 Pg
DMV  19.240 1.00 Pg
LAS   8.120 1.00 Pg
LAS  14.240 1.00 Sg
# 2018 03 17 21 46 19.100000 35.633 52.512  10.0  1.5 0.0 0.0 0.0       279
DMV   8.120 1.00 Pg
FIR   4.400 1.00 Pg
LAS   9.080 1.00 Pg
SFB  25.100 1.00 Pg
ALA  18.320 1.00 Sg
# 2018 03 18 06 53 03.000000 36.774 51.503  11.0  2.5 0.0 0.0 0.0       280
VRN  33.560 1.00 Pg
PRN  16.480 1.00 Pg
DMV  24.260 1.00 Pg
GLO  34.540 1.00 Pn
KLST  9.220 1.00 Pg
LAS  33.780 1.00 Pn
MZPU  6.380 1.00 Pg
RAZ  34.040 1.00 Pn
MHD  24.680 1.00 Pg
MZPU 12.660 1.00 Sg
# 2018 03 18 20 23 45.300000 34.924 49.934  14.2  2.1 0.0 0.0 0.0       281
DMV  32.580 1.00 Pn
HAGD 13.160 1.00 Pg
HSAM 24.520 1.00 Pg
KLH  37.430 1.00 Pn
QAMS 31.340 1.00 Pg
QOM  18.160 1.00 Pg
RAZ   9.820 1.00 Pg
VRN  27.760 1.00 Pg
QOM  31.180 1.00 Sg
HSB  23.100 1.00 Pg
# 2018 03 19 09 29 25.900000 34.041 50.501   8.0  2.6 0.0 0.0 0.0       282
HAGD 25.900 1.00 Pg
KLH  22.100 1.00 Pg
KRSH 25.960 1.00 Pg
PIR  27.060 1.00 Pg
QAMS 15.720 1.00 Pg
QOM  18.260 1.00 Pg
RAZ  27.740 1.00 Pg
VRN  26.640 1.00 Pg
# 2018 03 19 09 33 09.000000 36.395 52.920  10.0  1.4 0.0 0.0 0.0       283
FIR  15.100 1.00 Pg
GLO  14.740 1.00 Pg
PRN   9.760 1.00 Pg
PRN  17.700 1.00 Sg
# 2018 03 19 22 56 19.100000 35.193 52.115   8.0  2.7 0.0 0.0 0.0       284
ALA  20.760 1.00 Pg
AMD1 21.020 1.00 Pg
ANAR 42.080 1.00 Pn
ANJ  28.650 1.00 Pg
DMV   8.040 1.00 Pg
FIR  13.460 1.00 Pg
GLO  35.780 1.00 Pn
HAGD 43.700 1.00 Pn
JIR1 42.520 1.00 Pn
KLH  35.100 1.00 Pn
KLST 29.680 1.00 Pg
KRSH 23.200 1.00 Pg
LAS  14.040 1.00 Pg
MHD  24.040 1.00 Pg
MZPU 25.380 1.00 Pg
PRN  21.020 1.00 Pg
PIR  46.720 1.00 Pn
QAMS 29.320 1.00 Pg
QOM  18.360 1.00 Pg
RAM  56.300 1.00 Pn
RAZ  32.860 1.00 Pg
SFB  16.940 1.00 Pg
VRN   8.420 1.00 Pg
TEH  15.820 1.00 Pg
ZEF  40.250 1.00 Pn
# 2018 03 20 02 40 21.600000 35.953 53.391   8.0  4.4 0.0 0.0 0.0       285
ALA   9.680 1.00 Pg
AMD1 36.320 1.00 Pn
ANJ  12.740 1.00 Pg
DMV  21.860 1.00 Pg
FIR  11.760 1.00 Pg
GLO  12.700 1.00 Pg
LAS  13.300 1.00 Pg
MND  36.780 1.00 Pn
MRVT 46.600 1.00 Pn
MZPU 28.620 0.00 Pg
PRN  17.060 1.00 Pg
SFB  33.840 1.00 Pn
TEH  30.480 1.00 Pg
ZEF  51.840 0.00 Pn
ALA  17.060 1.00 Sg
AFRZ 81.620 0.00 Pn
AKL  69.330 0.00 Pn
ANAR 46.920 1.00 Pn
BAF  73.900 1.00 Pn
BRJ  70.000 0.00 Pn
BZA  75.000 0.00 Pn
CHK  61.360 0.00 Pn
CHMN 105.740 0.00 Pn
CSN1 60.400 0.00 Pn
DAH  94.630 0.00 Pn
EMG  70.500 1.00 Pn
GAR  60.120 0.00 Pn
GHG  89.280 0.00 Pn
HAGD 58.800 0.00 Pn
HRS  85.520 0.00 Pn
HSB  33.340 0.00 Pg
HSH  78.860 0.00 Pn
JIR1 50.400 1.00 Pn
JRKH 86.680 0.00 Pn
KAZ2 98.560 0.00 Pn
KCHF 84.320 0.00 Pn
KBAM 119.140 0.00 Pn
KFM  80.500 0.00 Pn
KHGB 93.660 0.00 Pn
KLH  50.330 0.00 Pn
KLST 36.000 1.00 Pn
KOO  89.130 0.00 Pn
KRD  78.460 0.00 Pn
KRM1 96.340 0.00 Pn
KRSH 39.360 0.00 Pn
MEH  73.340 0.00 Pn
MHD  39.800 0.00 Pn
MOG  75.300 0.00 Pn
MRD  101.400 1.00 Pn
MYA  83.880 1.00 Pn
NHDN 107.780 0.00 Pn
PAY  71.880 1.00 Pn
PIR  62.670 0.00 Pn
QAMS 46.240 0.00 Pn
QOM  38.860 0.00 Pn
RAM  67.230 1.00 Pn
RAZ  48.640 0.00 Pn
ZRDN 86.320 0.00 Pn
ZNGN 69.640 0.00 Pn
TVBK 99.900 0.00 Pn
TPRV 63.820 1.00 Pn
TNSJ 54.100 1.00 Pn
TKDS 61.940 1.00 Pn
TEG  83.120 0.00 Pn
TBZ  93.990 0.00 Pn
TBJM 87.200 1.00 Pn
TBHD 75.420 1.00 Pn
SRB  76.950 0.00 Pn
SHB  99.810 0.00 Pn
SBZV 56.320 1.00 Pn
SAD  63.930 0.00 Pn
NGRK 104.340 0.00 Pn
LHJ2 47.980 0.00 Pn
HSAM 68.460 0.00 Pn
DHR  90.400 0.00 Pn
VRN  31.040 1.00 Pg
PRN  30.280 1.00 Sg
# 2018 03 20 03 11 02.700000 35.972 53.341  10.0  1.3 0.0 0.0 0.0       286
ALA   9.040 1.00 Pg
FIR  11.160 1.00 Pg
GLO  13.160 1.00 Pg
LAS  13.630 1.00 Pg
ALA  16.300 1.00 Sg
# 2018 03 20 04 24 30.700000 35.640 52.352   8.3  2.2 0.0 0.0 0.0       287
ALA  11.420 1.00 Pg
DMV   5.880 1.00 Pg
FIR   7.060 1.00 Pg
VRN  16.060 1.00 Pg
SFB  24.560 1.00 Pg
PRN  11.920 1.00 Pg
MHD  25.920 1.00 Pg
LAS  11.210 1.00 Pg
HSB  17.400 1.00 Pg
# 2018 03 20 09 59 29.200000 35.388 50.573  11.1  1.5 0.0 0.0 0.0       288
HSB  11.780 1.00 Pg
MHD   6.680 1.00 Pg
MHD  11.400 1.00 Sg
QOM  13.260 1.00 Pg
VRN  19.880 1.00 Pg
DMV  23.080 1.00 Pg
# 2018 03 20 15 13 45.700000 36.087 53.315  12.0  1.1 0.0 0.0 0.0       289
FIR  13.340 1.00 Pg
GLO  12.120 1.00 Pg
LAS  14.620 1.00 Pg
VRN  31.700 1.00 Pg
PRN  15.660 1.00 Pg
FIR  22.840 1.00 Sg
# 2018 03 20 23 08 42.600000 35.970 53.360   8.0  2.0 0.0 0.0 0.0       290
ALA   9.540 1.00 Pg
ANJ  12.950 1.00 Pg
DMV  21.900 1.00 Pg
FIR  11.720 1.00 Pg
GLO  13.240 1.00 Pg
LAS  13.690 1.00 Pg
MZPU 28.940 1.00 Pg
PRN  16.940 1.00 Pg
SFB  34.180 1.00 Pn
VRN  31.320 1.00 Pg
# 2018 03 21 03 43 01.400000 35.958 53.367  10.0  1.6 0.0 0.0 0.0       291
ALA   9.580 1.00 Pg
ANJ  13.000 1.00 Pg
DMV  22.160 1.00 Pg
FIR  11.960 1.00 Pg
GLO  13.180 1.00 Pg
LAS  13.350 1.00 Pg
PRN  17.140 1.00 Pg
FIR  20.760 1.00 Sg
# 2018 03 21 07 19 39.700000 35.963 53.359   7.5  2.6 0.0 0.0 0.0       292
ALA   9.680 1.00 Pg
ANJ  13.200 1.00 Pg
FIR  11.880 1.00 Pg
GLO  13.120 1.00 Pg
KLST 35.740 1.00 Pn
LAS  13.180 1.00 Pg
MZPU 28.920 1.00 Pg
PRN  16.880 1.00 Pg
VRN  31.340 1.00 Pg
# 2018 03 21 11 20 24.200000 36.040 53.530  10.0  1.5 0.0 0.0 0.0       293
ALA  11.880 1.00 Pg
ANJ  13.210 1.00 Pg
DMV  25.060 1.00 Pg
GLO  10.220 1.00 Pg
LAS  15.710 1.00 Pg
PRN  19.340 1.00 Pg
LAS  27.490 1.00 Sg
# 2018 03 22 00 16 37.400000 35.331 50.969  10.0  1.6 0.0 0.0 0.0       294
RAZ  16.700 1.00 Pg
QOM  10.000 1.00 Pg
HSB   6.080 1.00 Pg
DMV  16.840 1.00 Pg
HSB  10.380 1.00 Sg
# 2018 03 22 20 01 11.500000 35.912 53.121   6.0  1.6 0.0 0.0 0.0       295
ALA   7.220 1.00 Pg
DMV  19.520 1.00 Pg
FIR   9.140 1.00 Pg
LAS  11.870 1.00 Pg
PRN  15.200 1.00 Pg
VRN  28.860 1.00 Pg
# 2018 03 22 20 46 58.500000 36.242 52.645   6.0  1.7 0.0 0.0 0.0       296
ALA   3.420 1.00 Pg
DMV  16.280 1.00 Pg
GLO  19.760 1.00 Pg
PRN   5.160 1.00 Pg
FIR  13.000 1.00 Pg
LAS  18.820 1.00 Pg
# 2018 03 23 00 37 38.200000 36.637 50.708  10.0  1.4 0.0 0.0 0.0       297
JIR1 14.420 1.00 Pg
KLST  6.240 1.00 Pg
LHJ2 14.440 1.00 Pg
KLST 11.740 1.00 Sg
# 2018 03 23 00 38 14.100000 35.226 50.578  10.0  1.5 0.0 0.0 0.0       298
HSB  11.620 1.00 Pg
MHD   9.660 1.00 Pg
QOM  11.680 1.00 Pg
RAZ  10.980 1.00 Pg
VRN  19.000 1.00 Pg
QOM  18.960 1.00 Sg
# 2018 03 24 03 22 11.800000 35.213 51.997  10.0  1.5 0.0 0.0 0.0       299
DMV   7.780 1.00 Pg
FIR  14.700 1.00 Pg
KRSH 23.720 1.00 Pg
LAS  15.880 1.00 Pg
QOM  16.000 1.00 Pg
SFB  17.240 1.00 Pg
VRN   7.380 1.00 Pg
LAS  27.820 1.00 Sg
# 2018 03 25 07 33 04.400000 35.739 52.176   8.0  1.9 0.0 0.0 0.0       300
ALA  12.560 1.00 Pg
DMV   4.520 1.00 Pg
DMV   7.820 1.00 Sg
FIR   9.460 1.00 Pg
LAS  14.730 1.00 Pg
PRN  10.280 1.00 Pg
SFB  26.380 1.00 Pg
VRN  16.560 1.00 Pg
# 2018 03 25 08 09 53.600000 35.289 50.676  17.6  1.6 0.0 0.0 0.0       301
DMV  21.500 1.00 Pg
HSB  10.480 1.00 Pg
MHD   8.680 1.00 Pg
QOM  10.720 1.00 Pg
SFB  28.960 1.00 Pg
VRN  17.900 1.00 Pg
MHD  14.460 1.00 Sg
# 2018 03 25 08 10 41.200000 35.281 50.693  10.0  1.7 0.0 0.0 0.0       302
DMV  21.680 1.00 Pg
HSB  10.320 1.00 Pg
MHD   8.460 1.00 Pg
QOM  10.540 1.00 Pg
MHD  14.380 1.00 Sg
# 2018 03 25 08 50 25.100000 35.228 52.338  10.0  1.4 0.0 0.0 0.0       303
DMV   9.040 1.00 Pg
FIR  10.660 1.00 Pg
LAS  10.850 1.00 Pg
QOM  20.740 1.00 Pg
SFB  17.180 1.00 Pg
VRN  11.260 1.00 Pg
VRN  19.740 1.00 Sg
# 2018 03 25 09 50 53.200000 36.389 52.294   8.0  2.0 0.0 0.0 0.0       304
ALA  10.020 1.00 Pg
DMV  16.300 1.00 Pg
GLO  24.040 1.00 Pg
PRN   3.200 1.00 Pg
PRN   6.180 1.00 Sg
SFB  37.060 1.00 Pn
VRN  28.060 1.00 Pg
# 2018 03 25 20 22 08.600000 35.657 49.029   8.0  2.7 0.0 0.0 0.0       305
HAGD 16.900 1.00 Pg
GRMI 54.400 1.00 Pn
HSAM 28.160 1.00 Pg
MHD  24.500 1.00 Pg
DMV  42.360 1.00 Pn
HSB  32.820 0.00 Pn
HSH  39.150 1.00 Pn
KLST 31.880 0.00 Pn
MZPU 39.060 1.00 Pn
RAZ  15.300 1.00 Pg
RAZ  27.860 1.00 Sg
QOM  34.160 1.00 Pn
# 2018 03 26 06 35 53.800000 35.653 51.515  12.0  1.6 0.0 0.0 0.0       306
DMV   8.820 1.00 Pg
HSB   6.180 1.00 Pg
VRN  13.260 1.00 Pg
QOM  17.000 1.00 Pg
DMV  15.460 1.00 Sg
# 2018 03 26 07 31 53.900000 35.656 51.522   8.0  1.5 0.0 0.0 0.0       307
DMV   8.720 1.00 Pg
HSB   6.180 1.00 Pg
VRN  13.340 1.00 Pg
PRN  17.180 1.00 Pg
SFB  26.980 1.00 Pg
# 2018 03 26 07 47 11.500000 36.735 51.534  10.0  2.9 0.0 0.0 0.0       308
ALA  23.040 1.00 Pg
ANJ  40.860 1.00 Pn
DMV  23.140 1.00 Pg
GLO  33.820 1.00 Pn
HSB  25.340 1.00 Pg
KLST  8.300 1.00 Pg
LAS  32.640 1.00 Pg
MHD  23.660 1.00 Pg
MZPU  5.260 1.00 Pg
PRN  15.580 1.00 Pg
QOM  35.180 1.00 Pn
VRN  32.280 1.00 Pg
SFB  43.540 1.00 Pn
PRN  27.680 1.00 Sg
# 2018 03 27 02 53 24.200000 37.302 50.257  10.0  2.7 0.0 0.0 0.0       309
LHJ2  4.400 1.00 Pg
MZPU 28.760 1.00 Pg
RAZ  38.420 1.00 Pn
MZPU 43.900 1.00 Sg
LHJ2  8.760 1.00 Sg
# 2018 03 28 06 14 42.900000 35.826 51.865  10.0  1.3 0.0 0.0 0.0       310
DMV   6.360 1.00 Pg
FIR  14.020 1.00 Pg
LAS  20.230 1.00 Pg
MZPU 13.220 1.00 Pg
PRN  11.180 1.00 Pg
QOM  22.540 1.00 Pg
SFB  28.220 1.00 Pg
VRN  16.700 1.00 Pg
# 2018 03 28 07 39 53.300000 37.111 50.354  25.2  2.5 0.0 0.0 0.0       311
GLO  46.080 1.00 Pn
KLST 16.340 1.00 Pg
MHD  26.820 1.00 Pg
MZPU 22.640 1.00 Pg
PRN  31.980 1.00 Pn
RAZ  29.900 1.00 Pg
CSN1 20.560 1.00 Pg
HAGD 40.760 1.00 Pn
# 2018 03 28 11 50 47.100000 37.064 53.654  12.2  2.8 0.0 0.0 0.0       312
ALA  24.260 1.00 Pg
ANJ  32.640 1.00 Pg
GLO  13.080 1.00 Pg
LAS  34.710 1.00 Pg
MND  26.820 1.00 Pg
PRN  26.660 1.00 Pg
GLO  20.860 1.00 Sg
MRVT 36.820 1.00 Pn
MZPU 34.620 1.00 Pg
PRN  45.500 1.00 Sg
