# 2018 03 28 12 11 48.600000 37.001 53.607  10.0  2.3 0.0 0.0 0.0       313
ALA  21.880 1.00 Pg
ALA  38.900 1.00 Sg
GLO  10.660 1.00 Pg
PRN  42.700 1.00 Sg
LAS  56.830 1.00 Sg
# 2018 03 28 22 36 32.500000 35.570 50.184  10.0  1.8 0.0 0.0 0.0       314
DMV  28.840 1.00 Pg
MHD   8.380 1.00 Pg
MZPU 26.880 1.00 Pg
RAZ   6.040 1.00 Pg
RAZ   9.940 1.00 Sg
QOM  19.400 1.00 Pg
VRN  26.380 1.00 Pg
SFB  37.740 1.00 Pn
FIR  38.260 1.00 Pn
# 2018 03 29 07 00 53.100000 35.659 51.521  10.0  1.5 0.0 0.0 0.0       315
DMV   8.500 1.00 Pg
DMV  15.720 1.00 Sg
HSB   6.560 1.00 Pg
VRN  13.300 1.00 Pg
# 2018 03 29 07 23 07.500000 35.336 49.316  10.0  2.3 0.0 0.0 0.0       316
HAGD 10.960 1.00 Pg
HSAM 22.480 1.00 Pg
QABG  9.440 1.00 Pg
QABG 16.900 1.00 Sg
RAZ   9.660 1.00 Pg
RAZ  22.120 1.00 Sg
# 2018 03 29 10 29 02.000000 35.536 50.210  10.0  2.2 0.0 0.0 0.0       317
MHD   8.360 1.00 Pg
QOM  19.140 1.00 Pg
RAZ   5.760 1.00 Pg
VRN  26.020 1.00 Pg
QABG 16.680 0.00 Pg
HSB  16.900 1.00 Pg
# 2018 03 30 06 15 58.400000 35.295 51.895  16.9  2.0 0.0 0.0 0.0       318
ALA  19.920 1.00 Pg
DMV   6.760 1.00 Pg
HSB  10.560 1.00 Pg
KLH  35.030 1.00 Pn
LAS  17.330 1.00 Pg
PRN  19.920 1.00 Pg
QAMS 29.300 1.00 Pg
QOM  16.180 1.00 Pg
RAZ  30.220 1.00 Pg
VRN   7.400 1.00 Pg
SFB  19.080 1.00 Pg
# 2018 03 30 15 07 27.800000 36.029 53.168   7.8  3.0 0.0 0.0 0.0       319
ALA   6.460 1.00 Pg
ANAR 48.160 1.00 Pn
AMD1 34.760 1.00 Pn
ANJ  16.100 1.00 Pg
DMV  19.840 1.00 Pg
DMV  34.680 1.00 Sg
FIR  10.360 1.00 Pg
FIR  18.440 1.00 Sg
GLO  14.080 1.00 Pg
GLO  25.020 1.00 Sg
HSB  30.760 0.00 Pg
KLH  50.240 1.00 Pn
KLST 32.900 1.00 Pg
LAS  13.150 1.00 Pg
MHD  37.580 1.00 Pn
MRVT 47.220 1.00 Pn
MZPU 26.280 0.00 Pg
PRN  13.660 1.00 Pg
QOM  37.760 0.00 Pn
SFB  33.820 0.00 Pn
TPRV 66.180 1.00 Pn
VRN  29.540 0.00 Pg
ZEF  52.630 0.00 Pn
# 2018 03 30 17 13 46.500000 36.033 53.183  10.0  1.5 0.0 0.0 0.0       320
LAS  13.360 1.00 Pg
FIR  10.740 1.00 Pg
ALA   6.660 1.00 Pg
ALA  11.580 1.00 Sg
# 2018 03 30 18 47 06.300000 36.021 53.179  13.0  1.8 0.0 0.0 0.0       321
ALA   6.440 1.00 Pg
DMV  19.760 1.00 Pg
FIR  10.460 1.00 Pg
GLO  13.940 1.00 Pg
LAS  13.080 1.00 Pg
PRN  13.800 1.00 Pg
SFB  33.660 1.00 Pn
VRN  29.640 1.00 Pg
ALA  11.620 1.00 Sg
# 2018 03 30 21 02 30.100000 34.193 51.367  22.8  1.7 0.0 0.0 0.0       322
KLH  17.110 1.00 Pg
LAS  31.770 1.00 Pg
QAMS  9.240 1.00 Pg
QOM  13.460 1.00 Pg
RAM  41.150 1.00 Pn
SFB  14.780 1.00 Pg
VRN  16.860 1.00 Pg
ZEF  28.780 1.00 Pg
SFB  24.980 1.00 Sg
# 2018 03 31 06 17 05.100000 35.417 52.445  10.0  1.4 0.0 0.0 0.0       323
DMV   7.660 1.00 Pg
DMV  13.840 1.00 Sg
FIR   7.120 1.00 Pg
LAS   8.720 1.00 Pg
# 2018 03 31 19 09 45.000000 35.929 53.255  10.0  1.5 0.0 0.0 0.0       324
ALA   8.260 1.00 Pg
ALA  14.440 1.00 Sg
DMV  20.460 1.00 Pg
FIR  10.140 1.00 Pg
KIA   9.140 1.00 Pg
LAS  12.070 1.00 Pg
# 2018 04 01 00 01 31.800000 35.769 50.949  24.0  2.1 0.0 0.0 0.0       325
AMD1  4.260 1.00 Pg
DMV  17.460 1.00 Pg
FIR  27.420 1.00 Pg
HSB   9.160 1.00 Pg
HSB  15.620 1.00 Sg
KLST 14.880 1.00 Pg
LAS  31.030 1.00 Pg
MHD   6.380 1.00 Pg
QOM  17.700 1.00 Pg
RAZ  17.440 1.00 Pg
TEH   8.240 1.00 Pg
VRN  19.160 1.00 Pg
# 2018 04 01 01 28 35.100000 34.882 51.981  18.0  2.1 0.0 0.0 0.0       326
DMV  14.000 1.00 Pg
DMV  24.080 1.00 Sg
KRSH 17.620 1.00 Pg
LAS  18.300 1.00 Pg
QAMS 22.960 1.00 Pg
QOM  15.220 1.00 Pg
SFB  11.920 1.00 Pg
QOM  26.060 1.00 Sg
VRN   6.680 1.00 Pg
VRN  11.140 1.00 Sg
# 2018 04 01 17 28 45.900000 35.042 53.537  10.0  1.5 0.0 0.0 0.0       327
ANJ  10.290 1.00 Pg
FIR  16.860 1.00 Pg
LAS  12.220 1.00 Pg
SFB  23.640 1.00 Pg
FIR  28.880 1.00 Sg
# 2018 04 01 18 26 21.900000 35.564 52.412   9.2  4.1 0.0 0.0 0.0       328
AFRZ 89.440 1.00 Pn
AKL  80.890 0.00 Pn
ALA  11.780 1.00 Pg
ALA  20.900 1.00 Sg
AMD1 23.080 1.00 Pg
ANAR 44.020 1.00 Pn
ANJ  23.040 1.00 Pg
BAF  74.580 0.00 Pn
BRJ  61.280 0.00 Pn
BSRN 99.940 0.00 Pn
BZA  63.160 0.00 Pn
CHK  59.470 0.00 Pn
DAH  101.830 0.00 Pn
DHR  78.440 0.00 Pn
DMV   6.480 1.00 Pg
DMV  11.600 1.00 Sg
EMG  83.350 0.00 Pn
FIR   6.000 1.00 Pg
GAR  53.080 0.00 Pn
GAS1 64.480 0.00 Pn
GHG  77.360 0.00 Pn
GLO  28.140 1.00 Pg
GRMI 76.320 0.00 Pn
HAGD 47.160 0.00 Pn
HSAM 56.560 0.00 Pn
HSB  17.940 1.00 Pg
HSH  70.920 0.00 Pn
ILBA 83.800 0.00 Pn
JHBN 59.720 0.00 Pn
KAZ2 91.220 0.00 Pn
KCHF 72.880 0.00 Pn
KFM  68.260 0.00 Pn
KHGB 94.000 0.00 Pn
KLH  40.890 0.00 Pn
KLNJ 73.080 0.00 Pn
KLST 26.920 1.00 Pg
KOO  95.330 0.00 Pn
KRD  89.980 0.00 Pn
LAS   9.910 1.00 Pg
LHJ2 42.960 1.00 Pn
MEH  71.240 1.00 Pn
MND  49.140 1.00 Pn
MRVT 58.680 1.00 Pn
MYA  94.760 0.00 Pn
MZPU 21.120 1.00 Pg
PIR  52.770 0.00 Pn
PRN  13.180 1.00 Pg
QAMS 36.020 1.00 Pn
QOM  24.460 1.00 Pg
RAM  60.620 0.00 Pn
RAZ  36.340 1.00 Pn
SAD  61.160 1.00 Pn
SBZV 67.960 1.00 Pn
SFB  23.220 1.00 Pg
ZEF  45.180 1.00 Pn
VRN  15.800 1.00 Pg
TPRV 68.800 1.00 Pn
TKDS 68.480 0.00 Pn
TEH  16.560 1.00 Pg
TEG  90.220 0.00 Pn
TBJM 98.100 0.00 Pn
SHRT 101.860 0.00 Pn
MHD  26.860 1.00 Pg
# 2018 04 01 23 30 51.900000 35.275 51.533  12.0  1.9 0.0 0.0 0.0       329
DMV  10.360 1.00 Pg
FIR  19.260 1.00 Pg
HSB   6.040 1.00 Pg
KRSH 25.940 1.00 Pg
LAS  22.220 1.00 Pg
PRN  22.500 1.00 Pg
QAMS 28.200 1.00 Pg
QOM  11.520 1.00 Pg
SFB  20.800 1.00 Pg
VRN   7.360 1.00 Pg
QOM  20.500 1.00 Sg
# 2018 04 02 01 20 53.400000 36.139 52.682  10.0  0.8 0.0 0.0 0.0       330
ALA   3.560 1.00 Pg
DMV  15.140 1.00 Pg
FIR  10.120 1.00 Pg
PRN   5.460 1.00 Pg
PRN  11.580 1.00 Sg
# 2018 04 02 08 15 06.000000 36.683 49.740  10.0  2.6 0.0 0.0 0.0       331
CSN1 19.900 1.00 Pg
KLST 21.020 1.00 Pg
MHD  24.620 1.00 Pg
MZPU 28.300 1.00 Pg
RAZ  23.520 1.00 Pg
RAZ  44.160 1.00 Sg
# 2018 04 02 08 23 26.700000 35.569 50.175  10.0  2.7 0.0 0.0 0.0       332
RAZ   5.900 1.00 Pg
QOM  19.180 1.00 Pg
MHD   8.280 1.00 Pg
KLST 22.340 1.00 Pg
HAGD 22.080 1.00 Pg
AMD1 13.760 1.00 Pg
AMD1 23.600 1.00 Sg
# 2018 04 02 08 30 36.000000 35.614 50.161  10.0  2.0 0.0 0.0 0.0       333
DMV  29.240 1.00 Pg
MHD   8.540 1.00 Pg
MHD  14.400 1.00 Sg
RAZ   5.860 1.00 Pg
RAZ   9.780 1.00 Sg
# 2018 04 02 08 31 07.800000 35.542 50.202  10.0  2.1 0.0 0.0 0.0       334
MHD   8.560 1.00 Pg
MHD  14.500 1.00 Sg
RAZ   5.880 1.00 Pg
RAZ   9.900 1.00 Sg
QOM  19.300 1.00 Pg
# 2018 04 02 09 12 37.500000 35.579 50.151  16.0  2.0 0.0 0.0 0.0       335
DMV  28.480 1.00 Pg
MHD   9.120 1.00 Pg
QABG 17.220 0.00 Pg
QOM  19.980 1.00 Pg
RAZ   6.160 1.00 Pg
VRN  26.660 1.00 Pg
RAZ  10.140 1.00 Sg
# 2018 04 02 13 42 54.700000 35.745 52.518  10.0  1.5 0.0 0.0 0.0       336
ALA   8.500 1.00 Pg
DMV   8.780 1.00 Pg
DMV  15.580 1.00 Sg
FIR   4.980 1.00 Pg
PRN  10.420 1.00 Pg
# 2018 04 02 17 49 38.000000 36.493 51.065  10.0  1.8 0.0 0.0 0.0       337
KLST  2.260 1.00 Pg
MZPU  8.360 1.00 Pg
PRN  20.240 1.00 Pg
RAZ  27.100 1.00 Pg
VRN  30.740 1.00 Pg
KLST  4.500 1.00 Sg
# 2018 04 02 20 23 23.200000 36.530 51.063  10.0  2.0 0.0 0.0 0.0       338
KLST  2.280 1.00 Pg
KLST  4.740 1.00 Sg
MHD  17.400 1.00 Pg
LHJ2 19.580 1.00 Pg
MZPU  8.500 1.00 Pg
PRN  20.560 1.00 Pg
# 2018 04 02 20 40 44.200000 35.537 50.188  10.0  2.3 0.0 0.0 0.0       339
AMD1 14.040 1.00 Pg
AMD1 24.240 1.00 Sg
DMV  28.320 1.00 Pg
FIR  38.740 1.00 Pn
HSB  17.600 1.00 Pg
HSB  30.240 1.00 Sg
KLST 22.580 1.00 Pg
MHD   8.600 1.00 Pg
QOM  19.340 1.00 Pg
RAZ   5.460 1.00 Pg
RAZ   9.940 1.00 Sg
# 2018 04 03 14 25 26.100000 36.941 53.254  14.0  2.5 0.0 0.0 0.0       340
ALA  18.080 1.00 Pg
ANJ  29.340 1.00 Pg
DMV  30.900 1.00 Pg
FIR  25.820 1.00 Pg
GLO  12.580 1.00 Pg
LAS  28.700 1.00 Pg
GLO  21.820 1.00 Sg
PRN  19.380 1.00 Pg
SFB  44.760 1.00 Pn
VRN  39.620 1.00 Pn
# 2018 04 03 20 26 30.900000 36.286 52.383   8.0  3.2 0.0 0.0 0.0       341
AFRZ 93.560 0.00 Pn
ALA   8.180 1.00 Pg
AMD1 24.760 1.00 Pg
ANAR 54.360 0.00 Pn
ANJ  28.770 1.00 Pg
CSN1 47.640 0.00 Pn
DMV  15.060 1.00 Pg
EMG  80.120 0.00 Pn
FIR  13.560 1.00 Pg
GLO  23.000 1.00 Pg
HAGD 50.360 0.00 Pn
HRS  73.330 0.00 Pn
HSAM 60.580 0.00 Pn
HSB  23.540 1.00 Pg
KLH  51.200 0.00 Pn
KLST 20.940 1.00 Pg
KOO  101.140 0.00 Pn
LAS  19.400 1.00 Pg
MHD  29.060 0.00 Pg
MND  43.960 1.00 Pn
MZPU 13.280 1.00 Pg
PAY  82.670 0.00 Pn
PRN   2.500 1.00 Pg
QAMS 45.840 0.00 Pn
QOM  33.100 0.00 Pg
SBZV 67.260 1.00 Pn
SFB  35.920 1.00 Pn
LHJ2 35.480 0.00 Pn
SRB  64.690 0.00 Pn
SFR  72.390 0.00 Pn
TEH  17.900 0.00 Pg
TKDS 73.620 0.00 Pn
TPRV 75.060 0.00 Pn
ZEF  56.050 0.00 Pn
ZNGN 69.480 0.00 Pn
VRN  26.640 1.00 Pg
TEG  95.380 0.00 Pn
# 2018 04 03 22 04 54.300000 37.080 52.715  10.0  1.7 0.0 0.0 0.0       342
FIR  26.960 1.00 Pg
GLO  20.300 1.00 Pg
LAS  31.250 1.00 Pg
MZPU 22.200 1.00 Pg
PRN  17.140 1.00 Pg
GLO  36.840 1.00 Sg
# 2018 04 04 03 05 05.500000 35.476 52.500  10.0  1.2 0.0 0.0 0.0       343
DMV   8.000 1.00 Pg
VRN  15.400 1.00 Pg
LAS   7.750 1.00 Pg
FIR   5.640 1.00 Pg
FIR  10.240 1.00 Sg
# 2018 04 04 19 25 25.700000 35.218 52.000  10.0  1.4 0.0 0.0 0.0       344
DMV   7.160 1.00 Pg
DMV  13.440 1.00 Sg
LAS  15.720 1.00 Pg
VRN   6.660 1.00 Pg
# 2018 04 05 04 16 47.700000 36.369 52.401  18.0  2.3 0.0 0.0 0.0       345
ALA   9.240 1.00 Pg
DMV  16.320 1.00 Pg
FIR  15.200 1.00 Pg
GLO  22.140 1.00 Pg
KLST 20.400 1.00 Pg
LAS  20.860 1.00 Pg
MZPU 13.480 1.00 Pg
SFB  35.020 1.00 Pn
VRN  27.440 1.00 Pg
PRN   4.880 1.00 Pg
MZPU 23.880 1.00 Sg
# 2018 04 05 11 01 45.600000 35.647 53.072  10.0  1.5 0.0 0.0 0.0       346
ALA   8.020 0.50 Pg
DMV  16.640 1.00 Pg
FIR   5.060 1.00 Pg
GLO  20.660 1.00 Pg
LAS   6.160 1.00 Pg
VRN  24.560 1.00 Pg
FIR  10.560 1.00 Sg
# 2018 04 05 15 50 23.000000 34.163 52.266   9.2  2.3 0.0 0.0 0.0       347
ANAR 29.800 1.00 Pg
DMV  26.840 1.00 Pg
FIR  28.500 1.00 Pg
HSB  29.480 1.00 Pg
KLH  19.740 1.00 Pg
LAS  26.430 1.00 Pg
PIR  35.150 1.00 Pn
QAMS 16.280 1.00 Pg
QOM  22.700 1.00 Pg
RAM  42.790 0.50 Pn
SFB   4.800 1.00 Pg
SFB   7.780 1.00 Sg
VRN  18.720 1.00 Pg
ZEF  24.270 1.00 Pg
VRN  32.100 1.00 Sg
# 2018 04 05 18 39 03.000000 35.799 52.462  10.0  2.3 0.0 0.0 0.0       348
ALA   8.280 1.00 Pg
DMV   8.540 1.00 Pg
FIR   6.080 1.00 Pg
HSB  19.800 1.00 Pg
KIA  20.660 1.00 Pg
KLST 26.020 1.00 Pg
LAS  11.740 1.00 Pg
MZPU 18.500 1.00 Pg
PRN   9.320 1.00 Pg
SFB  27.520 1.00 Pg
VRN  19.460 1.00 Pg
FIR  10.780 1.00 Sg
# 2018 04 06 00 16 36.300000 35.564 50.181  10.0  2.7 0.0 0.0 0.0       349
AMD1 13.880 1.00 Pg
DMV  28.240 1.00 Pg
HAGD 22.020 1.00 Pg
HSB  17.620 1.00 Pg
KLST 22.580 1.00 Pg
MHD   8.600 1.00 Pg
LHJ2 30.260 1.00 Pg
MZPU 27.080 1.00 Pg
QOM  19.320 1.00 Pg
RAZ   5.640 1.00 Pg
RAZ   9.780 1.00 Sg
# 2018 04 06 09 49 06.900000 35.849 51.790  10.0  1.7 0.0 0.0 0.0       350
DMV   7.000 1.00 Pg
HSB  11.480 1.00 Pg
VRN  16.980 1.00 Pg
VRN  28.600 1.00 Sg
# 2018 04 06 17 36 57.500000 36.773 51.516   8.5  3.0 0.0 0.0 0.0       351
ALA  24.100 1.00 Pg
AMD1 21.660 1.00 Pg
ANJ  41.730 0.00 Pn
ANAR 63.360 0.00 Pn
DMV  24.340 1.00 Pg
FIR  28.920 1.00 Pg
EMG  88.220 1.00 Pn
GLO  34.640 1.00 Pn
HSB  26.040 0.00 Pg
KRSH 47.680 0.00 Pn
LAS  34.070 0.00 Pn
LHJ2 23.800 1.00 Pg
HRS  62.130 1.00 Pn
VRN  33.620 0.00 Pg
MHD  24.720 1.00 Pg
PRN  16.260 1.00 Pg
PRN  29.020 1.00 Sg
QAMS 50.920 0.00 Pn
QOM  35.620 0.00 Pn
RAZ  34.440 1.00 Pn
SFB  43.060 0.00 Pn
SRB  52.800 1.00 Pn
TEH  19.820 1.00 Pg
TEH  35.040 1.00 Sg
# 2018 04 06 18 22 33.800000 35.557 50.200   8.0  2.9 0.0 0.0 0.0       352
AMD1 13.460 1.00 Pg
DMV  28.020 1.00 Pg
FIR  37.840 1.00 Pn
HAGD 21.840 1.00 Pg
HSB  17.300 1.00 Pg
LAS  40.400 1.00 Pn
LHJ2 30.360 1.00 Pg
MHD   8.420 1.00 Pg
PRN  35.020 1.00 Pn
QOM  19.160 1.00 Pg
RAZ   5.920 1.00 Pg
SFB  37.560 1.00 Pn
VRN  26.060 1.00 Pg
# 2018 04 06 18 44 19.500000 35.525 50.222  10.0  1.7 0.0 0.0 0.0       353
MHD   8.160 1.00 Pg
QOM  18.780 1.00 Pg
RAZ   5.800 1.00 Pg
# 2018 04 07 05 44 57.800000 35.577 50.186   9.0  2.1 0.0 0.0 0.0       354
VRN  26.380 1.00 Pg
RAZ   5.980 1.00 Pg
QOM  18.900 1.00 Pg
MHD   8.440 1.00 Pg
KLST 22.600 1.00 Pg
HAGD 21.700 1.00 Pg
DMV  27.580 1.00 Pg
FIR  37.560 1.00 Pn
VRN  45.640 1.00 Sg
# 2018 04 07 21 14 50.600000 36.065 53.187  10.0  1.9 0.0 0.0 0.0       355
ALA   6.800 1.00 Pg
ALA  12.220 1.00 Sg
DMV  20.180 1.00 Pg
FIR  11.240 1.00 Pg
GLO  13.140 1.00 Pg
GLO  24.140 1.00 Sg
LAS  14.260 1.00 Pg
PRN  13.280 1.00 Pg
# 2018 04 08 21 34 24.500000 36.112 52.254   7.3  1.2 0.0 0.0 0.0       356
ALA   9.220 1.00 Pg
DMV  11.000 1.00 Pg
FIR  12.040 1.00 Pg
KLST 20.300 1.00 Pg
MZPU 12.720 1.00 Pg
PRN   3.560 1.00 Pg
SFB  32.960 1.00 Pg
VRN  23.120 1.00 Pg
# 2018 04 09 02 29 04.200000 34.635 52.235  12.0  1.5 0.0 0.0 0.0       357
VRN  11.200 1.00 Pg
ZEF  31.670 1.00 Pg
SFB   6.920 1.00 Pg
QAMS 21.960 1.00 Pg
KLH  26.810 1.00 Pg
QAMS 38.700 1.00 Sg
# 2018 04 09 04 49 10.100000 35.587 50.166  13.0  1.8 0.0 0.0 0.0       358
VRN  26.960 1.00 Pg
RAZ   5.740 1.00 Pg
QOM  18.900 1.00 Pg
MHD   8.300 1.00 Pg
KLST 22.160 1.00 Pg
HAGD 21.520 1.00 Pg
DMV  28.300 1.00 Pg
DMV  48.740 1.00 Sg
# 2018 04 09 09 57 43.000000 35.617 53.475  10.0  1.3 0.0 0.0 0.0       359
SFB  31.040 1.00 Pg
LAS   9.680 1.00 Pg
FIR  11.880 1.00 Pg
ANJ   8.050 1.00 Pg
# 2018 04 09 11 13 44.600000 36.563 53.206   8.0  1.9 0.0 0.0 0.0       360
ALA  11.640 1.00 Pg
DMV  26.460 1.00 Pg
GLO  10.240 1.00 Pg
KLST 32.300 1.00 Pg
MZPU 25.500 1.00 Pg
PRN  15.140 1.00 Pg
# 2018 04 09 20 34 09.500000 35.788 53.276  10.0  1.4 0.0 0.0 0.0       361
ALA  10.080 1.00 Pg
DMV  20.360 1.00 Pg
FIR   9.060 1.00 Pg
LAS   9.950 1.00 Pg
GLO  16.260 1.00 Pg
FIR  15.860 1.00 Sg
# 2018 04 09 22 22 59.300000 35.460 52.350  10.0  1.1 0.0 0.0 0.0       362
DMV   6.120 1.00 Pg
FIR   7.900 1.00 Pg
LAS  10.400 1.00 Pg
LAS  17.700 1.00 Sg
# 2018 04 09 22 25 09.200000 35.397 52.337  10.0  1.0 0.0 0.0 0.0       363
DMV   6.760 1.00 Pg
FIR   8.440 1.00 Pg
LAS   9.810 1.00 Pg
LAS  18.390 1.00 Sg
# 2018 04 09 22 46 44.200000 35.385 52.335  10.0  1.0 0.0 0.0 0.0       364
DMV   6.720 1.00 Pg
FIR   8.740 1.00 Pg
LAS  10.330 1.00 Pg
FIR  15.500 1.00 Sg
# 2018 04 09 22 55 22.000000 34.146 53.277  10.0  1.7 0.0 0.0 0.0       365
ANAR 19.700 1.00 Pg
DMV  32.160 1.00 Pg
FIR  28.580 1.00 Pg
LAS  24.980 1.00 Pg
QAMS 29.880 1.00 Pg
ZEF  28.790 1.00 Pg
# 2018 04 09 23 10 54.600000 35.952 53.150  10.0  1.7 0.0 0.0 0.0       366
ALA   6.580 1.00 Pg
ALA  11.920 1.00 Sg
DMV  18.700 1.00 Pg
FIR   8.880 1.00 Pg
GLO  15.260 1.00 Pg
LAS  12.500 1.00 Pg
# 2018 04 10 09 53 40.800000 35.225 52.026  11.0  1.6 0.0 0.0 0.0       367
VRN   6.800 1.00 Pg
SFB  16.540 1.00 Pg
QOM  16.560 1.00 Pg
MZPU 23.980 1.00 Pg
LAS  15.400 1.00 Pg
FIR  14.100 1.00 Pg
DMV   7.240 1.00 Pg
VRN  12.420 1.00 Sg
# 2018 04 10 13 18 08.600000 36.636 50.200  10.0  2.8 0.0 0.0 0.0       368
DMV  35.080 1.00 Pn
JIR1  7.100 1.00 Pg
JIR1 11.720 1.00 Sg
KLST 13.920 1.00 Pg
MHD  20.400 1.00 Pg
MZPU 22.040 1.00 Pg
PRN  33.620 1.00 Pg
QABG 26.620 0.00 Pg
RAZ  24.060 1.00 Pg
# 2018 04 11 00 47 41.200000 35.173 52.006  10.0  2.1 0.0 0.0 0.0       369
DMV   8.360 1.00 Pg
FIR  15.080 1.00 Pg
LAS  15.830 1.00 Pg
VRN   6.240 1.00 Pg
SFB  16.360 1.00 Pg
QOM  16.260 1.00 Pg
# 2018 04 11 10 39 12.300000 35.565 50.190   9.2  1.9 0.0 0.0 0.0       370
DMV  28.820 1.00 Pg
KLST 22.660 1.00 Pg
MHD   8.640 1.00 Pg
MHD  14.440 1.00 Sg
MZPU 27.400 1.00 Pg
QOM  19.360 1.00 Pg
RAZ   5.940 1.00 Pg
RAZ   9.960 1.00 Sg
VRN  26.760 1.00 Pg
# 2018 04 11 10 57 25.300000 35.754 53.097   5.0  1.1 0.0 0.0 0.0       371
FIR   6.620 1.00 Pg
DMV  18.180 1.00 Pg
LAS   7.860 1.00 Pg
SFB  29.940 1.00 Pg
ALA   8.480 1.00 Pg
# 2018 04 11 20 10 34.200000 36.025 52.564  10.0  1.3 0.0 0.0 0.0       372
ALA   4.800 1.00 Pg
DMV  11.800 1.00 Pg
FIR   8.180 1.00 Pg
PRN   5.780 1.00 Pg
SFB  32.040 1.00 Pg
PRN  10.540 1.00 Sg
# 2018 04 12 01 14 45.400000 36.527 53.052  10.0  1.7 0.0 0.0 0.0       373
ALA  10.200 1.00 Pg
DMV  23.740 1.00 Pg
FIR  17.900 1.00 Pg
GLO  12.660 1.00 Pg
LAS  21.680 1.00 Pg
PRN  13.220 1.00 Pg
MZPU 22.980 1.00 Pg
ALA  17.600 1.00 Sg
# 2018 04 12 06 15 59.900000 35.711 51.457  10.0  1.7 0.0 0.0 0.0       374
DMV  10.240 1.00 Pg
HSB   5.880 1.00 Pg
QOM  18.280 1.00 Pg
SFB  27.440 1.00 Pg
VRN  14.920 1.00 Pg
DMV  16.940 1.00 Sg
# 2018 04 12 06 18 32.800000 35.208 51.363  10.0  1.4 0.0 0.0 0.0       375
DMV  13.100 1.00 Pg
QOM   8.900 1.00 Pg
VRN   7.880 1.00 Pg
VRN  13.180 1.00 Sg
# 2018 04 12 21 05 56.600000 35.724 52.072  17.2  1.3 0.0 0.0 0.0       376
DMV   4.560 1.00 Pg
FIR  11.000 1.00 Pg
PRN  19.820 1.00 Sg
PRN  11.060 1.00 Pg
SFB  26.220 1.00 Pg
QOM  39.920 1.00 Sg
# 2018 04 12 22 21 48.700000 36.690 53.137  10.0  2.3 0.0 0.0 0.0       377
ALA  13.240 1.00 Pg
DMV  26.700 1.00 Pg
FIR  20.940 1.00 Pg
GLO  10.880 1.00 Pg
LAS  24.990 1.00 Pg
PRN  14.840 1.00 Pg
MRVT 43.920 1.00 Pn
GLO  20.280 1.00 Sg
# 2018 04 13 03 00 19.800000 36.354 52.110  10.0  1.8 0.0 0.0 0.0       378
ALA  12.260 1.00 Pg
DMV  15.280 1.00 Pg
FIR  17.320 1.00 Pg
KLST 16.420 1.00 Pg
MZPU  9.620 1.00 Pg
PRN   5.100 1.00 Pg
# 2018 04 13 09 30 46.400000 36.838 49.910   0.0  2.1 0.0 0.0 0.0       379
JIR1  3.100 1.00 Pg
JIR1  5.320 1.00 Sg
KLST 20.140 1.00 Pg
MZPU 28.000 1.00 Pg
QABG 24.180 1.00 Pg
# 2018 04 13 11 48 35.900000 36.690 49.853  16.0  2.6 0.0 0.0 0.0       380
JIR1  3.580 1.00 Pg
JIR1  5.580 1.00 Sg
KLST 19.140 1.00 Pg
MHD  22.680 1.00 Pg
QSDN 12.100 1.00 Pg
QSDN 20.060 1.00 Sg
RAZ  24.140 1.00 Pg
LHJ2  9.820 1.00 Pg
# 2018 04 13 16 42 22.500000 35.484 50.248  10.0  1.8 0.0 0.0 0.0       381
MHD   8.340 1.00 Pg
QABG 16.980 0.00 Pg
RAZ   5.920 1.00 Pg
HAGD 21.740 1.00 Pg
MHD  14.260 1.00 Sg
# 2018 04 14 00 43 40.500000 36.167 52.550   8.0  1.7 0.0 0.0 0.0       382
ALA   4.960 1.00 Pg
DMV  13.980 1.00 Pg
FIR  11.080 1.00 Pg
PRN   3.920 1.00 Pg
PRN   7.160 1.00 Sg
LAS  14.680 0.00 Pg
SFB  34.120 1.00 Pn
# 2018 04 15 07 50 30.900000 34.180 49.047   9.0  1.1 0.0 0.0 0.0       383
BDRS  6.020 1.00 Pg
HSAM  7.740 1.00 Pg
HAGD 12.680 1.00 Pg
BDRS  9.860 1.00 Sg
# 2018 04 15 09 49 25.000000 35.566 50.187   9.3  3.4 0.0 0.0 0.0       384
ANAR 60.280 0.00 Pn
BDRS 35.500 1.00 Pn
BZA  39.520 0.00 Pn
DHR  54.120 1.00 Pn
DOB  43.060 0.00 Pn
FIR  37.400 0.00 Pn
GHG  53.960 0.00 Pn
GRMI 59.820 1.00 Pn
DMV  27.840 1.00 Pg
VRN  26.100 1.00 Pg
TKDS 91.520 0.00 Pn
TEH  18.860 1.00 Pg
TEHA 18.820 0.00 Pg
SRB  49.950 1.00 Pn
SFB  37.080 1.00 Pn
RAZ   5.640 1.00 Pg
QOM  18.920 1.00 Pg
QAMS 36.920 1.00 Pn
PRN  35.060 0.00 Pn
MZPU 26.760 0.00 Pg
MHD   8.140 1.00 Pg
LIN  46.820 1.00 Pn
LHJ2 30.460 1.00 Pg
LAS  39.730 0.00 Pn
KLST 22.480 1.00 Pg
KLH  43.330 0.00 Pn
KFM  47.400 0.00 Pn
GLO  50.720 0.00 Pn
HAGD 21.820 1.00 Pg
HSAM 34.260 0.00 Pn
HSB  17.480 1.00 Pg
HSH  48.190 1.00 Pn
ILBA 61.920 0.00 Pn
ZEF  53.240 0.00 Pn
VRN  45.440 1.00 Sg
TEH  33.160 1.00 Sg
RAZ   9.760 1.00 Sg
AMD1 13.060 1.00 Pg
# 2018 04 15 12 57 11.800000 35.629 53.059   7.4  2.0 0.0 0.0 0.0       385
ALA   9.640 1.00 Pg
DMV  16.520 1.00 Pg
FIR   5.760 1.00 Pg
GLO  21.080 1.00 Pg
LAS   5.290 1.00 Pg
SFB  27.100 1.00 Pg
VRN  24.280 1.00 Pg
# 2018 04 16 12 04 19.100000 35.790 52.012  10.6  2.1 0.0 0.0 0.0       386
ALA  13.680 1.00 Pg
DMV   4.740 1.00 Pg
HSB  13.820 1.00 Pg
LAS  17.720 1.00 Pg
VRN  16.040 1.00 Pg
SFB  26.760 1.00 Pg
MZPU 14.780 1.00 Pg
# 2018 04 16 15 51 16.200000 37.193 53.458  10.0  2.3 0.0 0.0 0.0       387
ALA  25.120 1.00 Pg
DMV  37.300 1.00 Pn
GLO  14.360 1.00 Pg
GLO  25.920 1.00 Sg
KIA  19.920 1.00 Pg
PRN  24.640 1.00 Pg
# 2018 04 16 19 56 18.100000 35.208 51.990   8.1  2.6 0.0 0.0 0.0       388
ALA  21.460 1.00 Pg
DMV   7.760 1.00 Pg
FIR  14.380 1.00 Pg
GLO  36.680 1.00 Pn
KIA  32.040 1.00 Pg
KLH  34.690 1.00 Pn
KLST 28.500 1.00 Pg
KRSH 23.800 1.00 Pg
LAS  16.020 1.00 Pg
PRN  20.240 1.00 Pg
QAMS 28.700 1.00 Pg
RAZ  31.120 1.00 Pg
SFB  17.080 1.00 Pg
VRN   7.340 1.00 Pg
# 2018 04 16 20 25 59.600000 35.795 52.692  10.0  1.3 0.0 0.0 0.0       389
DMV  11.680 1.00 Pg
FIR   3.460 1.00 Pg
LAS  10.000 1.00 Pg
DMV  20.240 1.00 Sg
# 2018 04 17 03 19 58.500000 34.598 52.643  16.2  2.0 0.0 0.0 0.0       390
ZEF  31.380 1.00 Pg
VRN  16.640 1.00 Pg
SFB   9.000 1.00 Pg
QOM  24.520 1.00 Pg
QAMS 25.500 1.00 Pg
LAS  15.650 1.00 Pg
KLH  28.910 1.00 Pg
DMV  21.020 1.00 Pg
ALA  28.480 1.00 Pg
ANAR 31.200 1.00 Pg
