# 2018 06 03 20 15 00.100000 34.845 50.488  10.0  1.3 0.0 0.0 0.0       548
HAGD 21.140 1.00 Pg
MHD  16.520 1.00 Pg
QOM   9.740 1.00 Pg
QAMS 25.920 1.00 Pg
RAZ  14.640 1.00 Pg
VRN  19.480 1.00 Pg
# 2018 06 04 03 13 35.500000 36.794 52.712  10.0  1.6 0.0 0.0 0.0       549
ALA  14.220 1.00 Pg
GLO  18.580 1.00 Pg
KLST 26.180 1.00 Pg
GLO  32.400 1.00 Sg
# 2018 06 04 06 09 01.500000 36.270 52.684  14.7  1.8 0.0 0.0 0.0       550
ALA   5.240 1.00 Pg
GLO  18.420 1.00 Pg
KLST 24.640 1.00 Pg
LAS  17.590 1.00 Pg
MZPU 17.600 1.00 Pg
PRN   6.740 1.00 Pg
VRN  28.060 1.00 Pg
ALA   8.900 1.00 Sg
# 2018 06 04 18 34 16.200000 35.588 49.752  12.0  2.1 0.0 0.0 0.0       551
VRN  32.440 1.00 Pg
RAZ   5.300 1.00 Pg
QOM  24.480 1.00 Pg
QABG  4.520 1.00 Pg
MHD  14.840 1.00 Pg
KLST 26.420 1.00 Pg
RAZ   9.220 1.00 Sg
# 2018 06 06 02 38 46.100000 34.664 50.398  10.0  1.7 0.0 0.0 0.0       552
VRN  22.020 1.00 Pg
SFB  29.100 1.00 Pg
RAZ  16.620 1.00 Pg
QOM  11.840 1.00 Pg
MHD  19.640 1.00 Pg
KLH  31.940 1.00 Pg
QOM  20.260 1.00 Sg
# 2018 06 06 07 07 34.300000 34.573 49.668  22.0  2.3 0.0 0.0 0.0       553
HSAM 17.580 1.00 Pg
KLH  34.870 1.00 Pn
MHD  24.540 1.00 Pg
QABG 20.960 1.00 Pg
QAMS 30.020 1.00 Pg
QOM  21.900 1.00 Pg
RAZ  15.960 1.00 Pg
SFB  37.720 1.00 Pn
VRN  31.480 1.00 Pg
RAZ  27.420 1.00 Sg
# 2018 06 06 11 45 46.300000 34.708 50.411  15.3  2.9 0.0 0.0 0.0       554
ALA  43.040 0.00 Pn
DMV  29.100 1.00 Pg
HSB  14.200 0.00 Pg
KLH  31.200 1.00 Pg
KLST 33.840 1.00 Pn
MHD  19.120 1.00 Pg
QABG 22.820 1.00 Pg
QOM  11.320 1.00 Pg
RAZ  15.640 1.00 Pg
SFB  28.040 1.00 Pg
VRN  21.440 1.00 Pg
# 2018 06 06 11 55 10.800000 34.746 50.414  19.8  2.3 0.0 0.0 0.0       555
HSB  19.020 1.00 Pg
KLH  30.920 1.00 Pg
MHD  18.440 1.00 Pg
QABG 22.560 1.00 Pg
QOM  11.020 1.00 Pg
RAZ  14.960 1.00 Pg
VRN  21.040 1.00 Pg
# 2018 06 06 13 37 40.900000 36.407 51.316  13.7  2.3 0.0 0.0 0.0       556
ALA  23.540 1.00 Pg
GLO  36.000 1.00 Pn
KLST  5.520 1.00 Pg
MHD  18.100 1.00 Pg
MZPU  4.900 1.00 Pg
PRN  15.920 1.00 Pg
QABG 29.220 1.00 Pg
QOM  29.260 1.00 Pg
RAZ  27.820 1.00 Pg
VRN  27.180 1.00 Pg
MZPU  8.920 1.00 Sg
# 2018 06 06 14 11 09.700000 36.363 51.309  10.0  1.9 0.0 0.0 0.0       557
KLST  5.600 1.00 Pg
MZPU  4.840 1.00 Pg
MHD  17.100 1.00 Pg
PRN  16.080 1.00 Pg
RAZ  27.940 1.00 Pg
MZPU  9.060 1.00 Sg
# 2018 06 06 16 37 32.400000 36.353 51.296  10.0  1.9 0.0 0.0 0.0       558
KLST  5.740 1.00 Pg
MZPU  5.060 1.00 Pg
PRN  16.260 1.00 Pg
PRN  29.460 1.00 Sg
# 2018 06 07 00 28 34.000000 35.619 51.996  10.0  1.9 0.0 0.0 0.0       559
ALA  15.520 1.00 Pg
DMV   3.000 1.00 Pg
FIR  12.220 1.00 Pg
HSB  12.300 1.00 Pg
LAS  16.250 1.00 Pg
MZPU 17.580 1.00 Pg
QOM  20.340 1.00 Pg
VRN  13.420 1.00 Pg
SFB  24.400 1.00 Pg
# 2018 06 07 00 44 42.600000 36.076 53.572   8.0  2.0 0.0 0.0 0.0       560
ALA  12.760 1.00 Pg
ANJ  13.220 1.00 Pg
DMV  25.520 1.00 Pg
FIR  15.480 1.00 Pg
GLO   9.620 1.00 Pg
LAS  17.010 1.00 Pg
MZPU 30.840 1.00 Pg
VRN  34.740 1.00 Pn
SFB  36.500 1.00 Pn
# 2018 06 07 01 21 14.900000 36.072 53.583   8.0  1.9 0.0 0.0 0.0       561
ALA  12.640 1.00 Pg
ANJ  13.160 1.00 Pg
DMV  25.760 1.00 Pg
FIR  15.620 1.00 Pg
GLO   9.540 1.00 Pg
LAS  16.630 1.00 Pg
# 2018 06 07 01 35 32.100000 36.078 53.590  10.9  2.7 0.0 0.0 0.0       562
ALA  12.720 1.00 Pg
ANJ  13.200 1.00 Pg
DMV  25.620 1.00 Pg
FIR  15.620 1.00 Pg
GLO   9.560 1.00 Pg
LAS  16.740 1.00 Pg
MZPU 30.740 1.00 Pg
PRN  19.760 1.00 Pg
VRN  34.060 1.00 Pn
# 2018 06 07 02 37 43.800000 36.072 53.580  10.0  2.6 0.0 0.0 0.0       563
ALA  12.660 1.00 Pg
ANJ  13.260 1.00 Pg
DMV  25.360 1.00 Pg
FIR  15.420 1.00 Pg
GLO   9.560 1.00 Pg
KLST 37.320 1.00 Pn
LAS  16.710 1.00 Pg
MZPU 30.760 1.00 Pg
PRN  19.900 1.00 Pg
SFB  36.220 1.00 Pn
VRN  34.140 1.00 Pn
# 2018 06 07 02 59 09.200000 34.741 50.435  15.2  1.8 0.0 0.0 0.0       564
KLH  31.300 1.00 Pg
QOM  11.100 1.00 Pg
RAZ  14.940 1.00 Pg
SFB  28.060 1.00 Pg
VRN  21.020 1.00 Pg
VRN  37.080 1.00 Sg
DMV  50.240 1.00 Sg
MHD  32.740 1.00 Sg
# 2018 06 07 17 45 59.900000 34.583 49.640   7.3  3.5 0.0 0.0 0.0       565
AMD1 31.360 1.00 Pg
ANAR 61.040 1.00 Pn
DMV  40.240 1.00 Pn
FIR  48.000 0.00 Pn
KLH  37.440 1.00 Pn
KLST 41.300 0.00 Pn
BZA  28.920 1.00 Pg
DOB  28.900 1.00 Pg
HSAM 19.440 1.00 Pg
JHBN 44.800 1.00 Pn
KFM  34.840 0.00 Pn
MHD  27.000 1.00 Pg
MZPU 43.760 0.00 Pn
PIR  40.070 1.00 Pn
PRN  48.280 1.00 Pn
QABG 22.700 1.00 Pg
QOM  23.680 1.00 Pg
RAZ  17.800 1.00 Pg
SFB  39.540 1.00 Pn
ZNGN 47.980 0.00 Pn
ZEF  49.790 0.00 Pn
VRN  33.080 0.00 Pg
SRB  59.610 1.00 Pn
SNQR 32.860 1.00 Pg
# 2018 06 08 12 11 08.700000 35.713 52.595  10.0  2.0 0.0 0.0 0.0       566
ALA   8.540 1.00 Pg
DMV   9.740 1.00 Pg
FIR   3.360 1.00 Pg
DMV  16.760 1.00 Sg
LAS   9.100 1.00 Pg
VRN  20.000 1.00 Pg
# 2018 06 09 04 49 28.900000 36.012 51.307  12.0  2.0 0.0 0.0 0.0       567
VRN  20.100 1.00 Pg
SFB  33.320 1.00 Pn
RAZ  23.840 1.00 Pg
QOM  21.920 1.00 Pg
QABG 26.720 1.00 Pg
MZPU  9.220 1.00 Pg
MHD  12.440 1.00 Pg
KLST 10.600 1.00 Pg
FIR  23.480 1.00 Pg
DMV  14.120 1.00 Pg
TEH   9.900 1.00 Sg
MZPU 16.900 1.00 Sg
# 2018 06 09 11 49 28.100000 35.220 51.994  15.0  2.0 0.0 0.0 0.0       568
DMV   7.480 1.00 Pg
HSB  12.420 1.00 Pg
KLH  34.550 1.00 Pn
KRSH 23.440 1.00 Pg
LAS  15.800 1.00 Pg
QAMS 28.240 1.00 Pg
QOM  16.520 1.00 Pg
SFB  17.040 1.00 Pg
VRN   7.000 1.00 Pg
# 2018 06 09 22 00 31.400000 35.735 49.030   2.6  2.6 0.0 0.0 0.0       569
JIR1 20.820 1.00 Pg
KLST 32.460 1.00 Pn
MHD  24.300 1.00 Pg
QABG  7.900 1.00 Pg
QOM  33.480 1.00 Pn
RAZ  14.860 1.00 Pg
QABG 14.120 1.00 Sg
# 2018 06 10 06 41 33.900000 35.753 49.047   5.0  3.9 0.0 0.0 0.0       570
ALA  52.140 0.00 Pn
AMD1 30.860 0.00 Pg
AZR  52.580 1.00 Pn
CSN1 33.720 1.00 Pn
DHR  43.520 0.00 Pn
DMV  43.040 0.00 Pn
DOB  38.640 1.00 Pn
FIR  51.320 0.00 Pn
ANAR 73.960 0.00 Pn
ZEF  64.450 1.00 Pn
VRN  41.360 0.00 Pn
TPRV 104.560 0.00 Pn
TEH  35.840 1.00 Pn
TEHA 35.660 0.00 Pn
TBZ  56.210 0.00 Pn
SRB  41.760 1.00 Pn
SNQR 27.680 1.00 Pg
SHB  60.260 0.00 Pn
SFB  50.320 0.00 Pn
QOM  35.100 0.00 Pn
QABG  8.980 1.00 Pg
PRN  46.800 1.00 Pn
MZPU 39.520 1.00 Pn
MRD  64.340 0.00 Pn
MHD  25.360 1.00 Pg
MAHB 49.540 1.00 Pn
LIN  35.600 1.00 Pn
LHJ2 30.520 1.00 Pg
GAS1 45.280 1.00 Pn
GRMI 53.360 1.00 Pn
HRS  51.160 1.00 Pn
HSB  34.700 0.00 Pn
HSH  38.330 1.00 Pn
ILBA 53.140 0.00 Pn
JHBN 61.760 1.00 Pn
JIR1 21.580 0.00 Pg
KCHF 40.200 0.00 Pn
KFM  44.160 0.00 Pn
KGS1 52.460 0.00 Pn
KLST 33.440 1.00 Pg
KRSH 52.480 0.00 Pn
BZA  30.140 1.00 Pg
RAZ  15.920 1.00 Pg
HSAM 29.380 1.00 Pg
# 2018 06 10 08 16 47.400000 35.734 49.068  13.6  1.8 0.0 0.0 0.0       571
SNQR 27.600 1.00 Pg
RAZ  15.640 1.00 Pg
QABG  8.220 1.00 Pg
MHD  24.880 1.00 Pg
KLST 32.420 1.00 Pg
HSAM 28.980 1.00 Pg
# 2018 06 10 23 36 48.300000 37.084 50.327  11.0  1.9 0.0 0.0 0.0       572
QABG 29.080 1.00 Pg
MZPU 23.340 1.00 Pg
LHJ2  5.360 1.00 Pg
JIR1 12.840 1.00 Pg
QABG 51.300 1.00 Sg
LHJ2 10.080 1.00 Sg
KLST 17.860 1.00 Pg
# 2018 06 11 06 31 17.100000 36.400 52.662   6.0  1.5 0.0 0.0 0.0       573
ALA   7.040 1.00 Pg
PRN   6.320 1.00 Pg
MZPU 17.900 1.00 Pg
KLST 25.420 1.00 Pg
ALA  12.640 1.00 Sg
DMV  19.140 1.00 Pg
# 2018 06 11 12 23 15.800000 36.080 50.576  10.0  1.6 0.0 0.0 0.0       574
KLST 11.800 1.00 Pg
KLST 20.760 1.00 Sg
MHD   8.260 1.00 Pg
MZPU 17.340 1.00 Pg
QABG 17.440 1.00 Pg
MHD  14.540 1.00 Sg
# 2018 06 12 13 59 21.900000 34.171 50.265  10.0  2.1 0.0 0.0 0.0       575
SFB  30.120 1.00 Pg
QAMS 19.780 1.00 Pg
KRSH 29.400 1.00 Pg
KLH  26.070 1.00 Pg
QOM  17.680 1.00 Pg
VRN  27.840 1.00 Pg
# 2018 06 12 14 04 02.500000 36.481 52.385  10.0  2.7 0.0 0.0 0.0       576
ALA  10.660 1.00 Pg
DMV  18.120 1.00 Pg
FIR  16.840 1.00 Pg
GLO  22.240 1.00 Pg
KLST 20.260 1.00 Pg
MZPU 13.540 1.00 Pg
PRN   6.080 1.00 Pg
# 2018 06 13 14 16 48.800000 35.459 53.152  10.0  1.3 0.0 0.0 0.0       577
DMV  18.360 1.00 Pg
FIR   7.600 1.00 Pg
LAS   4.440 1.00 Pg
VRN  23.700 1.00 Pg
LAS   7.280 1.00 Sg
# 2018 06 13 17 15 38.900000 36.089 53.610  11.5  2.5 0.0 0.0 0.0       578
ALA  13.080 1.00 Pg
ANJ  13.280 1.00 Pg
DMV  26.440 1.00 Pg
GLO   9.220 1.00 Pg
KLST 37.300 1.00 Pn
LAS  17.290 1.00 Pg
MZPU 31.100 1.00 Pg
PRN  20.080 1.00 Pg
SFB  36.200 1.00 Pn
VRN  34.640 1.00 Pn
# 2018 06 14 00 26 02.800000 36.419 52.273  10.0  1.8 0.0 0.0 0.0       579
ALA  10.620 1.00 Pg
DMV  16.580 1.00 Pg
FIR  16.360 1.00 Pg
GLO  24.640 1.00 Pg
LAS  22.810 1.00 Pg
PRN   4.880 1.00 Pg
PRN   7.780 1.00 Sg
# 2018 06 14 04 51 22.800000 35.986 52.839   9.4  1.8 0.0 0.0 0.0       580
ALA   2.820 1.00 Pg
DMV  14.740 1.00 Pg
FIR   7.200 1.00 Pg
GLO  18.440 1.00 Pg
LAS  12.510 1.00 Pg
PRN   9.960 1.00 Pg
VRN  25.960 1.00 Pg
ALA   5.380 1.00 Sg
# 2018 06 14 06 24 18.900000 35.656 51.524  14.6  1.6 0.0 0.0 0.0       581
DMV   8.740 1.00 Pg
FIR  19.280 1.00 Pg
KRSH 31.700 1.00 Pg
QOM  17.260 1.00 Pg
VRN  13.120 1.00 Pg
SFB  26.620 1.00 Pg
# 2018 06 14 12 40 54.900000 35.510 52.807   8.1  2.1 0.0 0.0 0.0       582
ALA  19.380 1.00 Sg
ANJ  17.090 1.00 Pg
DMV  12.540 1.00 Pg
FIR   3.180 1.00 Pg
LAS   4.520 1.00 Pg
SFB  23.580 1.00 Pg
VRN  19.780 1.00 Pg
PRN  17.020 1.00 Pg
GLO  25.380 1.00 Pg
# 2018 06 14 14 18 12.200000 36.235 53.595   8.0  2.0 0.0 0.0 0.0       583
ALA  12.900 1.00 Pg
ANJ  15.500 1.00 Pg
GLO   6.720 1.00 Pg
LAS  19.670 1.00 Pg
PRN  19.380 1.00 Pg
VRN  36.400 1.00 Pn
# 2018 06 14 18 03 32.500000 35.800 51.947  13.0  2.1 0.0 0.0 0.0       584
ALA  14.740 1.00 Pg
DMV   5.400 1.00 Pg
DMV   9.460 1.00 Sg
FIR  13.400 1.00 Pg
HSB  12.820 1.00 Pg
MHD  20.180 1.00 Pg
MZPU 13.860 1.00 Pg
QOM  22.300 1.00 Pg
SFB  27.460 1.00 Pg
VRN  16.280 1.00 Pg
VRN  27.860 1.00 Sg
# 2018 06 15 01 37 47.700000 35.551 50.186  12.0  2.9 0.0 0.0 0.0       585
HSAM 34.660 1.00 Pn
HSB  17.340 1.00 Pg
HSB  30.040 1.00 Sg
JIR1 22.280 1.00 Pg
LHJ2 30.260 1.00 Pg
MHD   8.380 1.00 Pg
PRN  34.940 1.00 Pn
QABG 10.760 1.00 Pg
QOM  19.160 1.00 Pg
RAZ   5.880 1.00 Pg
RAZ   9.620 1.00 Sg
VRN  26.180 1.00 Pg
# 2018 06 16 08 46 30.800000 34.677 49.483   8.0  1.9 0.0 0.0 0.0       586
BZA  26.000 1.00 Pg
HSAM 17.000 1.00 Pg
MHD  26.460 1.00 Pg
QABG 20.380 1.00 Pg
QOM  24.700 1.00 Pg
RAZ  16.480 1.00 Pg
SNQR 28.960 1.00 Pg
VRN  34.820 1.00 Pn
QAMS 34.500 1.00 Pn
PIR  41.310 1.00 Pn
KRSH 39.860 1.00 Pn
KLH  38.660 1.00 Pn
KFM  33.380 1.00 Pg
DOB  26.900 1.00 Pg
# 2018 06 16 17 52 29.500000 35.594 49.827   8.0  2.0 0.0 0.0 0.0       587
HSB  22.860 1.00 Pg
MHD  13.740 1.00 Pg
QABG  4.640 1.00 Pg
QOM  23.680 1.00 Pg
QAMS 40.340 1.00 Pn
RAZ   4.660 1.00 Pg
VRN  31.280 1.00 Pg
SFB  41.700 1.00 Pn
KRSH 43.920 0.50 Pn
# 2018 06 16 20 30 41.700000 34.053 50.518   7.4  3.0 0.0 0.0 0.0       588
ALA  48.240 0.00 Pn
BZA  41.100 1.00 Pn
GAR  38.870 0.00 Pn
HSB  29.680 1.00 Pg
JHBN 35.580 1.00 Pn
KFM  41.880 1.00 Pn
KLH  22.630 1.00 Pg
LAS  42.800 1.00 Pn
KRSH 26.880 1.00 Pg
HSAM 30.100 1.00 Pg
ZNGN 37.300 0.00 Pn
ZEF  35.770 0.00 Pn
VRN  27.280 1.00 Pg
SFB  28.260 1.00 Pg
QOM  19.000 1.00 Pg
QOM  32.040 1.00 Sg
QAMS 16.480 1.00 Pg
QABG 34.980 1.00 Pn
PRN  46.500 0.00 Pn
PIR  28.020 1.00 Pg
MHD  31.040 1.00 Pg
SNQR 45.140 1.00 Pn
RAZ  28.360 1.00 Pg
# 2018 06 17 03 58 26.300000 36.376 53.962   9.0  2.0 0.0 0.0 0.0       589
GLO   4.000 1.00 Pg
ANJ  17.170 1.00 Pg
ALA  18.420 1.00 Pg
LAS  24.650 1.00 Pg
ALA  32.480 1.00 Sg
# 2018 06 17 04 19 46.200000 35.754 49.019   9.0  2.9 0.0 0.0 0.0       590
VRN  42.400 1.00 Pn
SRB  42.280 1.00 Pn
SNQR 28.740 1.00 Pg
RAZ  16.620 1.00 Pg
QOM  36.360 1.00 Pn
QABG  9.900 1.00 Pg
MZPU 40.320 1.00 Pn
LIN  36.440 1.00 Pn
KLST 33.920 1.00 Pn
JIR1 22.280 1.00 Pg
HSH  38.560 1.00 Pn
HSAM 30.720 1.00 Pg
DOB  38.660 1.00 Pn
BZA  30.960 1.00 Pg
KFM  42.360 1.00 Pn
# 2018 06 18 09 16 10.700000 34.993 50.041  17.0  2.1 0.0 0.0 0.0       591
VRN  25.820 1.00 Pg
SFB  33.860 1.00 Pn
RAZ   8.920 1.00 Pg
QOM  16.540 1.00 Pg
QABG 15.600 1.00 Pg
MHD  17.040 1.00 Pg
KLST 32.100 1.00 Pg
# 2018 06 18 18 39 11.700000 34.878 50.075   8.5  1.7 0.0 0.0 0.0       592
MHD  18.060 1.00 Pg
QABG 18.280 1.00 Pg
QAMS 30.580 1.00 Pg
QOM  16.020 1.00 Pg
RAZ  10.820 1.00 Pg
SFB  34.400 1.00 Pn
VRN  25.600 1.00 Pg
HSAM 46.800 1.00 Sg
# 2018 06 18 22 19 32.800000 36.619 49.934   7.2  1.6 0.0 0.0 0.0       593
RAZ  23.300 1.00 Pg
QABG 18.800 1.00 Pg
MZPU 25.500 1.00 Pg
MHD  21.300 1.00 Pg
LHJ2 10.980 1.00 Pg
KLST 18.140 1.00 Pg
JIR1  3.500 1.00 Pg
JIR1  5.720 1.00 Sg
# 2018 06 19 00 39 15.500000 35.740 49.852   5.0  1.7 0.0 0.0 0.0       594
KLST 25.500 1.00 Pg
MHD  14.560 1.00 Pg
QABG  5.120 1.00 Pg
RAZ   6.580 1.00 Pg
SFB  42.920 1.00 Pn
MZPU 32.000 1.00 Pg
QABG  8.440 1.00 Sg
# 2018 06 19 06 05 59.300000 36.759 50.861  11.0  2.1 0.0 0.0 0.0       595
QABG 27.980 1.00 Pg
MZPU 13.380 1.00 Pg
LHJ2 13.980 1.00 Pg
KLST  6.740 1.00 Pg
JIR1 16.660 1.00 Pg
PRN  24.440 1.00 Pg
LHJ2 26.080 1.00 Sg
# 2018 06 19 13 31 41.600000 34.926 50.073   8.2  3.1 0.0 0.0 0.0       596
BZA  34.380 1.00 Pn
HSAM 26.340 1.00 Pg
HSB  21.780 1.00 Pg
KLH  37.160 1.00 Pn
KLST 33.120 0.00 Pg
MHD  17.780 1.00 Pg
MZPU 35.840 1.00 Pn
QABG 17.160 1.00 Pg
QAMS 30.320 1.00 Pg
QOM  16.300 1.00 Pg
RAZ  10.460 1.00 Pg
VRN  25.800 1.00 Pg
ALA  43.920 0.00 Pn
DOB  35.160 1.00 Pn
DMV  31.920 1.00 Pg
FIR  40.660 0.00 Pn
KRSH 35.540 1.00 Pn
LAS  42.270 0.00 Pn
MHD  29.980 1.00 Sg
PRN  40.820 0.00 Pn
QOM  28.000 1.00 Sg
RAZ  17.440 1.00 Sg
SFB  33.720 1.00 Pn
SNQR 36.820 1.00 Pn
# 2018 06 19 14 58 20.300000 35.514 53.785  12.9  1.8 0.0 0.0 0.0       597
ALA  19.140 1.00 Pg
ANJ   3.590 1.00 Pg
DMV  26.380 1.00 Pg
GLO  18.840 1.00 Pg
LAS  13.450 1.00 Pg
SFB  31.580 1.00 Pg
# 2018 06 19 17 37 08.500000 36.659 49.814   9.0  1.8 0.0 0.0 0.0       598
RAZ  24.320 1.00 Pg
QABG 20.400 1.00 Pg
MZPU 28.180 1.00 Pg
KLST 21.060 1.00 Pg
JIR1  3.400 1.00 Pg
JIR1  4.780 1.00 Sg
# 2018 06 19 18 27 33.200000 36.570 50.272  10.0  1.9 0.0 0.0 0.0       599
DMV  33.120 1.00 Pg
KLST 12.200 1.00 Pg
KLST 22.320 1.00 Sg
LHJ2 12.180 1.00 Pg
MZPU 20.940 1.00 Pg
QABG 19.860 1.00 Pg
QOM  35.180 1.00 Pn
# 2018 06 19 18 59 25.800000 35.922 53.052   8.5  1.7 0.0 0.0 0.0       600
ALA   5.500 1.00 Pg
ALA   9.860 1.00 Sg
DMV  17.600 1.00 Pg
FIR   7.840 1.00 Pg
FIR  13.520 1.00 Sg
# 2018 06 19 20 26 20.400000 36.566 51.832  10.0  2.2 0.0 0.0 0.0       601
ALA  18.260 1.00 Pg
DMV  19.800 1.00 Pg
FIR  23.120 1.00 Pg
GLO  30.840 1.00 Pg
KLST 12.640 1.00 Pg
MZPU  5.320 1.00 Pg
PRN  10.240 1.00 Pg
VRN  29.800 1.00 Pg
# 2018 06 20 16 25 52.400000 35.329 52.470   9.5  2.2 0.0 0.0 0.0       602
ALA  15.020 1.00 Pg
ANJ  22.290 1.00 Pg
DMV   8.660 1.00 Pg
FIR   7.360 1.00 Pg
GLO  30.620 1.00 Pg
KLH  38.060 1.00 Pn
LAS   7.850 1.00 Pg
KRSH 25.760 1.00 Pg
PRN  17.320 1.00 Pg
QOM  23.400 1.00 Pg
SFB  19.300 1.00 Pg
VRN  14.080 1.00 Pg
FIR  14.960 1.00 Sg
# 2018 06 21 06 59 10.100000 35.143 52.233  10.0  1.5 0.0 0.0 0.0       603
DMV   9.180 1.00 Pg
DMV  16.960 1.00 Sg
SFB  15.620 1.00 Pg
VRN   8.960 1.00 Pg
VRN  15.760 1.00 Sg
# 2018 06 21 13 06 34.400000 36.096 53.202  19.3  1.8 0.0 0.0 0.0       604
ALA   7.340 1.00 Pg
DMV  20.780 1.00 Pg
VRN  29.520 1.00 Pg
PRN  13.380 1.00 Pg
LAS  14.460 1.00 Pg
GLO  13.040 1.00 Pg
FIR  12.120 1.00 Pg
ALA  13.060 1.00 Sg
SFB  33.120 1.00 Pn
# 2018 06 22 12 34 11.700000 35.550 53.161  10.0  1.3 0.0 0.0 0.0       605
DMV  18.040 1.00 Pg
FIR   6.300 1.00 Pg
GLO  20.960 1.00 Pg
LAS   4.950 1.00 Pg
SFB  26.700 1.00 Pg
VRN  24.500 1.00 Pg
FIR  12.860 1.00 Sg
# 2018 06 22 13 04 47.700000 35.927 53.110   5.0  1.5 0.0 0.0 0.0       606
DMV  19.080 1.00 Pg
FIR   8.260 1.00 Pg
LAS  11.490 1.00 Pg
VRN  28.680 1.00 Pg
ALA   6.160 1.00 Pg
DMV  34.560 1.00 Sg
# 2018 06 22 13 48 57.800000 35.631 53.249   5.0  1.6 0.0 0.0 0.0       607
ANJ  11.900 1.00 Pg
DMV  19.300 0.50 Pg
FIR   8.460 1.00 Pg
LAS   7.030 1.00 Pg
SFB  29.100 1.00 Pg
VRN  26.640 1.00 Pg
FIR  15.100 1.00 Sg
# 2018 06 22 17 55 05.300000 35.421 52.919  11.5  1.1 0.0 0.0 0.0       608
DMV  14.860 1.00 Pg
FIR   5.700 1.00 Pg
LAS   2.710 1.00 Pg
SFB  23.220 1.00 Pg
VRN  20.500 1.00 Pg
LAS   4.570 1.00 Sg
# 2018 06 22 18 02 43.000000 35.406 52.888  11.0  2.2 0.0 0.0 0.0       609
ALA  13.320 1.00 Pg
ANJ  16.730 1.00 Pg
DMV  14.380 1.00 Pg
FIR   5.440 1.00 Pg
GLO  25.120 1.00 Pg
KRSH 29.440 1.00 Pg
LAS   2.590 1.00 Pg
PRN  19.280 1.00 Pg
QOM  29.520 1.00 Pg
SFB  22.980 1.00 Pg
VRN  20.360 1.00 Pg
LAS   4.670 1.00 Sg
# 2018 06 22 20 07 58.000000 35.409 52.880  10.0  1.7 0.0 0.0 0.0       610
ALA  13.300 1.00 Pg
DMV  14.360 1.00 Pg
FIR   5.380 1.00 Pg
KRSH 29.340 1.00 Pg
LAS   2.720 1.00 Pg
SFB  22.860 1.00 Pg
VRN  20.040 1.00 Pg
LAS   4.540 1.00 Sg
# 2018 06 23 03 46 51.600000 34.801 52.838  12.8  1.7 0.0 0.0 0.0       611
ZEF  35.000 1.00 Pn
VRN  18.060 1.00 Pg
SFB  13.360 1.00 Pg
QAMS 29.260 1.00 Pg
LAS  10.990 1.00 Pg
KRSH 19.000 1.00 Pg
KLH  32.830 1.00 Pn
FIR  16.340 1.00 Pg
DMV  19.660 1.00 Pg
ANAR 33.240 1.00 Pg
DMV  33.920 1.00 Sg
# 2018 06 23 06 22 14.200000 35.416 52.854   8.3  1.2 0.0 0.0 0.0       612
VRN  19.480 1.00 Pg
SFB  22.580 1.00 Pg
LAS   2.790 1.00 Pg
LAS   4.490 1.00 Sg
FIR   5.240 1.00 Pg
VRN  34.580 1.00 Sg
# 2018 06 23 07 04 08.300000 35.425 52.877   9.0  1.3 0.0 0.0 0.0       613
VRN  19.600 1.00 Pg
LAS   2.650 1.00 Pg
LAS   4.410 1.00 Sg
FIR   5.280 1.00 Pg
# 2018 06 23 13 41 32.200000 35.177 52.031  10.0  1.8 0.0 0.0 0.0       614
DMV   7.880 1.00 Pg
DMV  15.300 1.00 Sg
FIR  14.380 1.00 Pg
FIR  26.400 1.00 Sg
LAS  15.320 1.00 Pg
SFB  16.500 1.00 Pg
VRN   6.880 1.00 Pg
MZPU 24.560 1.00 Pg
# 2018 06 23 17 57 49.800000 35.073 52.174  10.0  0.9 0.0 0.0 0.0       615
DMV  10.560 1.00 Pg
SFB  14.260 1.00 Pg
VRN   7.260 1.00 Pg
VRN  13.800 1.00 Sg
# 2018 06 24 08 14 52.200000 35.574 50.186   9.3  1.9 0.0 0.0 0.0       616
RAZ   6.020 1.00 Pg
QOM  19.980 1.00 Pg
QABG 10.560 1.00 Pg
MHD   8.400 1.00 Pg
KLST 22.620 1.00 Pg
MHD  14.760 1.00 Sg
QABG 17.780 1.00 Sg
RAZ  10.060 1.00 Sg
VRN  26.260 1.00 Pg
VRN  45.720 1.00 Sg
# 2018 06 24 10 07 53.300000 34.002 49.397   8.0  1.9 0.0 0.0 0.0       617
RAZ  28.760 1.00 Pg
QOM  32.080 1.00 Pg
QAMS 32.660 1.00 Pg
QABG 33.180 1.00 Pg
KLH  36.940 1.00 Pn
HSAM 14.780 1.00 Pg
# 2018 06 24 15 49 23.500000 34.271 52.896   8.0  2.0 0.0 0.0 0.0       618
DMV  28.280 1.00 Pg
FIR  25.360 1.00 Pg
KLH  28.110 1.00 Pg
KRSH 13.960 1.00 Pg
LAS  21.800 1.00 Pg
QAMS 25.940 1.00 Pg
SFB  10.860 1.00 Pg
VRN  23.180 1.00 Pg
ZEF  27.510 1.00 Pg
SFB  18.880 1.00 Sg
# 2018 06 25 00 52 24.500000 35.568 49.727  10.4  1.1 0.0 0.0 0.0       619
RAZ   5.240 1.00 Pg
QABG  4.300 1.00 Pg
MHD  15.220 1.00 Pg
RAZ   9.080 1.00 Sg
QABG  7.660 1.00 Sg
# 2018 06 25 17 06 41.500000 35.749 52.127  10.0  1.4 0.0 0.0 0.0       620
DMV   4.300 1.00 Pg
FIR  10.420 1.00 Pg
VRN  16.620 1.00 Pg
SFB  26.540 1.00 Pg
DMV   7.140 1.00 Sg
# 2018 06 25 17 34 24.400000 35.664 53.081  12.0  1.3 0.0 0.0 0.0       621
DMV  16.820 1.00 Pg
FIR   5.620 1.00 Pg
LAS   6.440 1.00 Pg
SFB  27.280 1.00 Pg
LAS  10.820 1.00 Sg
# 2018 06 25 23 13 36.100000 36.075 53.536  10.0  1.3 0.0 0.0 0.0       622
LAS  16.360 1.00 Pg
GLO   9.920 1.00 Pg
FIR  14.980 1.00 Pg
DMV  25.840 1.00 Pg
ALA  11.880 1.00 Pg
ALA  20.700 1.00 Sg
# 2018 06 26 16 21 42.600000 36.302 53.140  10.0  1.9 0.0 0.0 0.0       623
ALA   6.980 1.00 Pg
FIR  14.360 1.00 Pg
PRN  12.240 1.00 Pg
PRN  23.260 1.00 Sg
LAS  18.480 1.00 Pg
GLO  12.020 1.00 Pg
# 2018 06 27 03 53 25.900000 34.491 52.188  12.0  1.2 0.0 0.0 0.0       624
ZEF  29.950 1.00 Pg
VRN  12.840 1.00 Pg
SFB   4.660 1.00 Pg
QAMS 19.180 1.00 Pg
KRSH 11.080 1.00 Pg
FIR  23.840 1.00 Pg
# 2018 06 27 20 08 55.600000 36.635 49.758  10.0  1.8 0.0 0.0 0.0       625
KLST 19.860 1.00 Pg
LHJ2 11.560 1.00 Pg
MZPU 28.620 1.00 Pg
QABG 18.220 1.00 Pg
RAZ  24.300 1.00 Pg
QABG 31.800 1.00 Sg
MHD  23.520 1.00 Pg
