# 2018 01 01 04 06 01.300000 36.969 51.020  11.0  1.9 0.0 0.0 0.0         1
RAZ  33.900 1.00 Pg
QSDN 29.780 1.00 Pg
PRN  23.820 1.00 Pg
MZPU 12.900 1.00 Pg
KLST  8.780 1.00 Pg
JIR1 19.940 1.00 Pg
DMV  30.160 1.00 Pg
FIR  35.440 1.00 Pn
DMV  53.740 1.00 Sg
PRN  43.420 1.00 Sg
VRN  37.040 1.00 Pn
# 2018 01 01 08 18 09.800000 35.562 53.222   8.6  1.3 0.0 0.0 0.0         2
VRN  25.780 1.00 Pg
SFB  27.920 1.00 Pg
LAS   5.970 1.00 Pg
FIR   8.160 1.00 Pg
ANJ  11.480 1.00 Pg
# 2018 01 01 20 19 30.900000 36.065 53.174  10.0  1.4 0.0 0.0 0.0         3
ALA   6.360 1.00 Pg
ALA  11.260 1.00 Sg
FIR  10.820 1.00 Pg
LAS  14.030 1.00 Pg
# 2018 01 02 12 47 13.600000 35.502 53.087  10.0  1.2 0.0 0.0 0.0         4
FIR   6.580 1.00 Pg
LAS   3.560 1.00 Pg
SFB  26.160 1.00 Pg
ANJ  13.440 1.00 Pg
ALA  21.940 1.00 Sg
# 2018 01 02 21 53 20.100000 35.162 51.214  19.8  1.9 0.0 0.0 0.0         5
DMV  15.220 1.00 Pg
FIR  25.360 1.00 Pg
HAGD 30.760 1.00 Pg
HSB   6.800 1.00 Pg
KLH  33.300 1.00 Pn
KRSH 26.160 1.00 Pg
LAS  26.710 1.00 Pg
MHD  13.780 1.00 Pg
QAMS 26.740 1.00 Pg
RAZ  35.700 1.00 Sg
RAZ  21.260 1.00 Pg
SFB  22.820 1.00 Pg
# 2018 01 02 22 59 28.600000 35.556 49.710   8.0  2.3 0.0 0.0 0.0         6
DMV  35.560 1.00 Pn
HAGD 17.000 1.00 Pg
JIR1 22.260 1.00 Pg
KLST 27.580 1.00 Pg
MHD  15.840 1.00 Pg
QAMS 40.860 1.00 Pn
QSDN 20.160 1.00 Pg
RAZ   4.800 1.00 Pg
RAZ   8.160 1.00 Sg
AMD1 20.620 1.00 Pg
# 2018 01 03 00 29 45.800000 35.543 49.715  10.0  2.7 0.0 0.0 0.0         7
AMD1 20.680 1.00 Pg
DMV  35.060 1.00 Pn
HAGD 17.020 1.00 Pg
HSB  24.360 1.00 Pg
JIR1 22.220 1.00 Pg
KLST 27.280 1.00 Pg
MHD  15.980 1.00 Pg
RAZ   4.680 1.00 Pg
RAZ   8.420 1.00 Sg
# 2018 01 03 19 48 55.500000 35.781 50.965  14.0  1.9 0.0 0.0 0.0         8
DMV  17.500 1.00 Pg
HSB  15.580 1.00 Sg
MHD  10.960 1.00 Sg
RAZ  30.160 1.00 Sg
QOM  30.580 1.00 Sg
QOM  17.700 1.00 Pg
RAZ  17.580 1.00 Pg
KLST 14.220 1.00 Pg
MHD   6.420 1.00 Pg
# 2018 01 04 10 28 33.400000 36.818 53.281  12.0  2.7 0.0 0.0 0.0         9
ALA  16.400 1.00 Pg
ALA  28.020 1.00 Sg
ANJ  27.640 1.00 Pg
DMV  29.880 1.00 Pg
FIR  24.200 1.00 Pg
GLO  10.680 1.00 Pg
GLO  18.840 1.00 Sg
LAS  27.180 1.00 Pg
PRN  18.420 1.00 Pg
MZPU 27.020 1.00 Pg
# 2018 01 04 12 22 42.000000 35.732 51.191  10.0  1.8 0.0 0.0 0.0        10
AMD1  4.060 1.00 Pg
MHD   8.760 1.00 Pg
RAZ  21.100 1.00 Pg
AMD1  7.800 1.00 Sg
MHD  15.160 1.00 Sg
# 2018 01 04 18 20 49.200000 35.346 52.288   8.8  2.1 0.0 0.0 0.0        11
DMV   7.000 1.00 Pg
FIR   9.580 1.00 Pg
LAS  10.930 1.00 Pg
KRSH 26.120 1.00 Pg
QOM  21.640 1.00 Pg
VRN  10.980 1.00 Pg
SFB  19.680 1.00 Pg
QAMS 32.560 1.00 Pg
PRN  17.500 1.00 Pg
# 2018 01 05 08 07 20.700000 35.384 50.185   8.0  2.2 0.0 0.0 0.0        12
DMV  29.920 1.00 Pg
HAGD 20.460 1.00 Pg
JIR1 26.100 1.00 Pg
KLH  42.040 1.00 Pn
KLST 25.960 1.00 Pg
KRSH 38.240 1.00 Pn
MHD  10.340 1.00 Pg
MZPU 29.560 1.00 Pg
QOM  16.640 1.00 Pg
RAZ   4.360 1.00 Pg
QSDN 26.140 1.00 Pg
SFB  35.860 1.00 Pn
VRN  25.180 1.00 Pg
# 2018 01 05 15 31 29.600000 37.047 52.895   8.0  1.8 0.0 0.0 0.0        13
ALA  19.260 1.00 Pg
FIR  26.960 1.00 Pg
DMV  31.140 1.00 Pg
GLO  18.380 1.00 Pg
LAS  30.920 1.00 Pg
MZPU 23.100 1.00 Pg
PRN  17.900 1.00 Pg
GLO  31.380 1.00 Sg
# 2018 01 05 15 33 33.000000 34.710 50.436  10.0  1.6 0.0 0.0 0.0        14
MHD  18.700 1.00 Pg
QAMS 24.100 1.00 Pg
QOM  10.760 1.00 Pg
RAZ  16.260 1.00 Pg
QOM  18.860 1.00 Sg
# 2018 01 06 05 15 26.700000 36.815 49.487   6.6  1.8 0.0 0.0 0.0        15
QSDN  9.300 1.00 Pg
KLST 26.240 1.00 Pg
JIR1  7.300 1.00 Pg
HSH  35.740 1.00 Pn
JIR1 11.240 1.00 Sg
# 2018 01 07 11 41 21.800000 35.541 51.866  11.0  1.2 0.0 0.0 0.0        16
DMV   3.820 1.00 Pg
SFB  23.460 1.00 Pg
VRN  11.080 1.00 Pg
FIR  14.460 1.00 Pg
# 2018 01 07 15 32 30.900000 35.642 50.757  10.0  1.9 0.0 0.0 0.0        17
DMV  20.340 1.00 Pg
DMV  35.100 1.00 Sg
HSB   9.880 1.00 Pg
HSB  16.840 1.00 Sg
MHD   2.720 1.00 Pg
MHD   5.160 1.00 Sg
RAZ  13.660 1.00 Pg
VRN  19.940 1.00 Pg
# 2018 01 07 21 25 28.800000 36.544 50.499  12.0  2.5 0.0 0.0 0.0        18
DMV  30.600 1.00 Pg
DMV  51.760 1.00 Sg
HSB  24.300 1.00 Pg
JIR1 11.520 1.00 Pg
JIR1 19.600 1.00 Sg
KLST  8.640 1.00 Pg
LHJ2 14.240 1.00 Pg
MHD  17.300 1.00 Pg
MZPU 16.660 1.00 Pg
PRN  28.520 1.00 Pg
RAZ  23.300 1.00 Pg
# 2018 01 08 07 55 23.000000 35.370 52.400  11.0  1.4 0.0 0.0 0.0        19
VRN  13.280 1.00 Pg
SFB  18.960 1.00 Pg
LAS   9.500 1.00 Pg
FIR   7.920 1.00 Pg
DMV   7.500 1.00 Pg
# 2018 01 08 09 44 15.400000 36.541 52.709  12.0  1.8 0.0 0.0 0.0        20
ALA   9.560 1.00 Pg
PRN   8.960 1.00 Pg
MZPU 17.800 1.00 Pg
LAS  21.910 1.00 Pg
KLST 24.740 1.00 Pg
GLO  17.200 1.00 Pg
FIR  17.300 1.00 Pg
DMV  20.920 1.00 Pg
# 2018 01 08 12 43 47.100000 37.040 49.490   8.0  2.3 0.0 0.0 0.0        21
CSN1 11.940 1.00 Pg
JIR1  8.540 1.00 Pg
KLST 25.640 1.00 Pg
MHD  31.300 1.00 Pg
RAZ  30.800 1.00 Pg
JIR1 14.720 1.00 Sg
# 2018 01 10 00 15 44.300000 35.554 53.243  13.6  1.7 0.0 0.0 0.0        22
ANJ  10.900 1.00 Pg
DMV  18.700 1.00 Pg
FIR   8.360 1.00 Pg
LAS   6.550 1.00 Pg
VRN  25.100 1.00 Pg
SFB  26.660 1.00 Pg
LAS  10.730 1.00 Sg
# 2018 01 10 03 48 43.400000 35.585 53.245  12.0  2.0 0.0 0.0 0.0        23
VRN  25.660 1.00 Pg
LAS   7.030 1.00 Pg
FIR   7.780 1.00 Pg
DMV  18.520 1.00 Pg
ANJ  11.150 1.00 Pg
ALA  12.560 1.00 Pg
DMV  33.360 1.00 Sg
# 2018 01 10 04 51 37.900000 35.564 53.241   9.0  1.4 0.0 0.0 0.0        24
ANJ  11.010 1.00 Pg
LAS   6.680 1.00 Pg
FIR   8.460 1.00 Pg
DMV  18.240 1.00 Pg
ALA  21.640 1.00 Sg
# 2018 01 10 06 48 55.700000 35.589 53.244  10.7  1.4 0.0 0.0 0.0        25
LAS   6.800 1.00 Pg
FIR   8.400 1.00 Pg
DMV  19.220 1.00 Pg
ANJ  11.230 1.00 Pg
LAS  11.540 1.00 Sg
# 2018 01 10 07 46 46.000000 35.376 52.312  16.0  2.8 0.0 0.0 0.0        26
ALA  16.380 1.00 Pg
AMD1 22.320 1.00 Pg
ANJ  24.580 1.00 Pg
DMV   6.900 1.00 Pg
FIR   9.180 1.00 Pg
HSB  16.260 1.00 Pg
LAS  10.800 1.00 Pg
MHD  25.360 1.00 Pg
MZPU 23.480 1.00 Pg
PRN  16.520 1.00 Pg
VRN  12.440 1.00 Pg
# 2018 01 11 00 38 48.100000 36.420 52.093   6.0  2.4 0.0 0.0 0.0        27
ALA  14.600 1.00 Pg
DMV  17.360 1.00 Pg
FIR  19.560 1.00 Pg
GLO  28.220 1.00 Pg
KLST 17.500 1.00 Pg
LAS  25.960 1.00 Pg
MZPU  9.680 1.00 Pg
PRN   6.260 1.00 Pg
# 2018 01 11 12 32 17.700000 34.133 50.349   8.4  2.0 0.0 0.0 0.0        28
VRN  26.900 1.00 Pg
SFB  29.460 1.00 Pg
RAZ  26.200 1.00 Pg
QOM  17.960 1.00 Pg
QAMS 18.640 1.00 Pg
PIR  29.840 1.00 Pg
KRSH 28.540 1.00 Pg
KLH  24.830 1.00 Pg
HSAM 27.820 1.00 Pg
HAGD 22.780 1.00 Pg
QOM  31.520 1.00 Sg
# 2018 01 11 12 54 27.200000 35.762 50.976  10.0  1.5 0.0 0.0 0.0        29
VRN  18.580 1.00 Pg
RAZ  17.380 1.00 Pg
MHD   5.800 1.00 Pg
HSB   8.580 1.00 Pg
DMV  17.400 1.00 Pg
MHD  10.320 1.00 Sg
# 2018 01 11 13 21 30.100000 35.544 53.228  15.0  2.3 0.0 0.0 0.0        30
ALA  12.440 1.00 Pg
ANJ  11.100 1.00 Pg
DMV  18.980 1.00 Pg
FIR   8.260 1.00 Pg
LAS   6.690 1.00 Pg
PRN  19.660 1.00 Pg
SFB  26.780 1.00 Pg
VRN  25.080 1.00 Pg
FIR  14.120 1.00 Sg
# 2018 01 11 17 17 06.700000 35.360 52.322  10.0  1.6 0.0 0.0 0.0        31
DMV   6.660 1.00 Pg
FIR   9.040 1.00 Pg
LAS  10.560 1.00 Pg
PRN  17.500 1.00 Pg
SFB  19.380 1.00 Pg
VRN  12.280 1.00 Pg
DMV  11.920 1.00 Sg
# 2018 01 11 21 29 21.800000 35.555 53.241  18.7  2.1 0.0 0.0 0.0        32
ALA  12.540 1.00 Pg
ANJ  11.280 1.00 Pg
FIR   8.320 1.00 Pg
LAS   6.630 1.00 Pg
PRN  19.700 1.00 Pg
VRN  24.960 1.00 Pg
LAS  11.770 1.00 Sg
# 2018 01 11 21 30 37.300000 35.589 53.237  16.9  1.7 0.0 0.0 0.0        33
ALA  12.100 1.00 Pg
ANJ  11.360 1.00 Pg
FIR   8.440 1.00 Pg
LAS   6.820 1.00 Pg
VRN  25.260 1.00 Pg
# 2018 01 11 22 11 23.100000 35.536 53.242  10.0  1.8 0.0 0.0 0.0        34
ANJ  11.110 1.00 Pg
FIR   8.300 1.00 Pg
LAS   6.510 1.00 Pg
PRN  20.020 1.00 Pg
VRN  24.940 1.00 Pg
LAS  10.670 1.00 Sg
# 2018 01 12 00 28 46.100000 35.568 53.244  12.0  1.9 0.0 0.0 0.0        35
ANJ  11.230 1.00 Pg
DMV  19.140 1.00 Pg
FIR   8.440 1.00 Pg
LAS   6.810 1.00 Pg
LAS  11.590 1.00 Sg
VRN  25.260 1.00 Pg
# 2018 01 12 04 39 53.600000 36.542 52.923  18.0  1.9 0.0 0.0 0.0        36
ALA   9.720 1.00 Pg
DMV  22.920 1.00 Pg
GLO  14.420 1.00 Pg
PRN  11.600 1.00 Pg
MZPU 36.700 1.00 Sg
# 2018 01 12 07 22 23.200000 35.365 52.389  10.0  1.7 0.0 0.0 0.0        37
DMV   7.880 1.00 Pg
FIR   7.840 1.00 Pg
LAS   9.480 1.00 Pg
SFB  19.500 1.00 Pg
VRN  13.060 1.00 Pg
LAS  17.020 1.00 Sg
# 2018 01 12 12 16 13.600000 35.756 50.998  10.6  2.2 0.0 0.0 0.0        38
AMD1  2.960 1.00 Pg
ALA  28.840 1.00 Pg
DMV  16.860 1.00 Pg
HSB   8.660 1.00 Pg
KLH  43.140 1.00 Pn
KRSH 36.700 1.00 Pn
LAS  31.260 1.00 Pg
MHD   5.700 1.00 Pg
MZPU 16.140 1.00 Pg
QOM  17.040 1.00 Pg
RAZ  16.820 0.50 Pg
SFB  31.440 1.00 Pg
VRN  18.680 1.00 Pg
# 2018 01 12 13 39 29.100000 34.120 50.626   9.6  1.7 0.0 0.0 0.0        39
DMV  33.760 1.00 Pn
KLH  21.970 1.00 Pg
KRSH 24.400 1.00 Pg
PIR  27.660 1.00 Pg
QAMS 14.820 1.00 Pg
QOM  16.200 1.00 Pg
RAZ  27.060 1.00 Pg
SFB  25.240 1.00 Pg
VRN  24.400 1.00 Pg
HSAM 31.000 1.00 Pg
ZEF  34.930 1.00 Pn
# 2018 01 12 14 16 41.200000 36.294 53.573   8.0  1.7 0.0 0.0 0.0        40
ALA  12.980 1.00 Pg
ANJ  17.120 1.00 Pg
DMV  27.360 1.00 Pg
FIR  17.780 1.00 Pg
GLO   6.180 1.00 Pg
LAS  20.350 1.00 Pg
PRN  19.440 1.00 Pg
ALA  22.980 1.00 Sg
# 2018 01 12 14 26 22.700000 35.546 53.204  16.0  1.9 0.0 0.0 0.0        41
ANJ  11.000 1.00 Pg
DMV  18.520 1.00 Pg
FIR   8.240 1.00 Pg
GLO  21.440 1.00 Pg
LAS   6.460 1.00 Pg
SFB  26.320 1.00 Pg
VRN  24.700 1.00 Pg
ALA  21.120 1.00 Sg
# 2018 01 12 16 16 13.600000 35.605 53.241  12.0  1.7 0.0 0.0 0.0        42
ANJ  11.570 1.00 Pg
DMV  19.220 1.00 Pg
FIR   8.580 1.00 Pg
LAS   7.490 1.00 Pg
VRN  25.840 1.00 Pg
SFB  27.560 1.00 Pg
# 2018 01 12 16 47 58.600000 35.555 53.226  18.4  1.5 0.0 0.0 0.0        43
ANJ  11.240 1.00 Pg
DMV  18.980 1.00 Pg
FIR   8.500 1.00 Pg
LAS   6.770 1.00 Pg
SFB  27.280 1.00 Pg
VRN  25.220 1.00 Pg
SFB  47.580 1.00 Sg
FIR  14.540 1.00 Sg
# 2018 01 12 17 48 44.500000 36.249 53.604  10.0  1.5 0.0 0.0 0.0        44
GLO   6.240 1.00 Pg
FIR  18.180 1.00 Pg
PRN  19.840 1.00 Pg
GLO  12.060 1.00 Sg
# 2018 01 12 19 58 47.400000 36.705 50.967   8.0  2.4 0.0 0.0 0.0        45
DMV  27.240 1.00 Pg
FIR  33.900 1.00 Pg
GLO  40.220 1.00 Pn
KLST  4.260 1.00 Pg
HSB  24.980 1.00 Pg
LHJ2 17.120 1.00 Pg
MHD  20.380 1.00 Pg
MZPU 11.560 1.00 Pg
PRN  22.120 1.00 Pg
QOM  34.800 1.00 Pn
QSDN 27.760 1.00 Pg
RAZ  29.060 1.00 Pg
VRN  33.740 1.00 Pn
# 2018 01 13 03 09 04.400000 36.054 53.277  10.0  1.3 0.0 0.0 0.0        46
ALA   7.700 1.00 Pg
FIR  11.860 1.00 Pg
GLO  12.600 1.00 Pg
ALA  14.000 1.00 Sg
# 2018 01 13 03 10 01.400000 36.651 50.926   8.0  1.8 0.0 0.0 0.0        47
JIR1 17.920 1.00 Pg
KLST  3.760 1.00 Pg
LHJ2 16.440 1.00 Pg
MHD  19.420 1.00 Pg
MZPU 11.620 1.00 Pg
PRN  23.020 1.00 Pg
QSDN 27.620 1.00 Pg
RAZ  28.100 1.00 Pg
DMV  27.060 1.00 Pg
# 2018 01 13 07 00 02.700000 35.892 53.140   8.0  2.4 0.0 0.0 0.0        48
ALA   6.460 1.00 Pg
VRN  27.900 1.00 Pg
QAMS 44.440 1.00 Pn
PRN  14.120 1.00 Pg
MZPU 26.340 1.00 Pg
LAS  10.450 1.00 Pg
KRSH 37.780 1.00 Pn
KLST 33.980 1.00 Pg
GLO  16.020 1.00 Pg
FIR   8.200 1.00 Pg
DMV  18.140 1.00 Pg
# 2018 01 13 09 13 38.900000 35.686 50.926  17.1  2.0 0.0 0.0 0.0        49
AMD1  3.260 1.00 Pg
VRN  17.960 1.00 Pg
SFB  30.940 1.00 Pg
RAZ  16.420 1.00 Pg
QOM  16.220 1.00 Pg
MZPU 17.760 1.00 Pg
MHD   5.500 1.00 Pg
MHD   9.020 1.00 Sg
KLST 15.940 1.00 Pg
# 2018 01 13 17 58 21.300000 35.844 53.701   8.0  2.3 0.0 0.0 0.0        50
ALA  14.920 1.00 Pg
ANJ   8.480 1.00 Pg
DMV  26.700 1.00 Pg
FIR  15.520 1.00 Pg
GLO  13.180 1.00 Pg
LAS  14.870 1.00 Pg
VRN  33.540 1.00 Pn
# 2018 01 14 04 43 46.600000 34.983 53.983  12.2  1.9 0.0 0.0 0.0        51
SFB  29.320 1.00 Pg
KRSH 33.540 1.00 Pn
FIR  23.380 1.00 Pg
DMV  31.340 1.00 Pg
ANJ   9.840 1.00 Pg
SFB  51.020 1.00 Sg
# 2018 01 14 04 52 28.400000 36.828 49.395   6.0  2.4 0.0 0.0 0.0        52
RAZ  29.800 1.00 Pg
QSDN  9.000 1.00 Pg
JIR1  8.020 1.00 Pg
KLST 28.060 1.00 Pg
HSH  34.170 1.00 Pg
QSDN 14.720 1.00 Sg
# 2018 01 14 14 32 36.100000 35.165 53.692   7.5  1.8 0.0 0.0 0.0        53
ANJ   7.390 1.00 Pg
DMV  26.660 1.00 Pg
FIR  17.780 1.00 Pg
GLO  26.620 1.00 Pg
LAS  13.240 1.00 Pg
SFB  27.620 1.00 Pg
VRN  29.860 1.00 Pg
KRSH 32.800 1.00 Pg
ANJ  12.490 1.00 Sg
# 2018 01 14 15 39 39.000000 35.298 52.276  11.3  1.5 0.0 0.0 0.0        54
ALA  17.520 1.00 Pg
DMV   7.120 1.00 Pg
FIR  10.160 1.00 Pg
LAS  11.760 1.00 Pg
SFB  18.320 1.00 Pg
VRN  11.540 1.00 Pg
DMV  12.720 1.00 Sg
KLH  37.230 1.00 Pn
KRSH 25.200 1.00 Pg
QAMS 30.720 1.00 Pg
# 2018 01 14 23 02 43.100000 35.572 53.238  18.0  1.7 0.0 0.0 0.0        55
ANJ  11.360 1.00 Pg
DMV  19.020 1.00 Pg
FIR   8.500 1.00 Pg
LAS   6.900 1.00 Pg
SFB  27.320 1.00 Pg
VRN  25.740 1.00 Pg
ALA  21.760 1.00 Sg
# 2018 01 14 23 11 12.500000 35.200 53.717  19.6  1.8 0.0 0.0 0.0        56
ANJ   7.260 1.00 Pg
FIR  17.440 1.00 Pg
DMV  26.780 1.00 Pg
LAS  13.190 1.00 Pg
SFB  27.760 1.00 Pg
VRN  29.760 1.00 Pg
ANJ  12.380 1.00 Sg
# 2018 01 14 23 32 37.100000 34.046 49.956  10.0  1.6 0.0 0.0 0.0        57
KLH  29.320 1.00 Pg
QAMS 24.020 1.00 Pg
PIR  29.940 1.00 Pg
QOM  23.400 1.00 Pg
HAGD 19.600 1.00 Pg
HSAM 22.240 1.00 Pg
# 2018 01 15 02 08 04.400000 35.141 53.823  13.0  3.2 0.0 0.0 0.0        58
ALA  23.620 1.00 Pg
ANAR 34.740 1.00 Pn
ANJ   7.130 1.00 Pg
CHK  48.060 1.00 Pn
DMV  28.580 1.00 Pg
FIR  19.680 1.00 Pg
GLO  26.300 1.00 Pg
KLH  43.760 1.00 Pn
KRSH 33.460 1.00 Pn
MEH  61.020 0.00 Pn
PAY  68.490 1.00 Pn
PRN  30.560 0.00 Pg
QAMS 41.140 0.00 Pn
QOM  39.020 1.00 Pn
RAM  57.400 1.00 Pn
SFB  28.300 1.00 Pg
SFR  61.510 1.00 Pn
TKDS 51.200 1.00 Pn
TPRV 52.260 1.00 Pn
ZEF  43.100 1.00 Pn
MND  41.320 1.00 Pn
SBZV 53.100 1.00 Pn
TBJM 80.780 1.00 Pn
AFRZ 71.240 1.00 Pn
# 2018 01 15 02 17 12.900000 35.167 53.811  10.0  1.3 0.0 0.0 0.0        59
ANJ   6.810 1.00 Pg
ANJ  11.210 1.00 Sg
DMV  28.320 1.00 Pg
FIR  19.380 1.00 Pg
LAS  16.980 0.00 Pg
ALA  23.960 1.00 Pg
# 2018 01 15 02 27 50.600000 35.140 53.796  10.0  1.9 0.0 0.0 0.0        60
ANJ   7.170 1.00 Pg
ANJ  11.990 1.00 Sg
DMV  28.920 1.00 Pg
FIR  19.620 1.00 Pg
GLO  26.700 1.00 Pg
LAS  13.600 1.00 Pg
SFB  28.440 1.00 Pg
VRN  32.400 1.00 Pg
# 2018 01 15 11 57 32.000000 35.640 49.740   4.7  1.9 0.0 0.0 0.0        61
HAGD 19.680 1.00 Pg
MHD  15.640 1.00 Pg
QAMS 41.820 1.00 Pn
RAZ   6.300 1.00 Pg
RAZ  10.280 1.00 Sg
# 2018 01 15 13 50 03.700000 35.751 52.662   7.7  4.2 0.0 0.0 0.0        62
AFRZ 88.060 0.00 Pn
AKL  78.110 1.00 Pn
ALA   7.000 1.00 Pg
AMD1 26.860 0.00 Pg
ANAR 45.260 1.00 Pn
ANJ  19.920 1.00 Pg
BAF  75.220 0.00 Pn
BRJ  65.020 0.00 Pn
BZA  66.860 0.00 Pn
DHR  80.980 0.00 Pn
EMG  79.930 0.00 Pn
GAR  55.880 0.00 Pn
GAS1 64.460 0.00 Pn
GHG  81.240 0.00 Pn
GLO  23.240 1.00 Pg
HAGD 50.980 0.00 Pn
HALM 62.160 0.00 Pn
HRS  81.140 0.00 Pn
HSAM 60.580 0.00 Pn
HSB  22.380 1.00 Pg
HSH  72.670 0.00 Pn
JHBN 63.860 0.00 Pn
JRKH 95.440 0.00 Pn
KCHF 76.600 0.00 Pn
KFM  72.000 0.00 Pn
KIA  18.040 1.00 Pg
KLH  44.940 0.00 Pn
KLNJ 75.960 0.00 Pn
KOM  71.620 0.00 Pn
KOO  94.960 0.00 Pn
KRD  86.850 0.00 Pn
LAS   8.680 1.00 Pg
LHJ2 43.680 1.00 Pn
LIN  75.080 0.00 Pn
MEH  73.030 0.00 Pn
MND  45.360 1.00 Pn
MOG  84.140 0.00 Pn
MRD  96.370 0.00 Pn
MZPU 21.400 1.00 Pg
NHDN 113.180 0.00 Pn
PRN  10.740 1.00 Pg
QAMS 40.000 1.00 Pn
QOM  29.500 1.00 Pg
QSDN 49.800 0.00 Pn
RAM  63.420 0.00 Pn
RAZ  40.000 1.00 Pn
SBZV 65.020 1.00 Pn
SFB  26.940 1.00 Pg
SFR  71.970 0.00 Pn
SHB  94.730 0.00 Pn
TBJM 95.460 0.00 Pn
TEG  89.110 0.00 Pn
TEHA 20.000 0.00 Pg
TEH  20.020 1.00 Pg
TKDS 67.120 0.00 Pn
TNSJ 59.960 0.00 Pn
TPRV 68.200 1.00 Pn
VRN  20.820 1.00 Pg
ZEF  48.330 0.00 Pn
ZNGN 63.880 0.00 Pn
MHD  30.320 1.00 Pg
KRSH 33.400 1.00 Pn
KLST 28.280 1.00 Pg
ALA  12.880 1.00 Sg
HSB  38.780 1.00 Sg
KLST 48.820 1.00 Sg
LAS  15.620 1.00 Sg
# 2018 01 15 14 08 46.200000 35.732 52.068  10.0  2.0 0.0 0.0 0.0        63
ALA  13.820 1.00 Pg
LAS  15.680 1.00 Pg
PRN  11.340 1.00 Pg
QOM  23.400 1.00 Pg
VRN  15.800 1.00 Pg
HSB  13.640 1.00 Pg
# 2018 01 15 23 43 24.200000 36.433 53.610  10.0  2.0 0.0 0.0 0.0        64
ALA  15.100 1.00 Pg
GLO   4.600 1.00 Pg
KIA   4.860 1.00 Pg
LAS  22.560 1.00 Pg
PRN  20.000 1.00 Pg
KIA   9.420 1.00 Sg
# 2018 01 16 06 26 31.900000 35.386 52.731  10.0  1.1 0.0 0.0 0.0        65
DMV  11.880 1.00 Pg
FIR   5.660 1.00 Pg
LAS   4.260 1.00 Pg
SFB  21.400 1.00 Pg
DMV  21.220 1.00 Sg
# 2018 01 16 08 37 07.300000 35.299 49.210  13.0  1.7 0.0 0.0 0.0        66
HAGD  9.760 1.00 Pg
HALM 18.480 1.00 Pg
HSAM 22.740 1.00 Pg
RAZ  20.800 1.00 Sg
RAZ  11.960 1.00 Pg
# 2018 01 16 11 01 50.500000 35.404 52.713  11.8  1.1 0.0 0.0 0.0        67
DMV  11.640 1.00 Pg
FIR   5.560 1.00 Pg
LAS   4.260 1.00 Pg
SFB  21.240 1.00 Pg
LAS   8.500 1.00 Sg
# 2018 01 16 12 36 13.000000 35.376 52.710  10.0  1.2 0.0 0.0 0.0        68
DMV  11.660 1.00 Pg
FIR   5.660 1.00 Pg
LAS   4.520 1.00 Pg
SFB  21.280 1.00 Pg
FIR  10.500 1.00 Sg
# 2018 01 16 12 43 54.800000 35.787 52.595  10.0  1.3 0.0 0.0 0.0        69
ALA   7.320 1.00 Pg
DMV  10.220 1.00 Pg
FIR   4.200 1.00 Pg
SFB  28.400 1.00 Pg
DMV  17.800 1.00 Sg
# 2018 01 16 15 00 53.600000 36.440 53.379   8.0  1.7 0.0 0.0 0.0        70
ALA  11.700 1.00 Pg
DMV  26.620 1.00 Pg
GLO   7.960 1.00 Pg
FIR  18.000 1.00 Pg
KIA   6.500 1.00 Pg
KLST 34.520 1.00 Pn
LAS  22.230 1.00 Pg
MZPU 27.800 1.00 Pg
PRN  17.320 1.00 Pg
SFB  40.260 1.00 Pn
VRN  36.000 1.00 Pn
# 2018 01 16 19 33 12.400000 36.139 52.543  10.0  1.5 0.0 0.0 0.0        71
ALA   5.060 1.00 Pg
DMV  13.840 1.00 Pg
FIR  10.580 1.00 Pg
PRN   4.420 1.00 Pg
# 2018 01 16 21 26 10.400000 35.919 53.259   5.0  1.1 0.0 0.0 0.0        72
ALA   8.280 1.00 Pg
FIR  10.260 1.00 Pg
LAS  12.230 1.00 Pg
SFB  33.500 1.00 Pg
KIA   9.540 1.00 Pg
ANJ  14.170 1.00 Pg
ALA  14.680 1.00 Sg
# 2018 01 17 11 06 44.900000 34.982 49.838  14.0  2.0 0.0 0.0 0.0        73
VRN  28.620 1.00 Pg
RAZ   8.740 1.00 Pg
QOM  19.060 1.00 Pg
MHD  18.220 1.00 Pg
HSAM 24.100 1.00 Pg
HAGD 12.020 1.00 Pg
DMV  34.280 1.00 Pn
RAZ  15.260 1.00 Sg
MHD  31.720 1.00 Sg
HSAM 40.760 1.00 Sg
# 2018 01 18 01 00 48.100000 35.160 51.870  10.0  1.9 0.0 0.0 0.0        74
ALA  23.220 1.00 Pg
DMV   9.000 1.00 Pg
FIR  16.960 1.00 Pg
HSB  11.100 1.00 Pg
LAS  18.130 1.00 Pg
QOM  14.460 1.00 Pg
QAMS 27.220 1.00 Pg
SFB  17.040 1.00 Pg
VRN   4.700 1.00 Pg
VRN   8.480 1.00 Sg
# 2018 01 18 10 49 05.400000 35.158 51.861  12.6  2.4 0.0 0.0 0.0        75
DMV   8.860 1.00 Pg
FIR  16.840 1.00 Pg
HSB  11.080 1.00 Pg
KLH  33.410 1.00 Pn
KRSH 22.800 1.00 Pg
LAS  17.850 1.00 Pg
QAMS 26.980 1.00 Pg
QOM  14.280 1.00 Pg
SFB  16.900 1.00 Pg
VRN   4.660 1.00 Pg
# 2018 01 18 14 12 18.600000 35.849 52.818  10.0  1.6 0.0 0.0 0.0        76
ALA   5.200 1.00 Pg
ALA   9.180 1.00 Sg
DMV  13.120 1.00 Pg
DMV  25.460 0.00 Sg
FIR   4.780 1.00 Pg
KLST 30.720 1.00 Pg
LAS   9.880 1.00 Pg
VRN  24.100 1.00 Pg
# 2018 01 19 01 08 40.300000 36.011 53.469  10.0  1.7 0.0 0.0 0.0        77
ANJ  13.230 1.00 Pg
ALA  19.600 1.00 Sg
FIR  12.680 1.00 Pg
DMV  24.120 1.00 Pg
GLO  11.400 1.00 Pg
LAS  15.330 1.00 Pg
# 2018 01 19 05 38 53.900000 35.718 52.151   8.0  1.8 0.0 0.0 0.0        78
DMV   3.740 1.00 Pg
FIR  10.080 1.00 Pg
VRN  15.720 1.00 Pg
SFB  25.720 1.00 Pg
DMV   6.720 1.00 Sg
# 2018 01 19 11 08 19.000000 34.161 51.888  10.0  1.6 0.0 0.0 0.0        79
KLH  17.190 1.00 Pg
KRSH  6.620 1.00 Pg
KRSH 10.840 1.00 Sg
QAMS 12.280 1.00 Pg
SFB   7.120 1.00 Pg
ZEF  24.430 1.00 Pg
# 2018 01 20 08 14 20.100000 35.551 53.243   7.0  1.4 0.0 0.0 0.0        80
SFB  27.840 1.00 Pg
LAS   6.070 1.00 Pg
FIR   8.400 1.00 Pg
FIR  14.780 1.00 Sg
# 2018 01 20 18 06 36.900000 35.632 50.951  10.0  1.7 0.0 0.0 0.0        81
AMD1  2.660 1.00 Pg
DMV  17.320 1.00 Pg
MHD   5.400 1.00 Pg
QABG 26.980 0.00 Pg
QOM  16.100 1.00 Pg
RAZ  16.520 1.00 Pg
VRN  16.900 1.00 Pg
AMD1  5.860 1.00 Sg
# 2018 01 20 23 31 05.400000 35.074 53.914  10.0  1.9 0.0 0.0 0.0        82
ANJ   8.040 1.00 Pg
DMV  29.680 0.50 Pg
FIR  20.760 1.00 Pg
GLO  27.620 1.00 Pg
LAS  16.780 1.00 Pg
LAS  29.040 1.00 Sg
KRSH 35.220 0.50 Pn
SFB  29.740 1.00 Pg
VRN  31.960 0.50 Pg
