# 2022 03 25 03 12 00.30  27.599  56.159  10.0 0.00 0.00 0.00  0.3    100313
BNDS   4.500   1.0 P
BNB    7.500   1.0 P
KRBR  42.000   1.0 P
KBAM  43.100   1.0 P
CHMN  43.600   1.0 P
KHGB  46.600   1.0 P
KSHD  50.000   1.0 P
# 2022 04 02 19 34 22.90  27.568  56.163  28.0 0.00 0.00 0.00  0.3    100314
MZN1  28.300   1.0 P
JASK  37.900   1.0 P
KBAM  42.400   1.0 P
CHMN  42.800   1.0 P
KSHB  46.200   1.0 P
KHGB  46.300   1.0 P
KSHD  48.600   1.0 P
GHIR  48.170   1.0 P
JSSH  35.330   1.0 P
KRBR  43.510   0.0 P
BNDS   3.600   1.0 P
# 2022 04 07 14 16 39.40  27.530  56.187  11.0 0.00 0.00 0.00  0.4    100315
BNDS   3.900   1.0 P
BNB    6.800   1.0 P
MZN1  27.500   1.0 P
JASK  39.000   1.0 P
KBAM  43.400   1.0 P
JHRM  43.700   1.0 P
UOSS  43.800   1.0 P
CHMN  44.200   1.0 P
KHGB  47.300   1.0 P
KSHB  48.600   1.0 P
MZN1  48.900   1.0 S
GHIR  49.080   1.0 P
KRBR  45.100   0.0 P
JSSH  35.440   1.0 P
# 2022 04 09 04 38 26.10  27.137  55.611  23.9 0.00 0.00 0.00  0.3    100316
BNB   16.400   1.0 P
MZN1  23.200   1.0 P
BNB   29.600   1.0 S
JASK  39.500   1.0 P
MZN1  41.300   1.0 S
KBAM  50.700   1.0 P
CHMN  51.000   1.0 P
KHGB  52.000   1.0 P
GHIR  42.610   1.0 P
LMD1  36.030   1.0 P
KRBR  49.440   1.0 P
# 2022 04 11 21 44 39.20  27.176  55.527  19.1 0.00 0.00 0.00  0.2    100317
BNB   18.000   1.0 P
JASK  41.000   1.0 P
KBAM  51.800   1.0 P
KHGB  52.600   1.0 P
# 2022 04 14 07 41 08.70  27.557  56.050  20.0 0.00 0.00 0.00  0.4    100318
BNDS   5.600   1.0 P
BNB    8.900   1.0 P
BNB   16.000   1.0 S
MZN1  25.400   1.0 P
JASK  39.200   1.0 P
CHMN  43.200   1.0 P
KBAM  43.800   1.0 P
KHGB  46.400   1.0 P
GHIR  45.900   1.0 P
JSSH  36.530   1.0 P
KRBR  43.890   0.0 P
LMD1  42.070   1.0 P
# 2022 04 23 21 30 35.40  27.518  56.008  14.8 0.00 0.00 0.00  0.4    100319
BNDS   5.000   1.0 P
BNB   10.600   1.0 P
MZN1  25.500   1.0 P
MZN1  45.700   1.0 S
KBAM  46.000   1.0 P
CHMN  46.000   1.0 P
KSHB  47.700   1.0 P
GHIR  47.150   1.0 P
JSSH  37.230   1.0 P
KRBR  45.400   0.0 P
LMD1  43.300   1.0 P
# 2022 04 24 00 33 05.30  27.503  55.980  13.0 0.00 0.00 0.00  0.3    100320
BNDS   5.600   1.0 P
BNB   11.400   1.0 P
MZN1  26.200   1.0 P
JASK  41.200   1.0 P
KRBR  46.500   0.0 P
KBAM  46.600   1.0 P
CHMN  47.200   1.0 P
# 2022 04 24 16 18 24.50  27.468  55.985  19.1 0.00 0.00 0.00  0.3    100321
BNDS   5.500   1.0 P
BNB   11.100   1.0 P
MZN1  25.800   1.0 P
JASK  40.000   1.0 P
MZN1  45.600   1.0 S
KBAM  46.100   1.0 P
KHGB  48.500   1.0 P
KSHD  51.900   1.0 P
# 2022 04 27 03 03 08.50  27.526  56.064  16.4 0.00 0.00 0.00  0.5    100322
BNDS   5.100   1.0 P
BNB    9.700   1.0 P
MZJN  26.000   1.0 P
KBAM  45.700   1.0 P
CHMN  45.800   1.0 P
MZJN  47.400   1.0 S
KHGB  48.200   1.0 P
KSHD  51.400   1.0 P
GHIR  47.900   1.0 P
KRBR  44.580   1.0 P
JSSH  37.920   1.0 P
# 2022 04 30 11 52 32.40  27.197  55.500  23.7 0.00 0.00 0.00  0.3    100323
BNDS  13.300   1.0 P
BNB   19.900   1.0 P
MZJN  22.800   1.0 P
MZJN  39.900   1.0 S
CHMN  52.100   1.0 P
KBAM  52.500   1.0 P
KSHD  57.200   1.0 P
# 2022 05 09 05 34 11.00  27.783  56.348   7.4 0.00 0.00 0.00  0.3    100324
BNB    8.300   1.0 P
KBAM  41.200   1.0 P
CHMN  41.300   1.0 P
JASK  41.500   1.0 P
KSHD  47.900   1.0 P
# 2022 05 16 23 11 34.20  27.584  56.239  16.6 0.00 0.00 0.00  0.3    100325
BNDS   4.900   1.0 P
MZJN  27.500   1.0 P
JASK  38.100   1.0 P
KRBR  40.900   1.0 P
KBAM  41.600   1.0 P
JHRM  42.000   1.0 P
CHMN  42.300   1.0 P
UOSS  44.000   1.0 P
KSHD  48.700   1.0 P
GHIR  49.870   1.0 P
KRBR  72.000   1.0 S
LMD1  46.990   1.0 P
JSSH  35.500   1.0 P
# 2022 05 16 23 45 19.00  27.488  56.171  15.6 0.00 0.00 0.00  0.3    100326
BNDS   3.000   1.0 P
BNDS   6.400   1.0 S
MZJN  27.200   1.0 P
JASK  37.700   1.0 P
UOSS  42.800   1.0 P
KBAM  43.100   1.0 P
CHMN  44.100   1.0 P
LMD1  44.500   1.0 P
MZJN  48.400   1.0 S
KSHD  50.400   1.0 P
GHIR  48.190   1.0 P
KRBR  42.260   1.0 P
JSSH  34.690   1.0 P
# 2022 05 19 20 40 52.70  27.630  56.130  24.0 0.00 0.00 0.00  0.3    100327
BNDS   7.100   1.0 P
MZJN  27.300   1.0 P
JASK  39.800   1.0 P
KBAM  42.300   1.0 P
CHMN  43.000   1.0 P
KSHD  49.000   1.0 P
# 2022 05 25 05 41 17.20  27.457  56.250  15.0 0.00 0.00 0.00  0.6    100328
BNDS   3.400   1.0 P
MZJN  27.800   1.0 P
JASK  37.500   1.0 P
KRBR  43.000   1.0 P
KBAM  43.300   1.0 P
CHMN  44.300   1.0 P
KSHD  50.400   1.0 P
MZJN  51.700   1.0 S
GHIR  48.370   1.0 P
JSSH  35.540   1.0 P
# 2022 05 27 09 10 10.10  27.226  55.705   7.1 0.00 0.00 0.00  0.4    100329
BNDS   9.300   1.0 P
BNDS  16.300   1.0 S
MZJN  24.200   1.0 P
JASK  40.600   1.0 P
LMD1  40.700   1.0 P
MZJN  41.800   1.0 S
KBAM  51.000   1.0 P
KSHD  56.900   1.0 P
GHIR  44.290   1.0 P
KRBR  46.590   1.0 P
JSSH  35.820   1.0 P
# 2022 05 27 22 30 00.30  27.608  56.150  12.7 0.00 0.00 0.00  0.2    100330
BNDS   5.800   1.0 P
MZJN  27.500   1.0 P
JASK  40.600   1.0 P
KRBR  43.000   1.0 P
KBAM  43.800   1.0 P
CHMN  44.400   1.0 P
KSHD  50.300   1.0 P
GHIR  48.160   1.0 P
JSSH  37.100   1.0 P
# 2022 05 28 16 37 43.40  27.612  56.137  10.0 0.00 0.00 0.00  0.5    100331
BNDS   4.500   1.0 P
MZJN  26.500   1.0 P
JASK  40.800   1.0 P
KRBR  41.800   1.0 P
KBAM  42.500   1.0 P
CHMN  43.700   1.0 P
KSHD  50.100   1.0 P
