 2021  8 8  6 4 49.9 L  26.903  55.033 19.9      11 0.3 0.0W                   1
 GAP=                                                                          E
 Action:ARG 22-09-14 15:25 OP:OBSP STATUS:               ID:20210808060449     I
 STAT SP IPHASW D HRMM SECON CODA AMPLIT PERI AZIMU VELO AIN AR TRES W  DIS CAZ7
 BNDS  Z  P        6 511.340                                        10          
 MZN1  Z  P        6 512.660                                        10          
 LMD1  Z  P        6 520.800                                        10          
 JHRM  Z  P        6 525.160                                        10          
 JASK  Z  P        6 534.400                                        10          
 KHJ1  Z  P        6 540.400                                        10          
 KSHB  Z  P        6 543.380                                        10          
 CHMN  Z  P        6 547.700                                        10          
 KHGB  Z  P        6 548.060                                        10          
 KBAM  Z  P        6 548.700                                        10          
 KSHD  Z  P        6 552.740                                        10          
                                                                                

 2021  8 8 2155 37.6 L  27.175  55.032 10.0       6 0.2 0.0W                   1
 GAP=                                                                          E
 Action:ARG 22-09-14 15:25 OP:OBSP STATUS:               ID:20210808215537     I
 STAT SP IPHASW D HRMM SECON CODA AMPLIT PERI AZIMU VELO AIN AR TRES W  DIS CAZ7
 BNDS  Z  P       215557.600                                        10          
 BNB   Z  P       2156 3.760                                        10          
 LMD1  Z  P       2156 8.480                                        10          
 KRBR  Z  P       215629.860                                        10          
 KHGB  Z  P       215633.480                                        10          
 CHMN  Z  P       215634.460                                        10          
                                                                                

 2021  815  019 17.2 L  28.165  55.876 10.0       8 0.5 0.0W                   1
 GAP=                                                                          E
 Action:ARG 22-09-14 15:25 OP:OBSP STATUS:               ID:20210815001917     I
 STAT SP IPHASW D HRMM SECON CODA AMPLIT PERI AZIMU VELO AIN AR TRES W  DIS CAZ7
 GENO  Z  P        01932.840                                        10          
 MZN1  Z  P        01938.620                                        10          
 GENO  N  S        01946.720                                        10          
 KRBR  Z  P        01952.140                                        10          
 KSHB  Z  P        01956.360                                        10          
 CHMN  Z  P        01956.760                                        10          
 KHGB  Z  P        01957.260                                        10          
 KBAM  Z  P        01959.640                                        10          
 KSHD  Z  P        020 2.040                                        10          
                                                                                

 2021  822 21 3 57.1 L  27.585  55.377 16.9       5 0.4 0.0W                   1
 GAP=                                                                          E
 Action:ARG 22-09-14 15:25 OP:OBSP STATUS:               ID:20210822210357     I
 STAT SP IPHASW D HRMM SECON CODA AMPLIT PERI AZIMU VELO AIN AR TRES W  DIS CAZ7
 GENO  Z  P       21 411.060                                        10          
 BNB   Z  P       21 417.160                                        10          
 GENO  N  S       21 422.120                                        10          
 KHJ1  Z  P       21 439.360                                        10          
 KHGB  Z  P       21 444.900                                        10          
 CHMN  Z  P       21 445.680                                        10          
                                                                                

 2021  822 2227 49.6 L  28.016  55.563 19.5      12 0.3 0.0W                   1
 GAP=                                                                          E
 Action:ARG 22-09-14 15:25 OP:OBSP STATUS:               ID:20210822222749     I
 STAT SP IPHASW D HRMM SECON CODA AMPLIT PERI AZIMU VELO AIN AR TRES W  DIS CAZ7
 GENO  Z  P       2228 5.320                                        10          
 MZN1  Z  P       2228 5.360                                        10          
 JHRM  Z  P       222823.620                                        10          
 LMD1  Z  P       222827.280                                        10          
 KSHB  Z  P       222827.860                                        10          
 KHJ1  Z  P       222828.220                                        10          
 KHGB  Z  P       222831.280                                        10          
 CHMN  Z  P       222831.880                                        10          
 KBAM  Z  P       222835.040                                        10          
 KSHD  Z  P       222836.800                                        10          
 JASK  Z  P       222837.760                                        10          
 UOSS  Z  P       222839.790                                        10          
                                                                                

 2021  824  624 40.8 L  27.627  56.472 20.8      13 0.3 0.0W                   1
 GAP=                                                                          E
 Action:ARG 22-09-14 15:25 OP:OBSP STATUS:               ID:20210824062440     I
 STAT SP IPHASW D HRMM SECON CODA AMPLIT PERI AZIMU VELO AIN AR TRES W  DIS CAZ7
 BNB   Z  P        62445.740                                        10          
 GENO  Z  P        62448.520                                        10          
 JASK  Z  P        62517.360                                        10          
 KBAM  Z  P        62519.580                                        10          
 KRBR  Z  P        62520.540                                        10          
 CHMN  Z  P        62521.020                                        10          
 KHGB  Z  P        62525.980                                        10          
 KSHD  Z  P        62527.420                                         0          
 KSHB  Z  P        62527.820                                        10          
 GHIR  Z  P        62531.740                                        10          
 BNDS  Z  P        62448.410                                        10          
 JSSH  Z  P        62514.960                                        10          
 LMD1  Z  P        62529.250                                        10          
                                                                                

 2021  824 1842 48.6 L  27.900  56.860  9.0       6 0.4 0.0W                   1
 GAP=                                                                          E
 Action:ARG 22-09-14 15:25 OP:OBSP STATUS:               ID:20210824184248     I
 STAT SP IPHASW D HRMM SECON CODA AMPLIT PERI AZIMU VELO AIN AR TRES W  DIS CAZ7
 KBAM  Z  P       184322.280                                        10          
 CHMN  Z  P       184325.700                                        10          
 KRBR  Z  P       184326.360                                        10          
 JASK  Z  P       184327.840                                        10          
 KSHB  Z  P       184335.520                                        10          
 UOSS  Z  P       184338.770                                        10          
                                                                                

 2021  824 1943 53.3 L  27.852  56.562  6.0       8 0.2 0.0W                   1
 GAP=                                                                          E
 Action:ARG 22-09-14 15:25 OP:OBSP STATUS:               ID:20210824194353     I
 STAT SP IPHASW D HRMM SECON CODA AMPLIT PERI AZIMU VELO AIN AR TRES W  DIS CAZ7
 BNB   Z  P       1944 2.140                                        10          
 BNDS  Z  P       1944 5.220                                        10          
 GENO  N  S       194414.800                                        10          
 KBAM  Z  P       194432.080                                        10          
 KRBR  Z  P       194432.680                                        10          
 CHMN  Z  P       194433.400                                        10          
 JASK  Z  P       194434.260                                        10          
 KHGB  Z  P       194438.200                                        10          
                                                                                

 2021  825 1939 22.5 L  28.100  56.935 18.1       7 0.3 0.0W                   1
 GAP=                                                                          E
 Action:ARG 22-09-14 15:25 OP:OBSP STATUS:               ID:20210825193922     I
 STAT SP IPHASW D HRMM SECON CODA AMPLIT PERI AZIMU VELO AIN AR TRES W  DIS CAZ7
 BNB   Z  P       193937.600                                        10          
 BNDS  Z  P       193942.260                                         0          
 GENO  Z  P       193942.420                                        10          
 KBAM  Z  P       193953.540                                        10          
 CHMN  Z  P       193956.800                                        10          
 KRBR  Z  P       193956.960                                        10          
 JASK  Z  P       1940 3.380                                        10          
                                                                                

 2021  831  123 48.8 L  27.932  56.824 10.0       6 0.5 0.0W                   1
 GAP=                                                                          E
 Action:ARG 22-09-14 15:25 OP:OBSP STATUS:               ID:20210831012348     I
 STAT SP IPHASW D HRMM SECON CODA AMPLIT PERI AZIMU VELO AIN AR TRES W  DIS CAZ7
 BNB   Z  P        12359.300                                        10          
 GENO  Z  P        124 4.260                                        10          
 BNDS  Z  P        124 4.480                                        10          
 KBAM  Z  P        12423.280                                        10          
 CHMN  Z  P        12426.700                                        10          
 KHGB  Z  P        12431.940                                        10          
                                                                                

 2021  9 1 1632  6.6 L  27.871  56.337  1.2       4 0.2 0.0W                   1
 GAP=                                                                          E
 Action:ARG 22-09-14 15:25 OP:OBSP STATUS:               ID:20210901163206     I
 STAT SP IPHASW D HRMM SECON CODA AMPLIT PERI AZIMU VELO AIN AR TRES W  DIS CAZ7
 BNB   Z  P       163216.240                                        10          
 GENO  Z  P       163216.560                                        10          
 GENO  N  S       163224.620                                        10          
 KRBR  Z  P       163246.320                                        10          
 KBAM  Z  P       163247.240                                        10          
                                                                                

 2021  913 1832 19.5 L  27.720  56.694 20.0       7 0.5 0.0W                   1
 GAP=                                                                          E
 Action:ARG 22-09-14 15:25 OP:OBSP STATUS:               ID:20210913183219     I
 STAT SP IPHASW D HRMM SECON CODA AMPLIT PERI AZIMU VELO AIN AR TRES W  DIS CAZ7
 BNB   Z  P       183226.320                                        10          
 BNDS  Z  P       183230.860                                        10          
 KBAM  Z  P       183254.760                                        10          
 JASK  Z  P       183255.580                                        10          
 KRBR  Z  P       183256.980                                        10          
 CHMN  Z  P       183258.340                                        10          
 KSHD  Z  P       1833 4.340                                        10          
                                                                                

 2021  919 1616 23.1 L  27.663  55.144  7.6       6 0.4 0.0W                   1
 GAP=                                                                          E
 Action:ARG 22-09-14 15:25 OP:OBSP STATUS:               ID:20210919161623     I
 STAT SP IPHASW D HRMM SECON CODA AMPLIT PERI AZIMU VELO AIN AR TRES W  DIS CAZ7
 MZN1  Z  P       161634.440                                        10          
 MZN1  N  S       161643.320                                        10          
 JHRM  Z  P       161654.620                                        10          
 LMD1  Z  P       161656.900                                        10          
 KSHB  Z  P       1617 7.680                                        10          
 CHMN  Z  P       161712.720                                         5          
 KBAM  Z  P       161716.580                                        10          
                                                                                

 2021  922 1558 44.6 L  28.257  55.203 21.5       9 0.2 0.0W                   1
 GAP=                                                                          E
 Action:ARG 22-09-14 15:25 OP:OBSP STATUS:               ID:20210922155844     I
 STAT SP IPHASW D HRMM SECON CODA AMPLIT PERI AZIMU VELO AIN AR TRES W  DIS CAZ7
 MZN1  Z  P       155856.400                                        10          
 BNDS  Z  P       1559 8.720                                        10          
 BNB   Z  P       155912.580                                        10          
 JHRM  Z  P       155913.240                                        10          
 KSHB  Z  P       155919.960                                        10          
 KHGB  Z  P       155925.500                                        10          
 CHMN  Z  P       155928.660                                        10          
 KSHD  Z  P       155932.580                                        10          
 KBAM  Z  P       155933.920                                        10          
                                                                                

 2021  930 1029  2.6 L  26.626  55.669 16.0       3 0.2 0.0W                   1
 GAP=                                                                          E
 Action:ARG 22-09-14 15:25 OP:OBSP STATUS:               ID:20210930102902     I
 STAT SP IPHASW D HRMM SECON CODA AMPLIT PERI AZIMU VELO AIN AR TRES W  DIS CAZ7
 BNDS  Z  P       102920.580                                        10          
 BNDS  N  S       102934.420                                        10          
 MZN1  Z  P       102935.560                                        10          
 JASK  Z  P       102940.140                                        10          
                                                                                

 2021 1010 1611 25.4 L  27.321  55.258 16.7      12 0.3 0.0W                   1
 GAP=                                                                          E
 Action:ARG 22-09-14 15:25 OP:OBSP STATUS:               ID:20211010161125     I
 STAT SP IPHASW D HRMM SECON CODA AMPLIT PERI AZIMU VELO AIN AR TRES W  DIS CAZ7
 MZN1  Z  P       161142.360                                        10          
 BNB   Z  P       161147.480                                        10          
 JHRM  Z  P       161159.240                                        10          
 LMD1  Z  P       1612 0.000                                        10          
 UOSS  Z  P       1612 7.590                                        10          
 JASK  Z  P       161210.240                                        10          
 KSHB  Z  P       161213.160                                        10          
 KRBR  Z  P       161213.600                                        10          
 CHMN  Z  P       161217.500                                        10          
 KHGB  Z  P       161217.560                                        10          
 KBAM  Z  P       161218.860                                        10          
 KSHD  Z  P       161222.580                                         0          
                                                                                

 2021 1010 1826 53.8 L  27.232  55.340 27.7       7 0.4 0.0W                   1
 GAP=                                                                          E
 Action:ARG 22-09-14 15:25 OP:OBSP STATUS:               ID:20211010182653     I
 STAT SP IPHASW D HRMM SECON CODA AMPLIT PERI AZIMU VELO AIN AR TRES W  DIS CAZ7
 MZN1  Z  P       182714.500                                        10          
 BNB   Z  P       182715.920                                        10          
 LMD1  Z  P       182728.080                                        10          
 JHRM  Z  P       182728.600                                        10          
 JASK  Z  P       182736.820                                        10          
 KHGB  Z  P       182746.040                                        10          
 CHMN  Z  P       182746.900                                        10          
                                                                                

 2021 1010 2051 54.2 L  27.717  56.562 10.0       6 0.4 0.0W                   1
 GAP=                                                                          E
 Action:ARG 22-09-14 15:25 OP:OBSP STATUS:               ID:20211010205154     I
 STAT SP IPHASW D HRMM SECON CODA AMPLIT PERI AZIMU VELO AIN AR TRES W  DIS CAZ7
 BNB   Z  P       205159.700                                        10          
 KBAM  Z  P       205232.140                                        10          
 JASK  Z  P       205232.740                                        10          
 CHMN  Z  P       205234.500                                        10          
 KHGB  Z  P       205238.860                                        10          
 KSHD  Z  P       205241.100                                        10          
                                                                                

