 2021 1115 2120  0.0 L  27.574  56.092 10.0       5 0.3 0.0W                   1
 GAP=                                                                          E
 Action:ARG 22-09-14 15:25 OP:OBSP STATUS:               ID:20211115212000     I
 STAT SP IPHASW D HRMM SECON CODA AMPLIT PERI AZIMU VELO AIN AR TRES W  DIS CAZ7
 BNDS  Z  P       2120 4.160                                        10          
 BNB   Z  P       2120 8.700                                        10          
 MZN1  Z  P       212026.300                                        10          
 KBAM  Z  P       212042.600                                         5          
 KHGB  Z  P       212047.080                                        10          
                                                                                

 2021 1115 2124 17.8 L  27.560  56.170 16.1      10 0.3 0.0W                   1
 GAP=                                                                          E
 Action:ARG 22-09-14 15:25 OP:OBSP STATUS:               ID:20211115212417     I
 STAT SP IPHASW D HRMM SECON CODA AMPLIT PERI AZIMU VELO AIN AR TRES W  DIS CAZ7
 BNDS  Z  P       212422.400                                        10          
 BNB   Z  P       212424.880                                        10          
 MZN1  Z  P       212444.980                                        10          
 KBAM  Z  P       2125 0.720                                        10          
 CHMN  Z  P       2125 0.880                                        10          
 KHGB  Z  P       2125 4.260                                        10          
 MZN1  N  S       2125 5.000                                        10          
 GHIR  Z  P       2125 5.040                                        10          
 JSSH  Z  P       212454.380                                        10          
 LMD1  Z  P       2125 2.370                                        10          
 KRBR  Z  P       212454.990                                         0          
                                                                                

 2021 1115 2137 37.9 L  27.614  56.138 10.0       6 0.4 0.0W                   1
 GAP=                                                                          E
 Action:ARG 22-09-14 15:25 OP:OBSP STATUS:               ID:20211115213737     I
 STAT SP IPHASW D HRMM SECON CODA AMPLIT PERI AZIMU VELO AIN AR TRES W  DIS CAZ7
 BNB   Z  P       213745.280                                        10          
 BNB   N  S       213752.140                                        10          
 MZN1  Z  P       2138 4.840                                        10          
 JASK  Z  P       213818.560                                        10          
 KBAM  Z  P       213821.320                                        10          
 CHMN  Z  P       213822.300                                        10          
 KHGB  Z  P       213823.820                                        10          
                                                                                

 2021 1115 2154 40.5 L  27.634  56.196  8.9       7 0.1 0.0W                   1
 GAP=                                                                          E
 Action:ARG 22-09-14 15:25 OP:OBSP STATUS:               ID:20211115215440     I
 STAT SP IPHASW D HRMM SECON CODA AMPLIT PERI AZIMU VELO AIN AR TRES W  DIS CAZ7
 BNDS  Z  P       215445.640                                        10          
 BNB   Z  P       215447.880                                        10          
 MZN1  Z  P       2155 7.960                                        10          
 JASK  Z  P       215520.720                                        10          
 KBAM  Z  P       215523.260                                        10          
 CHMN  Z  P       215523.760                                        10          
 KHGB  Z  P       215526.920                                        10          
                                                                                

 2021 1115 2231 51.1 L  27.528  55.952 19.5      10 0.4 0.0W                   1
 GAP=                                                                          E
 Action:ARG 22-09-14 15:25 OP:OBSP STATUS:               ID:20211115223151     I
 STAT SP IPHASW D HRMM SECON CODA AMPLIT PERI AZIMU VELO AIN AR TRES W  DIS CAZ7
 BNB   Z  P       2232 0.980                                        10          
 BNB   N  S       223210.240                                        10          
 MZN1  Z  P       223214.800                                        10          
 MZN1  N  S       223233.520                                        10          
 UOSS  Z  P       223233.590                                        10          
 KBAM  Z  P       223235.540                                        10          
 CHMN  Z  P       223235.580                                        10          
 KHGB  Z  P       223237.820                                        10          
 GHIR  Z  P       223235.730                                        10          
 BNDS  Z  P       223154.760                                        10          
 KRBR  Z  P       223231.090                                        10          
 JSSH  Z  P       223226.540                                        10          
                                                                                

 2021 1115 2234 56.2 L  27.474  56.134 18.6       6 0.1 0.0W                   1
 GAP=                                                                          E
 Action:ARG 22-09-14 15:25 OP:OBSP STATUS:               ID:20211115223456     I
 STAT SP IPHASW D HRMM SECON CODA AMPLIT PERI AZIMU VELO AIN AR TRES W  DIS CAZ7
 BNDS  Z  P       2235 0.140                                        10          
 BNB   Z  P       2235 3.880                                        10          
 MZN1  Z  P       223523.220                                        10          
 KBAM  Z  P       223539.600                                        10          
 CHMN  Z  P       223540.740                                        10          
 KHGB  Z  P       223543.420                                        10          
                                                                                

 2021 1115 2251 21.4 L  27.590  56.082  7.2      11 0.4 0.0W                   1
 GAP=                                                                          E
 Action:ARG 22-09-14 15:25 OP:OBSP STATUS:               ID:20211115225121     I
 STAT SP IPHASW D HRMM SECON CODA AMPLIT PERI AZIMU VELO AIN AR TRES W  DIS CAZ7
 BNDS  Z  P       225125.440                                        10          
 BNDS  N  S       225128.880                                        10          
 BNB   Z  P       225130.380                                        10          
 BNB   N  S       225136.980                                        10          
 MZN1  Z  P       225148.140                                        10          
 JASK  Z  P       2252 2.720                                        10          
 KBAM  Z  P       2252 5.540                                        10          
 CHMN  Z  P       2252 6.360                                        10          
 KHGB  Z  P       2252 8.220                                        10          
 GHIR  Z  P       225212.000                                        10          
 JSSH  Z  P       225159.170                                        10          
 LMD1  Z  P       2252 7.530                                        10          
 KRBR  Z  P       225157.840                                         0          
                                                                                

 2021 1115 23 4  2.9 L  27.619  56.238  6.0       8 0.5 0.0W                   1
 GAP=                                                                          E
 Action:ARG 22-09-14 15:25 OP:OBSP STATUS:               ID:20211115230402     I
 STAT SP IPHASW D HRMM SECON CODA AMPLIT PERI AZIMU VELO AIN AR TRES W  DIS CAZ7
 BNDS  Z  P       23 4 7.160                                        10          
 BNB   N  S       23 414.980                                        10          
 MZN1  Z  P       23 433.760                                        10          
 JASK  Z  P       23 445.240                                         5          
 KBAM  Z  P       23 446.420                                        10          
 CHMN  Z  P       23 446.580                                        10          
 UOSS  Z  P       23 449.440                                        10          
 KHGB  Z  P       23 450.120                                        10          
                                                                                

 2021 1115 23 7 27.8 L  27.599  56.208  5.0       5 0.5 0.0W                   1
 GAP=                                                                          E
 Action:ARG 22-09-14 15:25 OP:OBSP STATUS:               ID:20211115230727     I
 STAT SP IPHASW D HRMM SECON CODA AMPLIT PERI AZIMU VELO AIN AR TRES W  DIS CAZ7
 BNDS  Z  P       23 731.640                                        10          
 MZN1  Z  P       23 758.160                                        10          
 JASK  Z  P       23 8 9.340                                        10          
 KBAM  Z  P       23 811.680                                        10          
 CHMN  Z  P       23 812.000                                        10          
                                                                                

 2021 1115 2347 54.9 L  27.481  56.238 14.5       7 0.3 0.0W                   1
 GAP=                                                                          E
 Action:ARG 22-09-14 15:25 OP:OBSP STATUS:               ID:20211115234754     I
 STAT SP IPHASW D HRMM SECON CODA AMPLIT PERI AZIMU VELO AIN AR TRES W  DIS CAZ7
 BNDS  Z  P       234758.440                                        10          
 BNB   Z  P       2348 0.800                                        10          
 MZN1  Z  P       234823.240                                        10          
 JASK  Z  P       234832.220                                        10          
 KBAM  Z  P       234837.980                                        10          
 CHMN  Z  P       234838.420                                        10          
 KHGB  Z  P       234842.540                                        10          
                                                                                

 2021 1115 2355 12.0 L  27.523  56.202  8.4       6 0.4 0.0W                   1
 GAP=                                                                          E
 Action:ARG 22-09-14 15:25 OP:OBSP STATUS:               ID:20211115235512     I
 STAT SP IPHASW D HRMM SECON CODA AMPLIT PERI AZIMU VELO AIN AR TRES W  DIS CAZ7
 BNDS  Z  P       235515.440                                        10          
 BNB   Z  P       235518.060                                        10          
 MZN1  Z  P       235540.060                                        10          
 JASK  Z  P       235550.940                                        10          
 CHMN  Z  P       235557.220                                        10          
 KHGB  Z  P       2356 0.260                                        10          
                                                                                

 2021 1116  017 15.0 L  27.592  56.202 10.0       7 0.4 0.0W                   1
 GAP=                                                                          E
 Action:ARG 22-09-14 15:25 OP:OBSP STATUS:               ID:20211116001715     I
 STAT SP IPHASW D HRMM SECON CODA AMPLIT PERI AZIMU VELO AIN AR TRES W  DIS CAZ7
 BNDS  Z  P        01719.280                                        10          
 BNB   Z  P        01721.800                                        10          
 BNDS  N  S        01723.300                                        10          
 MZN1  Z  P        01742.360                                        10          
 JASK  Z  P        01754.120                                        10          
 KBAM  Z  P        01757.860                                        10          
 CHMN  Z  P        01758.600                                        10          
 KHGB  Z  P        018 2.560                                        10          
                                                                                

 2021 1116  048 48.2 L  27.600  56.229  8.0       8 0.3 0.0W                   1
 GAP=                                                                          E
 Action:ARG 22-09-14 15:25 OP:OBSP STATUS:               ID:20211116004848     I
 STAT SP IPHASW D HRMM SECON CODA AMPLIT PERI AZIMU VELO AIN AR TRES W  DIS CAZ7
 BNDS  Z  P        04853.600                                        10          
 BNB   Z  P        04855.080                                        10          
 BNDS  N  S        04857.580                                        10          
 MZN1  Z  P        04917.340                                        10          
 JASK  Z  P        04928.920                                        10          
 JHRM  Z  P        04932.160                                        10          
 KBAM  Z  P        04932.380                                        10          
 CHMN  Z  P        04933.300                                        10          
 KHGB  Z  P        04935.980                                        10          
                                                                                

 2021 1116  1 9 18.6 L  27.416  56.222 10.0       5 0.8 0.0W                   1
 GAP=                                                                          E
 Action:ARG 22-09-14 15:25 OP:OBSP STATUS:               ID:20211116010918     I
 STAT SP IPHASW D HRMM SECON CODA AMPLIT PERI AZIMU VELO AIN AR TRES W  DIS CAZ7
 BNDS  Z  P        1 920.680                                        10          
 BNB   Z  P        1 923.220                                        10          
 BNB   N  S        1 929.080                                        10          
 JASK  Z  P        1 959.280                                        10          
 KBAM  Z  P        1 959.560                                         5          
 CHMN  Z  P        110 4.320                                        10          
                                                                                

 2021 1116  117 17.2 L  27.572  56.181  8.0       6 0.3 0.0W                   1
 GAP=                                                                          E
 Action:ARG 22-09-14 15:25 OP:OBSP STATUS:               ID:20211116011717     I
 STAT SP IPHASW D HRMM SECON CODA AMPLIT PERI AZIMU VELO AIN AR TRES W  DIS CAZ7
 BNDS  Z  P        11720.700                                        10          
 BNB   Z  P        11724.220                                        10          
 BNDS  N  S        11724.300                                        10          
 MZN1  Z  P        11744.820                                        10          
 JASK  Z  P        11757.020                                        10          
 KBAM  Z  P        118 0.320                                        10          
 CHMN  Z  P        118 2.060                                        10          
                                                                                

 2021 1116  135  5.3 L  27.512  56.020 14.4       7 0.5 0.0W                   1
 GAP=                                                                          E
 Action:ARG 22-09-14 15:25 OP:OBSP STATUS:               ID:20211116013505     I
 STAT SP IPHASW D HRMM SECON CODA AMPLIT PERI AZIMU VELO AIN AR TRES W  DIS CAZ7
 BNDS  Z  P        135 9.200                                        10          
 BNB   Z  P        13514.240                                        10          
 BNB   N  S        13522.560                                        10          
 MZN1  Z  P        13531.040                                        10          
 JASK  Z  P        13544.920                                        10          
 KBAM  Z  P        13550.040                                        10          
 CHMN  Z  P        13550.180                                        10          
 KHGB  Z  P        13552.380                                        10          
                                                                                

 2021 1116  158 54.1 L  27.595  56.132 12.7       5 0.1 0.0W                   1
 GAP=                                                                          E
 Action:ARG 22-09-14 15:25 OP:OBSP STATUS:               ID:20211116015854     I
 STAT SP IPHASW D HRMM SECON CODA AMPLIT PERI AZIMU VELO AIN AR TRES W  DIS CAZ7
 BNDS  Z  P        15858.620                                        10          
 BNB   Z  P        159 2.260                                        10          
 BNB   N  S        159 8.000                                        10          
 JASK  Z  P        15933.820                                        10          
 KBAM  Z  P        15937.000                                        10          
 CHMN  Z  P        15937.640                                        10          
                                                                                

 2021 1116  2 4 37.9 L  27.605  56.230 10.0       6 0.4 0.0W                   1
 GAP=                                                                          E
 Action:ARG 22-09-14 15:25 OP:OBSP STATUS:               ID:20211116020437     I
 STAT SP IPHASW D HRMM SECON CODA AMPLIT PERI AZIMU VELO AIN AR TRES W  DIS CAZ7
 BNB   N  S        2 449.140                                        10          
 MZN1  Z  P        2 5 5.560                                        10          
 JASK  Z  P        2 519.120                                        10          
 KBAM  Z  P        2 520.760                                        10          
 CHMN  Z  P        2 521.620                                        10          
 KHGB  Z  P        2 524.720                                        10          
                                                                                

 2021 1116  2 9 30.2 L  27.509  56.184 15.9       7 0.2 0.0W                   1
 GAP=                                                                          E
 Action:ARG 22-09-14 15:25 OP:OBSP STATUS:               ID:20211116020930     I
 STAT SP IPHASW D HRMM SECON CODA AMPLIT PERI AZIMU VELO AIN AR TRES W  DIS CAZ7
 BNDS  Z  P        2 933.760                                        10          
 BNB   Z  P        2 937.240                                        10          
 MZN1  Z  P        2 957.860                                        10          
 JASK  Z  P        210 8.200                                        10          
 KBAM  Z  P        21012.980                                        10          
 CHMN  Z  P        21014.260                                        10          
 KHGB  Z  P        21017.000                                        10          
                                                                                

