 2021 1115  145 28.5 L  27.473  56.146 21.0       6 0.4 0.0W                   1
 GAP=                                                                          E
 Action:ARG 22-09-14 15:25 OP:OBSP STATUS:               ID:20211115014528     I
 STAT SP IPHASW D HRMM SECON CODA AMPLIT PERI AZIMU VELO AIN AR TRES W  DIS CAZ7
 BNDS  Z  P        14533.820                                        10          
 BNB   Z  P        14536.840                                        10          
 JASK  Z  P        146 7.060                                        10          
 KBAM  Z  P        14612.720                                        10          
 CHMN  Z  P        14613.160                                        10          
 MZN1  N  S        14618.000                                        10          
                                                                                

 2021 1115  159 52.1 L  27.585  56.315 15.1       5 0.3 0.0W                   1
 GAP=                                                                          E
 Action:ARG 22-09-14 15:25 OP:OBSP STATUS:               ID:20211115015952     I
 STAT SP IPHASW D HRMM SECON CODA AMPLIT PERI AZIMU VELO AIN AR TRES W  DIS CAZ7
 BNDS  Z  P        15957.400                                        10          
 BNB   Z  P        15957.600                                        10          
 JASK  Z  P        2 030.060                                        10          
 KBAM  Z  P        2 033.660                                        10          
 CHMN  Z  P        2 034.260                                        10          
                                                                                

 2021 1115  2 2 27.1 L  27.576  56.139  7.0       9 0.4 0.0W                   1
 GAP=                                                                          E
 Action:ARG 22-09-14 15:25 OP:OBSP STATUS:               ID:20211115020227     I
 STAT SP IPHASW D HRMM SECON CODA AMPLIT PERI AZIMU VELO AIN AR TRES W  DIS CAZ7
 BNDS  Z  P        2 232.120                                        10          
 BNB   Z  P        2 234.960                                        10          
 MZN1  Z  P        2 254.540                                        10          
 KBAM  Z  P        2 311.700                                        10          
 CHMN  Z  P        2 312.980                                        10          
 GHIR  Z  P        2 317.820                                        10          
 LMD1  Z  P        2 317.300                                         0          
 KRBR  Z  P        2 3 9.830                                        10          
 JSSH  Z  P        2 3 4.350                                        10          
                                                                                

 2021 1115  218  4.8 L  27.633  56.174 21.4       5 0.3 0.0W                   1
 GAP=                                                                          E
 Action:ARG 22-09-14 15:25 OP:OBSP STATUS:               ID:20211115021804     I
 STAT SP IPHASW D HRMM SECON CODA AMPLIT PERI AZIMU VELO AIN AR TRES W  DIS CAZ7
 BNDS  Z  P        21810.940                                        10          
 BNB   Z  P        21812.540                                        10          
 MZN1  Z  P        21830.700                                        10          
 CHMN  Z  P        21846.060                                        10          
 KBAM  Z  P        21846.360                                        10          
                                                                                

 2021 1115  245 22.8 L  27.525  56.042 10.0       6 0.4 0.0W                   1
 GAP=                                                                          E
 Action:ARG 22-09-14 15:25 OP:OBSP STATUS:               ID:20211115024522     I
 STAT SP IPHASW D HRMM SECON CODA AMPLIT PERI AZIMU VELO AIN AR TRES W  DIS CAZ7
 BNDS  Z  P        24526.320                                        10          
 BNB   Z  P        24532.420                                        10          
 JASK  Z  P        246 3.240                                        10          
 KBAM  Z  P        246 7.560                                        10          
 CHMN  Z  P        246 7.960                                        10          
 MZN1  N  S        246 8.180                                        10          
                                                                                

 2021 1115  253 43.5 L  27.635  56.168 11.9      10 0.3 0.0W                   1
 GAP=                                                                          E
 Action:ARG 22-09-14 15:25 OP:OBSP STATUS:               ID:20211115025343     I
 STAT SP IPHASW D HRMM SECON CODA AMPLIT PERI AZIMU VELO AIN AR TRES W  DIS CAZ7
 BNDS  Z  P        25348.760                                        10          
 BNB   Z  P        25351.140                                        10          
 MZN1  Z  P        25410.460                                        10          
 JASK  Z  P        25423.900                                        10          
 KBAM  Z  P        25426.720                                        10          
 CHMN  Z  P        25426.760                                        10          
 MZN1  N  S        25431.320                                        10          
 GHIR  Z  P        25429.790                                        10          
 JSSH  Z  P        25417.980                                        10          
 LMD1  Z  P        25426.810                                        10          
 KRBR  Z  P        25421.050                                         0          
                                                                                

 2021 1115  3 4 38.5 L  27.577  56.081 11.0       6 0.4 0.0W                   1
 GAP=                                                                          E
 Action:ARG 22-09-14 15:25 OP:OBSP STATUS:               ID:20211115030438     I
 STAT SP IPHASW D HRMM SECON CODA AMPLIT PERI AZIMU VELO AIN AR TRES W  DIS CAZ7
 BNDS  Z  P        3 442.800                                        10          
 BNB   Z  P        3 447.400                                        10          
 MZN1  Z  P        3 5 4.260                                        10          
 CHMN  Z  P        3 522.920                                        10          
 KBAM  Z  P        3 523.000                                        10          
 MZN1  N  S        3 524.440                                        10          
 KSHB  Z  P        3 525.840                                        10          
                                                                                

 2021 1115  314 36.1 L  27.486  56.212 15.6       8 0.3 0.0W                   1
 GAP=                                                                          E
 Action:ARG 22-09-14 15:25 OP:OBSP STATUS:               ID:20211115031436     I
 STAT SP IPHASW D HRMM SECON CODA AMPLIT PERI AZIMU VELO AIN AR TRES W  DIS CAZ7
 BNDS  Z  P        31439.780                                        10          
 BNB   Z  P        31442.120                                        10          
 MZN1  Z  P        315 4.220                                        10          
 JASK  Z  P        31513.540                                        10          
 UOSS  Z  P        31518.290                                        10          
 KBAM  Z  P        31519.000                                        10          
 CHMN  Z  P        31520.280                                        10          
 KSHB  Z  P        31524.000                                        10          
                                                                                

 2021 1115  355 19.7 L  27.541  56.113 16.2       7 0.3 0.0W                   1
 GAP=                                                                          E
 Action:ARG 22-09-14 15:25 OP:OBSP STATUS:               ID:20211115035519     I
 STAT SP IPHASW D HRMM SECON CODA AMPLIT PERI AZIMU VELO AIN AR TRES W  DIS CAZ7
 BNDS  Z  P        35524.160                                        10          
 BNB   Z  P        35527.540                                        10          
 MZN1  Z  P        35545.740                                        10          
 UOSS  Z  P        356 2.570                                        10          
 KBAM  Z  P        356 3.220                                        10          
 CHMN  Z  P        356 3.420                                        10          
 KHGB  Z  P        356 6.760                                        10          
                                                                                

 2021 1115  413 31.6 L  27.536  56.199 12.3       8 0.2 0.0W                   1
 GAP=                                                                          E
 Action:ARG 22-09-14 15:25 OP:OBSP STATUS:               ID:20211115041331     I
 STAT SP IPHASW D HRMM SECON CODA AMPLIT PERI AZIMU VELO AIN AR TRES W  DIS CAZ7
 BNDS  Z  P        41336.240                                        10          
 BNB   Z  P        41338.800                                        10          
 MZN1  Z  P        414 0.220                                        10          
 JASK  Z  P        41411.380                                        10          
 KBAM  Z  P        41415.700                                        10          
 CHMN  Z  P        41416.460                                        10          
 KHGB  Z  P        41420.080                                        10          
 KSHB  Z  P        41420.360                                        10          
                                                                                

 2021 1115  423  3.3 L  27.615  56.224 10.0       4 0.2 0.0W                   1
 GAP=                                                                          E
 Action:ARG 22-09-14 15:25 OP:OBSP STATUS:               ID:20211115042303     I
 STAT SP IPHASW D HRMM SECON CODA AMPLIT PERI AZIMU VELO AIN AR TRES W  DIS CAZ7
 BNB   Z  P        42310.700                                        10          
 MZN1  Z  P        42331.880                                        10          
 KBAM  Z  P        42346.960                                        10          
 CHMN  Z  P        42347.200                                        10          
                                                                                

 2021 1115  5 2  3.5 L  27.822  56.294  6.0       5 0.5 0.0W                   1
 GAP=                                                                          E
 Action:ARG 22-09-14 15:25 OP:OBSP STATUS:               ID:20211115050203     I
 STAT SP IPHASW D HRMM SECON CODA AMPLIT PERI AZIMU VELO AIN AR TRES W  DIS CAZ7
 BNB   Z  P        5 212.820                                        10          
 MZN1  Z  P        5 232.720                                        10          
 JASK  Z  P        5 245.840                                        10          
 KBAM  Z  P        5 245.960                                        10          
 CHMN  Z  P        5 247.840                                        10          
                                                                                

 2021 1115  5 4 33.0 L  27.509  56.169 12.0       5 0.4 0.0W                   1
 GAP=                                                                          E
 Action:ARG 22-09-14 15:25 OP:OBSP STATUS:               ID:20211115050433     I
 STAT SP IPHASW D HRMM SECON CODA AMPLIT PERI AZIMU VELO AIN AR TRES W  DIS CAZ7
 BNDS  Z  P        5 435.940                                        10          
 BNB   Z  P        5 440.320                                        10          
 MZN1  Z  P        5 5 0.860                                        10          
 KBAM  Z  P        5 516.080                                        10          
 CHMN  Z  P        5 516.940                                        10          
 MZN1  N  S        5 520.520                                        10          
                                                                                

 2021 1115  558 25.7 L  27.601  56.220 10.0       5 0.5 0.0W                   1
 GAP=                                                                          E
 Action:ARG 22-09-14 15:25 OP:OBSP STATUS:               ID:20211115055825     I
 STAT SP IPHASW D HRMM SECON CODA AMPLIT PERI AZIMU VELO AIN AR TRES W  DIS CAZ7
 BNB   Z  P        55832.400                                        10          
 MZN1  Z  P        55854.080                                        10          
 JASK  Z  P        559 6.700                                        10          
 KBAM  Z  P        559 9.600                                        10          
 CHMN  Z  P        559 9.920                                        10          
                                                                                

 2021 1115  623 13.0 L  27.521  55.978 28.0       4 0.2 0.0W                   1
 GAP=                                                                          E
 Action:ARG 22-09-14 15:25 OP:OBSP STATUS:               ID:20211115062313     I
 STAT SP IPHASW D HRMM SECON CODA AMPLIT PERI AZIMU VELO AIN AR TRES W  DIS CAZ7
 BNB   Z  P        62324.680                                        10          
 MZN1  Z  P        62338.860                                        10          
 JASK  Z  P        62352.240                                        10          
 CHMN  Z  P        62357.600                                        10          
                                                                                

 2021 1115  643 48.4 L  27.576  56.193 14.6      10 0.4 0.0W                   1
 GAP=                                                                          E
 Action:ARG 22-09-14 15:25 OP:OBSP STATUS:               ID:20211115064348     I
 STAT SP IPHASW D HRMM SECON CODA AMPLIT PERI AZIMU VELO AIN AR TRES W  DIS CAZ7
 BNDS  Z  P        64352.960                                        10          
 BNB   Z  P        64355.120                                        10          
 MZN1  Z  P        64416.020                                        10          
 KBAM  Z  P        64431.080                                        10          
 CHMN  Z  P        64431.320                                        10          
 UOSS  Z  P        64432.370                                        10          
 KHGB  Z  P        64435.000                                        10          
 GHIR  Z  P        64436.280                                        10          
 JSSH  Z  P        64424.040                                        10          
 KRBR  Z  P        64427.260                                         0          
                                                                                

 2021 1115  710 25.5 L  27.604  56.055 13.2       5 0.3 0.0W                   1
 GAP=                                                                          E
 Action:ARG 22-09-14 15:25 OP:OBSP STATUS:               ID:20211115071025     I
 STAT SP IPHASW D HRMM SECON CODA AMPLIT PERI AZIMU VELO AIN AR TRES W  DIS CAZ7
 BNB   Z  P        71035.280                                        10          
 MZN1  Z  P        71051.660                                        10          
 JASK  Z  P        711 6.800                                        10          
 KBAM  Z  P        71110.140                                        10          
 CHMN  Z  P        71111.080                                        10          
                                                                                

 2021 1115  744 53.6 L  27.568  56.229 11.0      13 0.4 0.0W                   1
 GAP=                                                                          E
 Action:ARG 22-09-14 15:25 OP:OBSP STATUS:               ID:20211115074453     I
 STAT SP IPHASW D HRMM SECON CODA AMPLIT PERI AZIMU VELO AIN AR TRES W  DIS CAZ7
 BNDS  Z  P        74459.200                                        10          
 BNB   Z  P        745 0.080                                        10          
 MZN1  Z  P        74523.260                                        10          
 JASK  Z  P        74532.940                                        10          
 KBAM  Z  P        74537.520                                        10          
 CHMN  Z  P        74538.180                                        10          
 UOSS  Z  P        74538.640                                        10          
 KHGB  Z  P        74541.840                                        10          
 KSHB  Z  P        74542.600                                        10          
 MZN1  N  S        74543.020                                        10          
 GHIR  Z  P        74543.860                                        10          
 KRBR  Z  P        74534.630                                        10          
 JSSH  Z  P        74529.500                                        10          
 LMD1  Z  P        74540.730                                        10          
                                                                                

 2021 1115  818 12.7 L  27.604  56.224 10.0       6 0.4 0.0W                   1
 GAP=                                                                          E
 Action:ARG 22-09-14 15:25 OP:OBSP STATUS:               ID:20211115081812     I
 STAT SP IPHASW D HRMM SECON CODA AMPLIT PERI AZIMU VELO AIN AR TRES W  DIS CAZ7
 BNDS  Z  P        81817.800                                        10          
 BNB   Z  P        81820.780                                        10          
 MZN1  Z  P        81841.900                                        10          
 KBAM  Z  P        81855.960                                        10          
 CHMN  Z  P        81856.820                                        10          
 KHGB  Z  P        819 0.240                                        10          
                                                                                

 2021 1115  914 12.6 L  27.573  56.209 14.0       6 0.6 0.0W                   1
 GAP=                                                                          E
 Action:ARG 22-09-14 15:25 OP:OBSP STATUS:               ID:20211115091412     I
 STAT SP IPHASW D HRMM SECON CODA AMPLIT PERI AZIMU VELO AIN AR TRES W  DIS CAZ7
 BNDS  Z  P        91417.360                                        10          
 BNB   Z  P        91420.600                                        10          
 MZN1  Z  P        91440.780                                        10          
 JASK  Z  P        91452.540                                        10          
 CHMN  Z  P        91456.280                                        10          
 KBAM  Z  P        91456.400                                        10          
 MZN1  N  S        915 2.960                                        10          
                                                                                

