 2021 1114 1512  8.0 L  27.593  56.255 14.3      10 0.4 0.0W                   1
 GAP=                                                                          E
 Action:ARG 22-09-14 15:25 OP:OBSP STATUS:               ID:20211114151208     I
 STAT SP IPHASW D HRMM SECON CODA AMPLIT PERI AZIMU VELO AIN AR TRES W  DIS CAZ7
 BNDS  Z  P       151212.720                                        10          
 JASK  Z  P       151246.620                                        10          
 KBAM  Z  P       151249.900                                        10          
 CHMN  Z  P       151250.840                                        10          
 UOSS  Z  P       151252.190                                        10          
 MZN1  N  S       151257.680                                        10          
 JSSH  Z  P       151243.950                                        10          
 KRBR  Z  P       151245.930                                         0          
 GHIR  Z  P       151256.140                                        10          
 LMD1  Z  P       151252.760                                        10          
                                                                                

 2021 1114 1522 19.2 L  27.524  56.128 13.8      12 0.5 0.0W                   1
 GAP=                                                                          E
 Action:ARG 22-09-14 15:25 OP:OBSP STATUS:               ID:20211114152219     I
 STAT SP IPHASW D HRMM SECON CODA AMPLIT PERI AZIMU VELO AIN AR TRES W  DIS CAZ7
 BNDS  Z  P       152222.940                                        10          
 MZN1  Z  P       152245.180                                        10          
 JASK  Z  P       152258.300                                        10          
 JHRM  Z  P       1523 0.120                                        10          
 UOSS  Z  P       1523 2.490                                        10          
 KBAM  Z  P       1523 2.660                                        10          
 CHMN  Z  P       1523 3.140                                        10          
 MZN1  N  S       1523 6.560                                        10          
 KSHB  Z  P       1523 7.520                                        10          
 JSSH  Z  P       152254.060                                        10          
 KRBR  Z  P       152257.800                                         0          
 GHIR  Z  P       1523 5.760                                        10          
 LMD1  Z  P       1523 3.580                                        10          
                                                                                

 2021 1114 1534 31.8 L  27.765  56.168 13.6       4 0.3 0.0W                   1
 GAP=                                                                          E
 Action:ARG 22-09-14 15:25 OP:OBSP STATUS:               ID:20211114153431     I
 STAT SP IPHASW D HRMM SECON CODA AMPLIT PERI AZIMU VELO AIN AR TRES W  DIS CAZ7
 MZN1  Z  P       153457.200                                        10          
 KBAM  Z  P       153512.500                                        10          
 JASK  Z  P       153512.800                                        10          
 CHMN  Z  P       153513.440                                        10          
                                                                                

 2021 1114 1541 38.3 L  27.650  56.321 10.0       4 0.3 0.0W                   1
 GAP=                                                                          E
 Action:ARG 22-09-14 15:25 OP:OBSP STATUS:               ID:20211114154138     I
 STAT SP IPHASW D HRMM SECON CODA AMPLIT PERI AZIMU VELO AIN AR TRES W  DIS CAZ7
 BNDS  Z  P       154145.280                                        10          
 MZN1  Z  P       1542 8.480                                        10          
 CHMN  Z  P       154222.360                                         0          
 KBAM  Z  P       154223.800                                        10          
 MZN1  N  S       154229.820                                        10          
                                                                                

 2021 1114 1559 11.7 L  27.520  56.110 15.9      10 0.4 0.0W                   1
 GAP=                                                                          E
 Action:ARG 22-09-14 15:25 OP:OBSP STATUS:               ID:20211114155911     I
 STAT SP IPHASW D HRMM SECON CODA AMPLIT PERI AZIMU VELO AIN AR TRES W  DIS CAZ7
 BNDS  Z  P       155915.460                                        10          
 BNDS  N  S       155918.940                                        10          
 MZN1  Z  P       155938.360                                        10          
 UOSS  Z  P       155954.420                                        10          
 KBAM  Z  P       155955.080                                        10          
 CHMN  Z  P       155956.200                                        10          
 KHGB  Z  P       155958.860                                        10          
 GHIR  Z  P       155957.550                                        10          
 JSSH  Z  P       155948.270                                        10          
 LMD1  Z  P       155955.520                                        10          
 KRBR  Z  P       155949.840                                         0          
                                                                                

 2021 1114 1610  8.2 L  27.585  56.160 13.7       5 0.4 0.0W                   1
 GAP=                                                                          E
 Action:ARG 22-09-14 15:25 OP:OBSP STATUS:               ID:20211114161008     I
 STAT SP IPHASW D HRMM SECON CODA AMPLIT PERI AZIMU VELO AIN AR TRES W  DIS CAZ7
 BNDS  Z  P       161013.360                                        10          
 MZN1  Z  P       161036.780                                        10          
 CHMN  Z  P       161052.700                                        10          
 MZN1  N  S       161055.860                                        10          
 GHIR  Z  P       161056.340                                        10          
 KRBR  Z  P       161048.910                                        10          
                                                                                

 2021 1114 1619 57.4 L  27.508  56.149 18.6      13 0.4 0.0W                   1
 GAP=                                                                          E
 Action:ARG 22-09-14 15:25 OP:OBSP STATUS:               ID:20211114161957     I
 STAT SP IPHASW D HRMM SECON CODA AMPLIT PERI AZIMU VELO AIN AR TRES W  DIS CAZ7
 BNDS  Z  P       1620 1.280                                        10          
 MZN1  Z  P       162024.780                                        10          
 JASK  Z  P       162035.000                                        10          
 JHRM  Z  P       162038.140                                        10          
 KBAM  Z  P       162040.300                                        10          
 UOSS  Z  P       162040.320                                        10          
 CHMN  Z  P       162040.960                                        10          
 LMD1  Z  P       162041.180                                        10          
 KHGB  Z  P       162044.260                                        10          
 KSHB  Z  P       162044.520                                        10          
 GHIR  Z  P       162045.150                                        10          
 JSSH  Z  P       162033.290                                        10          
 KRBR  Z  P       162035.680                                         0          
                                                                                

 2021 1114 1634 13.2 L  27.506  56.243 17.9       6 0.3 0.0W                   1
 GAP=                                                                          E
 Action:ARG 22-09-14 15:25 OP:OBSP STATUS:               ID:20211114163413     I
 STAT SP IPHASW D HRMM SECON CODA AMPLIT PERI AZIMU VELO AIN AR TRES W  DIS CAZ7
 BNDS  Z  P       163417.300                                        10          
 MZN1  Z  P       163441.260                                        10          
 JASK  Z  P       163450.740                                        10          
 KBAM  Z  P       163455.320                                        10          
 CHMN  Z  P       163456.460                                        10          
 KHGB  Z  P       1635 0.160                                        10          
                                                                                

 2021 1114 17 1 18.3 L  27.593  56.214 19.8       7 0.5 0.0W                   1
 GAP=                                                                          E
 Action:ARG 22-09-14 15:25 OP:OBSP STATUS:               ID:20211114170118     I
 STAT SP IPHASW D HRMM SECON CODA AMPLIT PERI AZIMU VELO AIN AR TRES W  DIS CAZ7
 BNDS  Z  P       17 123.560                                        10          
 MZN1  Z  P       17 145.300                                        10          
 KBAM  Z  P       17 159.500                                        10          
 CHMN  Z  P       17 2 0.020                                        10          
 UOSS  Z  P       17 2 2.370                                        10          
 KHGB  Z  P       17 2 3.940                                        10          
 KSHB  Z  P       17 2 4.800                                         0          
 MZN1  N  S       17 2 6.900                                        10          
                                                                                

 2021 1114 1731 53.4 L  27.571  56.258 10.0       6 0.5 0.0W                   1
 GAP=                                                                          E
 Action:ARG 22-09-14 15:25 OP:OBSP STATUS:               ID:20211114173153     I
 STAT SP IPHASW D HRMM SECON CODA AMPLIT PERI AZIMU VELO AIN AR TRES W  DIS CAZ7
 BNDS  Z  P       173158.760                                        10          
 MZN1  Z  P       173223.280                                        10          
 JASK  Z  P       173232.680                                        10          
 KBAM  Z  P       173237.460                                        10          
 CHMN  Z  P       173238.560                                        10          
 KHGB  Z  P       173241.420                                        10          
                                                                                

 2021 1114 1734 29.7 L  28.086  56.316 10.0       3 0.4 0.0W                   1
 GAP=                                                                          E
 Action:ARG 22-09-14 15:25 OP:OBSP STATUS:               ID:20211114173429     I
 STAT SP IPHASW D HRMM SECON CODA AMPLIT PERI AZIMU VELO AIN AR TRES W  DIS CAZ7
 KRBR  Z  P       1735 4.440                                        10          
 CHMN  Z  P       1735 7.480                                        10          
 KBAM  Z  P       1735 7.520                                        10          
 KBAM  N  S       173541.620                                        10          
                                                                                

 2021 1114 1736 38.3 L  27.647  55.796 10.0       4 0.9 0.0W                   1
 GAP=                                                                          E
 Action:ARG 22-09-14 15:25 OP:OBSP STATUS:               ID:20211114173638     I
 STAT SP IPHASW D HRMM SECON CODA AMPLIT PERI AZIMU VELO AIN AR TRES W  DIS CAZ7
 BNDS  Z  P       173647.300                                        10          
 BNDS  N  S       173652.820                                        10          
 KRBR  Z  P       173719.600                                        10          
 KBAM  Z  P       173724.860                                        10          
 CHMN  Z  P       173725.180                                        10          
                                                                                

 2021 1114 1740 57.6 L  27.556  56.186 13.5       7 0.5 0.0W                   1
 GAP=                                                                          E
 Action:ARG 22-09-14 15:25 OP:OBSP STATUS:               ID:20211114174057     I
 STAT SP IPHASW D HRMM SECON CODA AMPLIT PERI AZIMU VELO AIN AR TRES W  DIS CAZ7
 BNDS  Z  P       1741 1.600                                        10          
 MZN1  Z  P       174124.980                                        10          
 JASK  Z  P       174136.240                                         0          
 KBAM  Z  P       174139.900                                        10          
 CHMN  Z  P       174140.600                                        10          
 UOSS  Z  P       174141.490                                        10          
 KHGB  Z  P       174144.480                                        10          
                                                                                

 2021 1114 1750 23.6 L  27.531  56.173 16.2       6 0.5 0.0W                   1
 GAP=                                                                          E
 Action:ARG 22-09-14 15:25 OP:OBSP STATUS:               ID:20211114175023     I
 STAT SP IPHASW D HRMM SECON CODA AMPLIT PERI AZIMU VELO AIN AR TRES W  DIS CAZ7
 BNDS  Z  P       175027.360                                        10          
 MZN1  Z  P       175050.440                                        10          
 KBAM  Z  P       1751 6.500                                        10          
 UOSS  Z  P       1751 7.220                                        10          
 CHMN  Z  P       1751 7.220                                        10          
 KHGB  Z  P       175110.460                                        10          
 MZN1  N  S       175112.080                                        10          
                                                                                

 2021 1114 1758 13.0 L  27.594  56.188 11.3       7 0.4 0.0W                   1
 GAP=                                                                          E
 Action:ARG 22-09-14 15:25 OP:OBSP STATUS:               ID:20211114175813     I
 STAT SP IPHASW D HRMM SECON CODA AMPLIT PERI AZIMU VELO AIN AR TRES W  DIS CAZ7
 BNDS  Z  P       175817.660                                        10          
 MZN1  Z  P       175840.600                                        10          
 JASK  Z  P       175852.640                                        10          
 KBAM  Z  P       175856.180                                        10          
 CHMN  Z  P       175856.360                                        10          
 UOSS  Z  P       175858.220                                        10          
 KSHB  Z  P       1759 0.500                                        10          
 MZN1  N  S       1759 1.380                                        10          
                                                                                

 2021 1114 18 1 11.7 L  27.568  56.140  8.0       5 0.3 0.0W                   1
 GAP=                                                                          E
 Action:ARG 22-09-14 15:25 OP:OBSP STATUS:               ID:20211114180111     I
 STAT SP IPHASW D HRMM SECON CODA AMPLIT PERI AZIMU VELO AIN AR TRES W  DIS CAZ7
 BNDS  Z  P       18 116.220                                        10          
 MZN1  Z  P       18 139.380                                        10          
 UOSS  Z  P       18 157.090                                        10          
 KBAM  Z  P       18 157.120                                        10          
 CHMN  Z  P       18 157.500                                        10          
 MZN1  N  S       18 159.720                                        10          
                                                                                

 2021 1114 1818 38.6 L  27.578  56.162 20.0       6 0.4 0.0W                   1
 GAP=                                                                          E
 Action:ARG 22-09-14 15:25 OP:OBSP STATUS:               ID:20211114181838     I
 STAT SP IPHASW D HRMM SECON CODA AMPLIT PERI AZIMU VELO AIN AR TRES W  DIS CAZ7
 BNDS  Z  P       181843.880                                        10          
 MZN1  Z  P       1819 5.420                                        10          
 KBAM  Z  P       181920.480                                        10          
 CHMN  Z  P       181921.280                                        10          
 UOSS  Z  P       181922.090                                        10          
 KSHB  Z  P       181924.460                                        10          
                                                                                

 2021 1114 1838 16.5 L  27.628  56.255  9.4       5 0.2 0.0W                   1
 GAP=                                                                          E
 Action:ARG 22-09-14 15:25 OP:OBSP STATUS:               ID:20211114183816     I
 STAT SP IPHASW D HRMM SECON CODA AMPLIT PERI AZIMU VELO AIN AR TRES W  DIS CAZ7
 BNDS  Z  P       183821.720                                        10          
 MZN1  Z  P       183845.260                                        10          
 KBAM  Z  P       183858.780                                        10          
 CHMN  Z  P       183859.720                                        10          
 UOSS  Z  P       1839 1.720                                        10          
 MZN1  N  S       1839 6.220                                        10          
                                                                                

 2021 1114 1846 38.3 L  27.551  56.128 13.1       5 0.2 0.0W                   1
 GAP=                                                                          E
 Action:ARG 22-09-14 15:25 OP:OBSP STATUS:               ID:20211114184638     I
 STAT SP IPHASW D HRMM SECON CODA AMPLIT PERI AZIMU VELO AIN AR TRES W  DIS CAZ7
 BNDS  Z  P       184643.200                                        10          
 MZN1  Z  P       1847 5.780                                        10          
 JASK  Z  P       184718.640                                        10          
 UOSS  Z  P       184722.640                                        10          
 KBAM  Z  P       184722.920                                        10          
                                                                                

 2021 1114 1857 21.8 L  27.601  56.220 17.8       5 0.5 0.0W                   1
 GAP=                                                                          E
 Action:ARG 22-09-14 15:25 OP:OBSP STATUS:               ID:20211114185721     I
 STAT SP IPHASW D HRMM SECON CODA AMPLIT PERI AZIMU VELO AIN AR TRES W  DIS CAZ7
 BNB   Z  P       185728.620                                        10          
 MZN1  Z  P       185749.500                                        10          
 JASK  Z  P       1858 1.040                                        10          
 CHMN  Z  P       1858 4.000                                        10          
 UOSS  Z  P       1858 4.770                                        10          
                                                                                

