 2021 1014 1417 46.2 L  27.487  56.242 11.2      11 0.3 0.0W                   1
 GAP=                                                                          E
 Action:ARG 22-09-14 15:25 OP:OBSP STATUS:               ID:20211014141746     I
 STAT SP IPHASW D HRMM SECON CODA AMPLIT PERI AZIMU VELO AIN AR TRES W  DIS CAZ7
 BNB   Z  P       141752.460                                        10          
 MZN1  Z  P       141816.460                                        10          
 JASK  Z  P       141824.980                                        10          
 KBAM  Z  P       141830.740                                        10          
 CHMN  Z  P       141831.640                                        10          
 KHGB  Z  P       141835.540                                        10          
 MZN1  N  S       141837.440                                        10          
 KSHD  Z  P       141837.560                                        10          
 GHIR  Z  P       141836.770                                        10          
 BNDS  Z  P       141751.080                                        10          
 KRBR  Z  P       141831.140                                        10          
 JSSH  Z  P       141821.740                                        10          
                                                                                

 2021 1016 1911 26.0 L  27.587  56.730 27.2       4 0.4 0.0W                   1
 GAP=                                                                          E
 Action:ARG 22-09-14 15:25 OP:OBSP STATUS:               ID:20211016191126     I
 STAT SP IPHASW D HRMM SECON CODA AMPLIT PERI AZIMU VELO AIN AR TRES W  DIS CAZ7
 BNB   Z  P       191132.560                                        10          
 BNB   N  S       191135.880                                        10          
 JASK  Z  P       1912 1.900                                        10          
 KBAM  Z  P       1912 4.840                                        10          
 KHGB  Z  P       191212.020                                        10          
                                                                                

 2021 1029  526  4.0 L  27.151  56.206  6.0       5 0.4 0.0W                   1
 GAP=                                                                          E
 Action:ARG 22-09-14 15:25 OP:OBSP STATUS:               ID:20211029052604     I
 STAT SP IPHASW D HRMM SECON CODA AMPLIT PERI AZIMU VELO AIN AR TRES W  DIS CAZ7
 BNDS  N  S        52614.300                                        10          
 JASK  Z  P        52639.940                                        10          
 KBAM  Z  P        52652.760                                        10          
 CHMN  Z  P        52654.440                                        10          
 KHGB  Z  P        52658.860                                        10          
                                                                                

 2021 1029  555 26.4 L  27.187  56.267 13.3       5 0.3 0.0W                   1
 GAP=                                                                          E
 Action:ARG 22-09-14 15:25 OP:OBSP STATUS:               ID:20211029055526     I
 STAT SP IPHASW D HRMM SECON CODA AMPLIT PERI AZIMU VELO AIN AR TRES W  DIS CAZ7
 BNDS  Z  P        55532.640                                        10          
 BNB   Z  P        55534.420                                        10          
 JASK  Z  P        556 1.820                                        10          
 KBAM  Z  P        55613.400                                        10          
 CHMN  Z  P        55615.080                                        10          
                                                                                

 2021 11 1 1548 41.3 L  27.319  55.229  6.0       7 0.4 0.0W                   1
 GAP=                                                                          E
 Action:ARG 22-09-14 15:25 OP:OBSP STATUS:               ID:20211101154841     I
 STAT SP IPHASW D HRMM SECON CODA AMPLIT PERI AZIMU VELO AIN AR TRES W  DIS CAZ7
 BNDS  Z  P       154858.120                                        10          
 BNB   Z  P       1549 5.340                                        10          
 BNB   N  S       154924.480                                        10          
 UOSS  Z  P       154925.620                                        10          
 JASK  Z  P       154928.200                                        10          
 KHGB  Z  P       154935.420                                        10          
 CHMN  Z  P       154935.880                                        10          
 KBAM  Z  P       154937.200                                        10          
                                                                                

 2021 1114 11 9 53.6 L  28.359  56.205 10.0       6 0.4 0.0W                   1
 GAP=                                                                          E
 Action:ARG 22-09-14 15:25 OP:OBSP STATUS:               ID:20211114110953     I
 STAT SP IPHASW D HRMM SECON CODA AMPLIT PERI AZIMU VELO AIN AR TRES W  DIS CAZ7
 BNDS  Z  P       111012.260                                        10          
 MZN1  Z  P       111021.100                                        10          
 BNDS  N  S       111027.960                                        10          
 CHMN  Z  P       111029.440                                        10          
 KHGB  Z  P       111031.220                                        10          
 KBAM  Z  P       111032.000                                        10          
 KSHB  Z  P       111032.240                                        10          
                                                                                

 2021 1114 12 7  4.4 L  27.568  56.084 19.5      13 0.4 0.0W                   1
 GAP=                                                                          E
 Action:ARG 22-09-14 15:25 OP:OBSP STATUS:               ID:20211114120704     I
 STAT SP IPHASW D HRMM SECON CODA AMPLIT PERI AZIMU VELO AIN AR TRES W  DIS CAZ7
 BNDS  Z  P       12 7 9.200                                        10          
 MZN1  Z  P       12 729.880                                        10          
 JASK  Z  P       12 743.780                                        10          
 JHRM  Z  P       12 744.700                                        10          
 LMD1  Z  P       12 747.100                                        10          
 KBAM  Z  P       12 747.600                                        10          
 UOSS  Z  P       12 747.870                                        10          
 CHMN  Z  P       12 748.000                                        10          
 MZN1  N  S       12 749.920                                        10          
 KSHB  Z  P       12 749.980                                        10          
 KHGB  Z  P       12 750.920                                        10          
 BNDS  N  S       12 715.110                                        10          
 KRBR  Z  P       12 742.710                                        10          
 JSSH  Z  P       12 741.040                                        10          
 GHIR  Z  P       12 751.280                                        10          
                                                                                

 2021 1114 12 8 38.1 L  27.536  56.174 10.0       4 0.3 0.0W                   1
 GAP=                                                                          E
 Action:ARG 22-09-14 15:25 OP:OBSP STATUS:               ID:20211114120838     I
 STAT SP IPHASW D HRMM SECON CODA AMPLIT PERI AZIMU VELO AIN AR TRES W  DIS CAZ7
 BNDS  Z  P       12 841.480                                        10          
 MZN1  Z  P       12 9 6.320                                        10          
 KBAM  Z  P       12 921.980                                        10          
 CHMN  Z  P       12 922.320                                        10          
 MZN1  N  S       12 926.540                                        10          
 BNDS  N  S       12 846.760                                        10          
                                                                                

 2021 1114 1240 52.6 L  27.550  56.211 19.2       8 0.3 0.0W                   1
 GAP=                                                                          E
 Action:ARG 22-09-14 15:25 OP:OBSP STATUS:               ID:20211114124052     I
 STAT SP IPHASW D HRMM SECON CODA AMPLIT PERI AZIMU VELO AIN AR TRES W  DIS CAZ7
 BNDS  Z  P       124057.340                                        10          
 KBAM  Z  P       124134.660                                        10          
 CHMN  Z  P       124135.760                                        10          
 MZN1  N  S       124141.080                                        10          
 BNDS  N  S       1241 1.210                                        10          
 KRBR  Z  P       124131.940                                        10          
 JSSH  Z  P       124125.650                                        10          
 GHIR  Z  P       124138.800                                        10          
 LMD1  Z  P       124135.330                                        10          
                                                                                

 2021 1114 1252 37.8 L  27.518  56.093 15.1       9 0.4 0.0W                   1
 GAP=                                                                          E
 Action:ARG 22-09-14 15:25 OP:OBSP STATUS:               ID:20211114125237     I
 STAT SP IPHASW D HRMM SECON CODA AMPLIT PERI AZIMU VELO AIN AR TRES W  DIS CAZ7
 BNDS  Z  P       125241.840                                        10          
 UOSS  Z  P       125321.140                                        10          
 KBAM  Z  P       125322.040                                        10          
 CHMN  Z  P       125322.620                                        10          
 KHGB  Z  P       125325.260                                        10          
 GHIR  Z  P       125327.870                                        10          
 JSSH  Z  P       125312.650                                        10          
 LMD1  Z  P       125323.890                                        10          
 KRBR  Z  P       125318.220                                         0          
                                                                                

 2021 1114 13 5 48.4 L  27.525  56.245  9.0       4 0.3 0.0W                   1
 GAP=                                                                          E
 Action:ARG 22-09-14 15:25 OP:OBSP STATUS:               ID:20211114130548     I
 STAT SP IPHASW D HRMM SECON CODA AMPLIT PERI AZIMU VELO AIN AR TRES W  DIS CAZ7
 BNDS  N  S       13 554.220                                        10          
 MZN1  Z  P       13 617.340                                        10          
 CHMN  Z  P       13 632.600                                        10          
 KSHB  Z  P       13 637.120                                        10          
 MZN1  N  S       13 639.300                                        10          
                                                                                

 2021 1114 1313 15.9 L  27.567  56.161 19.7       5 0.4 0.0W                   1
 GAP=                                                                          E
 Action:ARG 22-09-14 15:25 OP:OBSP STATUS:               ID:20211114131315     I
 STAT SP IPHASW D HRMM SECON CODA AMPLIT PERI AZIMU VELO AIN AR TRES W  DIS CAZ7
 BNDS  Z  P       131320.820                                        10          
 BNDS  N  S       131324.520                                        10          
 KBAM  Z  P       131358.580                                        10          
 CHMN  Z  P       131359.220                                        10          
 UOSS  Z  P       131359.270                                        10          
 KSHB  Z  P       1314 1.900                                        10          
                                                                                

 2021 1114 1345  0.8 L  27.522  56.135 18.8       4 0.3 0.0W                   1
 GAP=                                                                          E
 Action:ARG 22-09-14 15:25 OP:OBSP STATUS:               ID:20211114134500     I
 STAT SP IPHASW D HRMM SECON CODA AMPLIT PERI AZIMU VELO AIN AR TRES W  DIS CAZ7
 BNDS  Z  P       1345 5.040                                        10          
 KBAM  Z  P       134544.260                                        10          
 CHMN  Z  P       134544.580                                        10          
 MZN1  N  S       134547.740                                        10          
                                                                                

 2021 1114 14 2 56.4 L  27.590  56.136 17.0      11 0.3 0.0W                   1
 GAP=                                                                          E
 Action:ARG 22-09-14 15:25 OP:OBSP STATUS:               ID:20211114140256     I
 STAT SP IPHASW D HRMM SECON CODA AMPLIT PERI AZIMU VELO AIN AR TRES W  DIS CAZ7
 BNDS  Z  P       14 3 1.340                                        10          
 MZN1  Z  P       14 323.040                                        10          
 JASK  Z  P       14 335.520                                        10          
 CHMN  Z  P       14 339.160                                        10          
 KBAM  Z  P       14 339.440                                        10          
 UOSS  Z  P       14 340.390                                        10          
 LMD1  Z  P       14 340.400                                        10          
 KSHB  Z  P       14 341.700                                        10          
 MZN1  N  S       14 342.020                                        10          
 JSSH  Z  P       14 332.360                                        10          
 KRBR  Z  P       14 334.910                                         0          
 GHIR  Z  P       14 343.810                                        10          
                                                                                

 2021 1114 1413 57.4 L  27.496  56.213 12.5      11 0.3 0.0W                   1
 GAP=                                                                          E
 Action:ARG 22-09-14 15:25 OP:OBSP STATUS:               ID:20211114141357     I
 STAT SP IPHASW D HRMM SECON CODA AMPLIT PERI AZIMU VELO AIN AR TRES W  DIS CAZ7
 BNDS  Z  P       1414 0.660                                        10          
 MZN1  Z  P       141425.420                                        10          
 JASK  Z  P       141435.400                                        10          
 UOSS  Z  P       141440.420                                        10          
 KBAM  Z  P       141440.560                                        10          
 CHMN  Z  P       141441.640                                        10          
 KSHB  Z  P       141445.500                                        10          
 GHIR  Z  P       141443.640                                        10          
 JSSH  Z  P       141432.350                                        10          
 LMD1  Z  P       141440.650                                        10          
 KRBR  Z  P       141436.320                                         0          
                                                                                

 2021 1114 1419 32.6 L  27.625  56.176 10.0       4 0.4 0.0W                   1
 GAP=                                                                          E
 Action:ARG 22-09-14 15:25 OP:OBSP STATUS:               ID:20211114141932     I
 STAT SP IPHASW D HRMM SECON CODA AMPLIT PERI AZIMU VELO AIN AR TRES W  DIS CAZ7
 BNDS  Z  P       141938.520                                        10          
 KRBR  Z  P       142011.100                                         0          
 CHMN  Z  P       142016.520                                        10          
 KBAM  Z  P       142016.760                                        10          
                                                                                

 2021 1114 1424 13.8 L  27.576  56.172 13.1      10 0.3 0.0W                   1
 GAP=                                                                          E
 Action:ARG 22-09-14 15:25 OP:OBSP STATUS:               ID:20211114142413     I
 STAT SP IPHASW D HRMM SECON CODA AMPLIT PERI AZIMU VELO AIN AR TRES W  DIS CAZ7
 BNDS  Z  P       142418.820                                        10          
 MZN1  Z  P       142441.740                                        10          
 JASK  Z  P       142453.820                                        10          
 KBAM  Z  P       142457.560                                        10          
 CHMN  Z  P       142458.160                                        10          
 UOSS  Z  P       142458.540                                        10          
 MZN1  N  S       1425 2.840                                        10          
 GHIR  Z  P       1425 6.120                                        10          
 JSSH  Z  P       142451.160                                        10          
 LMD1  Z  P       1425 2.450                                        10          
 KRBR  Z  P       142453.700                                         0          
                                                                                

 2021 1114 1434  0.1 L  28.023  56.237 10.0       1 0.1 0.0W                   1
 GAP=                                                                          E
 Action:ARG 22-09-14 15:25 OP:OBSP STATUS:               ID:20211114143400     I
 STAT SP IPHASW D HRMM SECON CODA AMPLIT PERI AZIMU VELO AIN AR TRES W  DIS CAZ7
 CHMN  Z  P       143438.340                                        10          
 CHMN  N  S       143512.440                                        10          
                                                                                

 2021 1114 1452 19.6 L  27.601  56.228 10.0       4 0.5 0.0W                   1
 GAP=                                                                          E
 Action:ARG 22-09-14 15:25 OP:OBSP STATUS:               ID:20211114145219     I
 STAT SP IPHASW D HRMM SECON CODA AMPLIT PERI AZIMU VELO AIN AR TRES W  DIS CAZ7
 BNDS  Z  P       145225.040                                        10          
 JASK  Z  P       1453 0.140                                        10          
 CHMN  Z  P       1453 3.260                                        10          
 KBAM  Z  P       1453 3.400                                        10          
                                                                                

 2021 1114 15 5 45.8 L  27.517  55.835  6.0       4 0.3 0.0W                   1
 GAP=                                                                          E
 Action:ARG 22-09-14 15:25 OP:OBSP STATUS:               ID:20211114150545     I
 STAT SP IPHASW D HRMM SECON CODA AMPLIT PERI AZIMU VELO AIN AR TRES W  DIS CAZ7
 MZN1  Z  P       15 6 9.940                                        10          
 JASK  Z  P       15 628.700                                        10          
 UOSS  Z  P       15 631.190                                        10          
 KSHB  Z  P       15 634.060                                        10          
                                                                                

