 2021 1115  945 23.9 L  27.573  56.238 15.0      10 0.4 0.0W                   1
 GAP=                                                                          E
 Action:ARG 22-09-14 15:25 OP:OBSP STATUS:               ID:20211115094523     I
 STAT SP IPHASW D HRMM SECON CODA AMPLIT PERI AZIMU VELO AIN AR TRES W  DIS CAZ7
 BNDS  Z  P        94528.980                                        10          
 BNB   Z  P        94529.860                                        10          
 MZN1  Z  P        94551.040                                        10          
 KBAM  Z  P        946 5.880                                        10          
 CHMN  Z  P        946 6.700                                        10          
 UOSS  Z  P        946 7.470                                        10          
 KHGB  Z  P        94610.260                                        10          
 MZN1  N  S        94613.180                                        10          
 GHIR  Z  P        94612.300                                        10          
 KRBR  Z  P        946 3.090                                        10          
 JSSH  Z  P        94558.700                                        10          
                                                                                

 2021 1115  955  1.9 L  27.619  56.150  9.7       7 0.5 0.0W                   1
 GAP=                                                                          E
 Action:ARG 22-09-14 15:25 OP:OBSP STATUS:               ID:20211115095501     I
 STAT SP IPHASW D HRMM SECON CODA AMPLIT PERI AZIMU VELO AIN AR TRES W  DIS CAZ7
 BNDS  Z  P        955 7.380                                        10          
 BNB   Z  P        955 9.320                                        10          
 BNB   N  S        95515.680                                        10          
 MZN1  Z  P        95528.400                                        10          
 KRBR  Z  P        95540.220                                         0          
 JASK  Z  P        95541.960                                        10          
 KBAM  Z  P        95545.580                                        10          
 CHMN  Z  P        95545.720                                        10          
                                                                                

 2021 1115 1014 18.3 L  27.639  56.237 10.0       7 0.4 0.0W                   1
 GAP=                                                                          E
 Action:ARG 22-09-14 15:25 OP:OBSP STATUS:               ID:20211115101418     I
 STAT SP IPHASW D HRMM SECON CODA AMPLIT PERI AZIMU VELO AIN AR TRES W  DIS CAZ7
 BNDS  Z  P       101423.100                                        10          
 BNB   Z  P       101425.180                                        10          
 BNB   N  S       101430.320                                        10          
 MZN1  Z  P       101447.080                                        10          
 JASK  Z  P       101458.540                                        10          
 KBAM  Z  P       1015 0.900                                        10          
 CHMN  Z  P       1015 1.040                                        10          
 KHGB  Z  P       1015 4.420                                        10          
                                                                                

 2021 1115 1052 25.5 L  27.564  56.194 17.0       8 0.3 0.0W                   1
 GAP=                                                                          E
 Action:ARG 22-09-14 15:25 OP:OBSP STATUS:               ID:20211115105225     I
 STAT SP IPHASW D HRMM SECON CODA AMPLIT PERI AZIMU VELO AIN AR TRES W  DIS CAZ7
 BNDS  Z  P       105230.580                                        10          
 BNB   Z  P       105232.360                                        10          
 BNB   N  S       105237.700                                        10          
 MZN1  Z  P       105252.480                                        10          
 KRBR  Z  P       1053 1.940                                         0          
 JASK  Z  P       1053 3.660                                        10          
 KBAM  Z  P       1053 8.220                                        10          
 CHMN  Z  P       1053 8.380                                        10          
 KHGB  Z  P       105311.820                                        10          
                                                                                

 2021 1115 1115 42.1 L  27.501  56.241 19.8       6 0.4 0.0W                   1
 GAP=                                                                          E
 Action:ARG 22-09-14 15:25 OP:OBSP STATUS:               ID:20211115111542     I
 STAT SP IPHASW D HRMM SECON CODA AMPLIT PERI AZIMU VELO AIN AR TRES W  DIS CAZ7
 BNDS  Z  P       111547.440                                        10          
 BNB   Z  P       111549.100                                        10          
 MZN1  Z  P       111611.660                                        10          
 KBAM  Z  P       111624.520                                        10          
 CHMN  Z  P       111626.380                                        10          
 KHGB  Z  P       111630.580                                        10          
 MZN1  N  S       111633.300                                        10          
                                                                                

 2021 1115 1124 15.0 L  27.506  56.117 11.9      11 0.4 0.0W                   1
 GAP=                                                                          E
 Action:ARG 22-09-14 15:25 OP:OBSP STATUS:               ID:20211115112415     I
 STAT SP IPHASW D HRMM SECON CODA AMPLIT PERI AZIMU VELO AIN AR TRES W  DIS CAZ7
 BNDS  Z  P       112418.220                                        10          
 BNB   Z  P       112422.600                                        10          
 MZN1  Z  P       112442.740                                        10          
 JASK  Z  P       112454.540                                        10          
 KBAM  Z  P       112459.120                                        10          
 CHMN  Z  P       1125 0.080                                        10          
 MZN1  N  S       1125 2.480                                        10          
 KHGB  Z  P       1125 3.400                                        10          
 GHIR  Z  P       1125 3.620                                        10          
 JSSH  Z  P       112451.610                                        10          
 LMD1  Z  P       1125 1.950                                        10          
 KRBR  Z  P       112454.590                                         0          
                                                                                

 2021 1115 1221 30.7 L  27.643  56.171  5.0       7 0.5 0.0W                   1
 GAP=                                                                          E
 Action:ARG 22-09-14 15:25 OP:OBSP STATUS:               ID:20211115122130     I
 STAT SP IPHASW D HRMM SECON CODA AMPLIT PERI AZIMU VELO AIN AR TRES W  DIS CAZ7
 BNDS  Z  P       122135.660                                        10          
 BNB   N  S       122144.200                                        10          
 MZN1  Z  P       122159.440                                        10          
 JASK  Z  P       122213.200                                        10          
 KBAM  Z  P       122214.380                                        10          
 CHMN  Z  P       122214.860                                        10          
 KHGB  Z  P       122218.000                                        10          
                                                                                

 2021 1115 13 7 48.7 L  27.599  56.176 10.0       7 0.4 0.0W                   1
 GAP=                                                                          E
 Action:ARG 22-09-14 15:25 OP:OBSP STATUS:               ID:20211115130748     I
 STAT SP IPHASW D HRMM SECON CODA AMPLIT PERI AZIMU VELO AIN AR TRES W  DIS CAZ7
 BNDS  Z  P       13 752.840                                        10          
 BNB   Z  P       13 755.840                                        10          
 BNB   N  S       13 8 2.200                                        10          
 MZN1  Z  P       13 816.640                                        10          
 JASK  Z  P       13 828.240                                        10          
 KBAM  Z  P       13 831.640                                        10          
 CHMN  Z  P       13 831.880                                        10          
 KHGB  Z  P       13 835.820                                        10          
                                                                                

 2021 1115 1328 14.9 L  27.542  56.229 10.0       7 0.3 0.0W                   1
 GAP=                                                                          E
 Action:ARG 22-09-14 15:25 OP:OBSP STATUS:               ID:20211115132814     I
 STAT SP IPHASW D HRMM SECON CODA AMPLIT PERI AZIMU VELO AIN AR TRES W  DIS CAZ7
 BNDS  Z  P       132818.360                                        10          
 BNB   Z  P       132820.580                                        10          
 MZN1  Z  P       132843.420                                        10          
 JASK  Z  P       132854.180                                        10          
 KBAM  Z  P       132858.240                                        10          
 CHMN  Z  P       132858.780                                        10          
 KHGB  Z  P       1329 2.300                                        10          
                                                                                

 2021 1115 1336 11.7 L  27.588  56.148 17.4      14 0.3 0.0W                   1
 GAP=                                                                          E
 Action:ARG 22-09-14 15:25 OP:OBSP STATUS:               ID:20211115133611     I
 STAT SP IPHASW D HRMM SECON CODA AMPLIT PERI AZIMU VELO AIN AR TRES W  DIS CAZ7
 BNDS  Z  P       133616.300                                        10          
 BNB   Z  P       133619.200                                        10          
 BNB   N  S       133625.700                                        10          
 MZN1  Z  P       133638.460                                        10          
 JASK  Z  P       133650.900                                        10          
 JHRM  Z  P       133653.000                                        10          
 KBAM  Z  P       133654.000                                        10          
 CHMN  Z  P       133654.580                                        10          
 UOSS  Z  P       133655.040                                        10          
 LMD1  Z  P       133655.800                                        10          
 KHGB  Z  P       133657.780                                        10          
 KSHB  Z  P       133657.820                                        10          
 MZN1  N  S       133658.500                                        10          
 JSSH  Z  P       133646.270                                        10          
 KRBR  Z  P       133648.600                                         0          
 GHIR  Z  P       133658.740                                        10          
                                                                                

 2021 1115 1348 53.2 L  27.646  56.130  8.1       7 0.3 0.0W                   1
 GAP=                                                                          E
 Action:ARG 22-09-14 15:25 OP:OBSP STATUS:               ID:20211115134853     I
 STAT SP IPHASW D HRMM SECON CODA AMPLIT PERI AZIMU VELO AIN AR TRES W  DIS CAZ7
 BNDS  Z  P       134858.120                                        10          
 BNB   Z  P       1349 1.500                                        10          
 BNB   N  S       1349 8.120                                        10          
 MZN1  Z  P       134919.900                                        10          
 JASK  Z  P       134934.280                                        10          
 CHMN  Z  P       134936.600                                        10          
 KBAM  Z  P       134936.660                                        10          
 KHGB  Z  P       134939.620                                        10          
                                                                                

 2021 1115 1424 53.0 L  27.510  56.139 15.4       9 0.3 0.0W                   1
 GAP=                                                                          E
 Action:ARG 22-09-14 15:25 OP:OBSP STATUS:               ID:20211115142453     I
 STAT SP IPHASW D HRMM SECON CODA AMPLIT PERI AZIMU VELO AIN AR TRES W  DIS CAZ7
 BNDS  Z  P       142456.700                                        10          
 BNB   Z  P       1425 0.360                                        10          
 MZN1  Z  P       142519.940                                        10          
 UOSS  Z  P       142536.020                                        10          
 KBAM  Z  P       142536.540                                        10          
 CHMN  Z  P       142537.040                                        10          
 KHGB  Z  P       142540.020                                        10          
 MZN1  N  S       142540.060                                        10          
 GHIR  Z  P       142540.900                                        10          
 KRBR  Z  P       142532.690                                        10          
                                                                                

 2021 1115 1437 31.4 L  27.516  56.124 17.4       8 0.3 0.0W                   1
 GAP=                                                                          E
 Action:ARG 22-09-14 15:25 OP:OBSP STATUS:               ID:20211115143731     I
 STAT SP IPHASW D HRMM SECON CODA AMPLIT PERI AZIMU VELO AIN AR TRES W  DIS CAZ7
 BNDS  Z  P       143736.080                                        10          
 BNB   Z  P       143740.160                                        10          
 BNB   N  S       143746.460                                        10          
 MZN1  Z  P       143759.480                                        10          
 JASK  Z  P       143810.940                                        10          
 KBAM  Z  P       143815.580                                        10          
 CHMN  Z  P       143817.180                                        10          
 KHGB  Z  P       143819.280                                        10          
 KSHB  Z  P       143819.520                                        10          
                                                                                

 2021 1115 1438 51.8 L  27.587  56.201 14.2       5 0.2 0.0W                   1
 GAP=                                                                          E
 Action:ARG 22-09-14 15:25 OP:OBSP STATUS:               ID:20211115143851     I
 STAT SP IPHASW D HRMM SECON CODA AMPLIT PERI AZIMU VELO AIN AR TRES W  DIS CAZ7
 BNDS  Z  P       143857.380                                        10          
 BNB   Z  P       143859.180                                        10          
 BNB   N  S       1439 5.240                                        10          
 MZN1  Z  P       143920.220                                        10          
 KBAM  Z  P       143935.000                                        10          
 CHMN  Z  P       143936.300                                        10          
                                                                                

 2021 1115 1447 45.9 L  27.613  56.101  5.0       6 0.2 0.0W                   1
 GAP=                                                                          E
 Action:ARG 22-09-14 15:25 OP:OBSP STATUS:               ID:20211115144745     I
 STAT SP IPHASW D HRMM SECON CODA AMPLIT PERI AZIMU VELO AIN AR TRES W  DIS CAZ7
 BNDS  Z  P       144750.540                                        10          
 MZN1  Z  P       144814.060                                        10          
 JASK  Z  P       144827.840                                        10          
 KBAM  Z  P       144830.360                                        10          
 CHMN  Z  P       144831.020                                        10          
 KHGB  Z  P       144833.840                                        10          
                                                                                

 2021 1115 15 2 22.4 L  27.512  56.180 14.2       7 0.5 0.0W                   1
 GAP=                                                                          E
 Action:ARG 22-09-14 15:25 OP:OBSP STATUS:               ID:20211115150222     I
 STAT SP IPHASW D HRMM SECON CODA AMPLIT PERI AZIMU VELO AIN AR TRES W  DIS CAZ7
 BNDS  Z  P       15 225.660                                        10          
 BNB   Z  P       15 228.700                                        10          
 BNB   N  S       15 234.900                                        10          
 MZN1  Z  P       15 250.560                                        10          
 JASK  Z  P       15 3 0.580                                        10          
 KBAM  Z  P       15 3 5.920                                        10          
 CHMN  Z  P       15 3 6.600                                        10          
 KHGB  Z  P       15 3 9.200                                        10          
                                                                                

 2021 1115 1549 37.2 L  27.575  56.202 10.3       7 0.3 0.0W                   1
 GAP=                                                                          E
 Action:ARG 22-09-14 15:25 OP:OBSP STATUS:               ID:20211115154937     I
 STAT SP IPHASW D HRMM SECON CODA AMPLIT PERI AZIMU VELO AIN AR TRES W  DIS CAZ7
 BNB   Z  P       154944.740                                        10          
 MZN1  Z  P       1550 5.600                                        10          
 JASK  Z  P       155017.240                                        10          
 KBAM  Z  P       155021.240                                        10          
 CHMN  Z  P       155022.000                                        10          
 KHGB  Z  P       155024.660                                        10          
 KSHB  Z  P       155026.200                                        10          
                                                                                

 2021 1115 1555 11.6 L  27.579  56.029  6.0       6 0.4 0.0W                   1
 GAP=                                                                          E
 Action:ARG 22-09-14 15:25 OP:OBSP STATUS:               ID:20211115155511     I
 STAT SP IPHASW D HRMM SECON CODA AMPLIT PERI AZIMU VELO AIN AR TRES W  DIS CAZ7
 BNDS  Z  P       155515.720                                        10          
 MZN1  Z  P       155538.840                                        10          
 JASK  Z  P       155554.060                                        10          
 KBAM  Z  P       155556.960                                        10          
 CHMN  Z  P       155557.380                                        10          
 KHGB  Z  P       155559.640                                        10          
                                                                                

