 2021 1114 19 7  5.8 L  27.541  56.276 11.8       5 0.4 0.0W                   1
 GAP=                                                                          E
 Action:ARG 22-09-14 15:25 OP:OBSP STATUS:               ID:20211114190705     I
 STAT SP IPHASW D HRMM SECON CODA AMPLIT PERI AZIMU VELO AIN AR TRES W  DIS CAZ7
 BNDS  Z  P       19 7 9.520                                        10          
 BNB   Z  P       19 711.540                                        10          
 BNDS  N  S       19 712.900                                        10          
 MZN1  Z  P       19 735.020                                        10          
 KBAM  Z  P       19 748.880                                        10          
 CHMN  Z  P       19 749.340                                        10          
 MZN1  N  S       19 758.060                                        10          
                                                                                

 2021 1114 1910  3.8 L  27.591  56.322 14.7       7 0.4 0.0W                   1
 GAP=                                                                          E
 Action:ARG 22-09-14 15:25 OP:OBSP STATUS:               ID:20211114191003     I
 STAT SP IPHASW D HRMM SECON CODA AMPLIT PERI AZIMU VELO AIN AR TRES W  DIS CAZ7
 BNDS  Z  P       1910 9.360                                        10          
 BNB   Z  P       191010.340                                        10          
 MZN1  Z  P       191033.860                                        10          
 JASK  Z  P       191042.760                                        10          
 KBAM  Z  P       191045.780                                        10          
 CHMN  Z  P       191047.020                                        10          
 UOSS  Z  P       191048.770                                        10          
 MZN1  N  S       191056.800                                        10          
                                                                                

 2021 1114 1918 31.5 L  27.541  56.140 19.4       6 0.4 0.0W                   1
 GAP=                                                                          E
 Action:ARG 22-09-14 15:25 OP:OBSP STATUS:               ID:20211114191831     I
 STAT SP IPHASW D HRMM SECON CODA AMPLIT PERI AZIMU VELO AIN AR TRES W  DIS CAZ7
 BNB   Z  P       191839.280                                        10          
 JASK  Z  P       1919 9.980                                        10          
 UOSS  Z  P       191913.870                                        10          
 CHMN  Z  P       191914.000                                        10          
 KBAM  Z  P       191914.620                                        10          
 MZN1  N  S       191918.260                                        10          
                                                                                

 2021 1114 1930  7.9 L  27.486  56.043 13.5       7 0.3 0.0W                   1
 GAP=                                                                          E
 Action:ARG 22-09-14 15:25 OP:OBSP STATUS:               ID:20211114193007     I
 STAT SP IPHASW D HRMM SECON CODA AMPLIT PERI AZIMU VELO AIN AR TRES W  DIS CAZ7
 BNDS  Z  P       193012.340                                        10          
 BNB   Z  P       193017.920                                        10          
 JASK  Z  P       193047.900                                        10          
 UOSS  Z  P       193051.670                                        10          
 KBAM  Z  P       193054.060                                        10          
 CHMN  Z  P       193054.240                                        10          
 MZN1  N  S       193054.340                                        10          
                                                                                

 2021 1114 1938 10.6 L  28.456  56.723 10.0       3 1.0 0.0W                   1
 GAP=                                                                          E
 Action:ARG 22-09-14 15:25 OP:OBSP STATUS:               ID:20211114193810     I
 STAT SP IPHASW D HRMM SECON CODA AMPLIT PERI AZIMU VELO AIN AR TRES W  DIS CAZ7
 KRBR  Z  P       193839.060                                        10          
 KBAM  Z  P       193841.820                                        10          
 CHMN  Z  P       193842.440                                        10          
 CHMN  N  S       1939 3.480                                        10          
                                                                                

 2021 1114 1950 18.2 L  27.736  56.364 10.0       3 0.4 0.0W                   1
 GAP=                                                                          E
 Action:ARG 22-09-14 15:25 OP:OBSP STATUS:               ID:20211114195018     I
 STAT SP IPHASW D HRMM SECON CODA AMPLIT PERI AZIMU VELO AIN AR TRES W  DIS CAZ7
 BNB   Z  P       195024.760                                        10          
 MZN1  Z  P       195046.760                                        10          
 CHMN  Z  P       195059.840                                        10          
 CHMN  N  S       195136.740                                        10          
                                                                                

 2021 1114 20 9 49.2 L  27.542  56.093 18.3      11 0.4 0.0W                   1
 GAP=                                                                          E
 Action:ARG 22-09-14 15:25 OP:OBSP STATUS:               ID:20211114200949     I
 STAT SP IPHASW D HRMM SECON CODA AMPLIT PERI AZIMU VELO AIN AR TRES W  DIS CAZ7
 BNDS  Z  P       20 953.740                                        10          
 BNB   Z  P       20 956.900                                        10          
 BNB   N  S       2010 4.360                                        10          
 MZN1  Z  P       201015.540                                        10          
 JASK  Z  P       201028.300                                        10          
 UOSS  Z  P       201032.320                                        10          
 KBAM  Z  P       201032.820                                        10          
 CHMN  Z  P       201033.240                                        10          
 MZN1  N  S       201034.840                                        10          
 GHIR  Z  P       201036.430                                        10          
 JSSH  Z  P       201025.350                                        10          
 LMD1  Z  P       201033.380                                        10          
 KRBR  Z  P       201027.440                                         0          
                                                                                

 2021 1114 2023 11.4 L  27.463  56.024 13.6       7 0.4 0.0W                   1
 GAP=                                                                          E
 Action:ARG 22-09-14 15:25 OP:OBSP STATUS:               ID:20211114202311     I
 STAT SP IPHASW D HRMM SECON CODA AMPLIT PERI AZIMU VELO AIN AR TRES W  DIS CAZ7
 BNDS  Z  P       202315.900                                        10          
 BNB   Z  P       202321.440                                        10          
 MZN1  Z  P       202338.500                                        10          
 KRBR  Z  P       202351.260                                         0          
 JASK  Z  P       202351.500                                        10          
 MZN1  N  S       202357.480                                        10          
 CHMN  Z  P       202358.220                                        10          
 KBAM  Z  P       202358.280                                        10          
                                                                                

 2021 1114 2041 13.6 L  27.569  56.196  9.8       6 0.4 0.0W                   1
 GAP=                                                                          E
 Action:ARG 22-09-14 15:25 OP:OBSP STATUS:               ID:20211114204113     I
 STAT SP IPHASW D HRMM SECON CODA AMPLIT PERI AZIMU VELO AIN AR TRES W  DIS CAZ7
 BNDS  Z  P       204117.980                                        10          
 BNB   Z  P       204121.440                                        10          
 MZN1  Z  P       204142.380                                        10          
 JASK  Z  P       204154.160                                        10          
 KBAM  Z  P       204157.220                                        10          
 CHMN  Z  P       204158.480                                        10          
                                                                                

 2021 1114 2113 31.8 L  27.611  56.279 10.0       6 0.4 0.0W                   1
 GAP=                                                                          E
 Action:ARG 22-09-14 15:25 OP:OBSP STATUS:               ID:20211114211331     I
 STAT SP IPHASW D HRMM SECON CODA AMPLIT PERI AZIMU VELO AIN AR TRES W  DIS CAZ7
 BNDS  Z  P       211336.320                                        10          
 BNB   Z  P       211337.820                                        10          
 BNDS  N  S       211341.160                                        10          
 MZN1  Z  P       2114 0.320                                        10          
 KRBR  Z  P       2114 9.460                                         0          
 KBAM  Z  P       211413.520                                        10          
 CHMN  Z  P       211414.900                                        10          
                                                                                

 2021 1114 2127 37.9 L  27.566  56.161 13.8       7 0.5 0.0W                   1
 GAP=                                                                          E
 Action:ARG 22-09-14 15:25 OP:OBSP STATUS:               ID:20211114212737     I
 STAT SP IPHASW D HRMM SECON CODA AMPLIT PERI AZIMU VELO AIN AR TRES W  DIS CAZ7
 BNDS  Z  P       212742.000                                        10          
 BNB   Z  P       212745.260                                        10          
 MZN1  Z  P       2128 4.760                                        10          
 KRBR  Z  P       212815.440                                         0          
 JASK  Z  P       212816.700                                        10          
 KBAM  Z  P       212821.160                                        10          
 CHMN  Z  P       212821.880                                        10          
                                                                                

 2021 1114 2133 35.3 L  27.619  56.249 11.8       5 0.1 0.0W                   1
 GAP=                                                                          E
 Action:ARG 22-09-14 15:25 OP:OBSP STATUS:               ID:20211114213335     I
 STAT SP IPHASW D HRMM SECON CODA AMPLIT PERI AZIMU VELO AIN AR TRES W  DIS CAZ7
 BNDS  Z  P       213341.440                                        10          
 BNB   Z  P       213342.520                                        10          
 MZN1  Z  P       2134 4.300                                        10          
 KBAM  Z  P       213418.160                                        10          
 CHMN  Z  P       213419.360                                        10          
                                                                                

 2021 1114 2213 17.5 L  27.602  56.217 11.9       7 0.4 0.0W                   1
 GAP=                                                                          E
 Action:ARG 22-09-14 15:25 OP:OBSP STATUS:               ID:20211114221317     I
 STAT SP IPHASW D HRMM SECON CODA AMPLIT PERI AZIMU VELO AIN AR TRES W  DIS CAZ7
 BNDS  Z  P       221322.100                                        10          
 BNB   Z  P       221324.400                                        10          
 MZN1  Z  P       221345.200                                        10          
 JASK  Z  P       221356.360                                        10          
 KBAM  Z  P       2214 0.320                                        10          
 CHMN  Z  P       2214 0.980                                        10          
 UOSS  Z  P       2214 1.990                                        10          
 MZN1  N  S       2214 7.220                                        10          
                                                                                

 2021 1114 2248 53.5 L  27.595  56.188 12.5       7 0.5 0.0W                   1
 GAP=                                                                          E
 Action:ARG 22-09-14 15:25 OP:OBSP STATUS:               ID:20211114224853     I
 STAT SP IPHASW D HRMM SECON CODA AMPLIT PERI AZIMU VELO AIN AR TRES W  DIS CAZ7
 BNDS  Z  P       224858.240                                        10          
 BNB   Z  P       2249 0.480                                        10          
 MZN1  Z  P       224921.260                                        10          
 JASK  Z  P       224932.400                                        10          
 CHMN  Z  P       224936.080                                        10          
 KBAM  Z  P       224936.640                                        10          
 UOSS  Z  P       224938.120                                        10          
 MZN1  N  S       224940.020                                        10          
                                                                                

 2021 1114 2250 41.8 L  27.879  56.157 10.0       4 0.2 0.0W                   1
 GAP=                                                                          E
 Action:ARG 22-09-14 15:25 OP:OBSP STATUS:               ID:20211114225041     I
 STAT SP IPHASW D HRMM SECON CODA AMPLIT PERI AZIMU VELO AIN AR TRES W  DIS CAZ7
 BNB   Z  P       225053.360                                        10          
 MZN1  Z  P       2251 8.160                                        10          
 CHMN  Z  P       225126.880                                        10          
 KBAM  Z  P       225127.160                                        10          
                                                                                

 2021 1115  032 24.8 L  27.566  56.153 11.0       6 0.3 0.0W                   1
 GAP=                                                                          E
 Action:ARG 22-09-14 15:25 OP:OBSP STATUS:               ID:20211115003224     I
 STAT SP IPHASW D HRMM SECON CODA AMPLIT PERI AZIMU VELO AIN AR TRES W  DIS CAZ7
 BNDS  Z  P        03229.120                                        10          
 BNB   Z  P        03231.880                                        10          
 JASK  Z  P        033 3.960                                        10          
 KBAM  Z  P        033 8.460                                        10          
 CHMN  Z  P        033 8.900                                        10          
 MZN1  N  S        03312.660                                        10          
                                                                                

 2021 1115  053 51.5 L  27.640  56.288  8.3       5 0.4 0.0W                   1
 GAP=                                                                          E
 Action:ARG 22-09-14 15:25 OP:OBSP STATUS:               ID:20211115005351     I
 STAT SP IPHASW D HRMM SECON CODA AMPLIT PERI AZIMU VELO AIN AR TRES W  DIS CAZ7
 BNB   Z  P        05358.120                                        10          
 MZN1  Z  P        05421.280                                        10          
 JASK  Z  P        05431.900                                        10          
 KBAM  Z  P        05435.000                                        10          
 CHMN  Z  P        05435.180                                        10          
                                                                                

 2021 1115  1 7  9.2 L  27.560  56.059 10.0       6 0.5 0.0W                   1
 GAP=                                                                          E
 Action:ARG 22-09-14 15:25 OP:OBSP STATUS:               ID:20211115010709     I
 STAT SP IPHASW D HRMM SECON CODA AMPLIT PERI AZIMU VELO AIN AR TRES W  DIS CAZ7
 BNDS  Z  P        1 714.180                                        10          
 BNB   Z  P        1 718.620                                        10          
 CHMN  Z  P        1 754.120                                        10          
 MZN1  N  S        1 755.020                                        10          
 KBAM  Z  P        1 755.080                                        10          
 KSHB  Z  P        1 757.380                                        10          
                                                                                

 2021 1115  123 24.6 L  27.449  56.007 14.3       6 0.1 0.0W                   1
 GAP=                                                                          E
 Action:ARG 22-09-14 15:25 OP:OBSP STATUS:               ID:20211115012324     I
 STAT SP IPHASW D HRMM SECON CODA AMPLIT PERI AZIMU VELO AIN AR TRES W  DIS CAZ7
 BNDS  Z  P        12328.700                                        10          
 BNB   Z  P        12334.080                                        10          
 JASK  Z  P        124 3.640                                        10          
 MZN1  N  S        124 9.060                                        10          
 KBAM  Z  P        12410.040                                        10          
 CHMN  Z  P        12410.180                                        10          
                                                                                

 2021 1115  132 59.7 L  27.430  56.160 10.0       4 0.4 0.0W                   1
 GAP=                                                                          E
 Action:ARG 22-09-14 15:25 OP:OBSP STATUS:               ID:20211115013259     I
 STAT SP IPHASW D HRMM SECON CODA AMPLIT PERI AZIMU VELO AIN AR TRES W  DIS CAZ7
 BNB   Z  P        133 6.720                                        10          
 KBAM  Z  P        13345.800                                        10          
 CHMN  Z  P        13346.740                                        10          
 MZN1  N  S        13349.820                                        10          
                                                                                

 2021 1115  141 27.9 L  27.552  55.988 11.1       6 0.5 0.0W                   1
 GAP=                                                                          E
 Action:ARG 22-09-14 15:25 OP:OBSP STATUS:               ID:20211115014127     I
 STAT SP IPHASW D HRMM SECON CODA AMPLIT PERI AZIMU VELO AIN AR TRES W  DIS CAZ7
 BNDS  Z  P        14132.760                                        10          
 BNB   Z  P        14138.060                                        10          
 BNB   N  S        14145.200                                        10          
 MZN1  Z  P        14153.680                                        10          
 JASK  Z  P        142 8.720                                        10          
 MZN1  N  S        14211.080                                        10          
 CHMN  Z  P        14213.200                                        10          
 KBAM  Z  P        14213.580                                        10          
                                                                                

