 2021 1115 16 3 24.7 L  27.625  56.141 10.0       6 0.3 0.0W                   1
 GAP=                                                                          E
 Action:ARG 22-09-14 15:25 OP:OBSP STATUS:               ID:20211115160324     I
 STAT SP IPHASW D HRMM SECON CODA AMPLIT PERI AZIMU VELO AIN AR TRES W  DIS CAZ7
 BNDS  Z  P       16 329.540                                        10          
 BNB   Z  P       16 332.660                                        10          
 BNB   N  S       16 338.940                                        10          
 MZN1  Z  P       16 351.380                                        10          
 JASK  Z  P       16 4 6.240                                         5          
 KBAM  Z  P       16 4 7.400                                        10          
 CHMN  Z  P       16 4 8.600                                        10          
                                                                                

 2021 1115 1624 54.0 L  27.591  56.117 10.0       5 0.4 0.0W                   1
 GAP=                                                                          E
 Action:ARG 22-09-14 15:25 OP:OBSP STATUS:               ID:20211115162454     I
 STAT SP IPHASW D HRMM SECON CODA AMPLIT PERI AZIMU VELO AIN AR TRES W  DIS CAZ7
 BNDS  Z  P       162458.900                                        10          
 BNB   Z  P       1625 1.280                                        10          
 BNB   N  S       1625 8.460                                        10          
 MZN1  Z  P       162520.280                                        10          
 CHMN  Z  P       162538.160                                        10          
 KBAM  Z  P       162538.240                                        10          
                                                                                

 2021 1115 1642 42.9 L  27.545  56.138 14.2      13 0.3 0.0W                   1
 GAP=                                                                          E
 Action:ARG 22-09-14 15:25 OP:OBSP STATUS:               ID:20211115164242     I
 STAT SP IPHASW D HRMM SECON CODA AMPLIT PERI AZIMU VELO AIN AR TRES W  DIS CAZ7
 BNDS  Z  P       164247.440                                        10          
 BNB   Z  P       164249.900                                        10          
 JASK  Z  P       164321.800                                        10          
 JHRM  Z  P       164324.660                                        10          
 UOSS  Z  P       164326.270                                        10          
 KBAM  Z  P       164326.400                                        10          
 CHMN  Z  P       164327.000                                        10          
 MZN1  N  S       164329.280                                        10          
 KHGB  Z  P       164329.760                                        10          
 GHIR  Z  P       164331.980                                        10          
 JSSH  Z  P       164319.210                                        10          
 LMD1  Z  P       164328.680                                        10          
 KRBR  Z  P       164321.210                                         0          
                                                                                

 2021 1115 1652  4.3 L  27.454  56.162 10.0       6 0.2 0.0W                   1
 GAP=                                                                          E
 Action:ARG 22-09-14 15:25 OP:OBSP STATUS:               ID:20211115165204     I
 STAT SP IPHASW D HRMM SECON CODA AMPLIT PERI AZIMU VELO AIN AR TRES W  DIS CAZ7
 BNDS  Z  P       1652 6.700                                        10          
 BNB   N  S       165216.420                                        10          
 JASK  Z  P       165244.420                                         0          
 KBAM  Z  P       165249.140                                        10          
 CHMN  Z  P       165249.480                                        10          
 KHGB  Z  P       165253.240                                        10          
                                                                                

 2021 1115 17 4 22.5 L  27.612  56.164  5.0       6 0.5 0.0W                   1
 GAP=                                                                          E
 Action:ARG 22-09-14 15:25 OP:OBSP STATUS:               ID:20211115170422     I
 STAT SP IPHASW D HRMM SECON CODA AMPLIT PERI AZIMU VELO AIN AR TRES W  DIS CAZ7
 BNDS  Z  P       17 426.960                                        10          
 BNB   N  S       17 435.380                                        10          
 MZN1  Z  P       17 451.480                                        10          
 JASK  Z  P       17 5 3.960                                        10          
 KBAM  Z  P       17 5 6.900                                        10          
 KHGB  Z  P       17 5 9.780                                        10          
                                                                                

 2021 1115 1722 18.7 L  27.567  56.219 10.6       9 0.4 0.0W                   1
 GAP=                                                                          E
 Action:ARG 22-09-14 15:25 OP:OBSP STATUS:               ID:20211115172218     I
 STAT SP IPHASW D HRMM SECON CODA AMPLIT PERI AZIMU VELO AIN AR TRES W  DIS CAZ7
 BNDS  Z  P       172223.600                                        10          
 BNB   Z  P       172226.340                                        10          
 BNB   N  S       172230.720                                        10          
 MZN1  Z  P       172247.760                                        10          
 JASK  Z  P       172258.780                                        10          
 KBAM  Z  P       1723 2.960                                        10          
 UOSS  Z  P       1723 3.570                                        10          
 CHMN  Z  P       1723 3.600                                        10          
 KHGB  Z  P       1723 6.520                                        10          
 KSHB  Z  P       1723 7.540                                        10          
                                                                                

 2021 1115 18 5 38.3 L  27.535  56.238 18.9      13 0.4 0.0W                   1
 GAP=                                                                          E
 Action:ARG 22-09-14 15:25 OP:OBSP STATUS:               ID:20211115180538     I
 STAT SP IPHASW D HRMM SECON CODA AMPLIT PERI AZIMU VELO AIN AR TRES W  DIS CAZ7
 BNDS  Z  P       18 542.820                                        10          
 BNB   Z  P       18 544.240                                        10          
 BNB   N  S       18 549.880                                        10          
 MZN1  Z  P       18 6 6.380                                        10          
 JASK  Z  P       18 616.040                                        10          
 KBAM  Z  P       18 620.300                                        10          
 CHMN  Z  P       18 621.180                                        10          
 UOSS  Z  P       18 621.620                                        10          
 LMD1  Z  P       18 623.240                                        10          
 KHGB  Z  P       18 624.720                                        10          
 KSHB  Z  P       18 625.440                                        10          
 MZN1  N  S       18 627.820                                        10          
 JSSH  Z  P       18 613.310                                        10          
 KRBR  Z  P       18 615.150                                         0          
 GHIR  Z  P       18 626.480                                        10          
                                                                                

 2021 1115 1818 16.8 L  27.535  55.968 17.8      13 0.3 0.0W                   1
 GAP=                                                                          E
 Action:ARG 22-09-14 15:25 OP:OBSP STATUS:               ID:20211115181816     I
 STAT SP IPHASW D HRMM SECON CODA AMPLIT PERI AZIMU VELO AIN AR TRES W  DIS CAZ7
 BNB   Z  P       181827.100                                        10          
 MZN1  Z  P       181840.940                                        10          
 JASK  Z  P       181856.220                                        10          
 UOSS  Z  P       181859.840                                        10          
 KBAM  Z  P       1819 0.840                                        10          
 CHMN  Z  P       1819 1.540                                        10          
 KSHB  Z  P       1819 2.620                                        10          
 KHGB  Z  P       1819 4.140                                        10          
 GHIR  Z  P       1819 2.400                                        10          
 BNDS  Z  P       181820.600                                        10          
 JSSH  Z  P       181853.030                                        10          
 LMD1  Z  P       1819 0.480                                        10          
 KRBR  Z  P       181854.740                                         0          
                                                                                

 2021 1115 1823  1.7 L  27.530  56.174 10.0       6 0.4 0.0W                   1
 GAP=                                                                          E
 Action:ARG 22-09-14 15:25 OP:OBSP STATUS:               ID:20211115182301     I
 STAT SP IPHASW D HRMM SECON CODA AMPLIT PERI AZIMU VELO AIN AR TRES W  DIS CAZ7
 BNDS  Z  P       1823 4.960                                        10          
 MZN1  Z  P       182329.400                                        10          
 JASK  Z  P       182341.340                                        10          
 KBAM  Z  P       182344.880                                        10          
 CHMN  Z  P       182346.940                                        10          
 KHGB  Z  P       182349.340                                        10          
                                                                                

 2021 1115 1830 42.8 L  27.556  56.264  9.3       6 0.4 0.0W                   1
 GAP=                                                                          E
 Action:ARG 22-09-14 15:25 OP:OBSP STATUS:               ID:20211115183042     I
 STAT SP IPHASW D HRMM SECON CODA AMPLIT PERI AZIMU VELO AIN AR TRES W  DIS CAZ7
 BNDS  Z  P       183047.480                                        10          
 BNB   Z  P       183049.800                                        10          
 BNB   N  S       183053.420                                        10          
 MZN1  Z  P       183112.600                                        10          
 JASK  Z  P       183122.540                                        10          
 KBAM  Z  P       183126.740                                        10          
 CHMN  Z  P       183127.040                                        10          
                                                                                

 2021 1115 19 9 51.6 L  27.642  55.934  8.1       7 0.3 0.0W                   1
 GAP=                                                                          E
 Action:ARG 22-09-14 15:25 OP:OBSP STATUS:               ID:20211115190951     I
 STAT SP IPHASW D HRMM SECON CODA AMPLIT PERI AZIMU VELO AIN AR TRES W  DIS CAZ7
 BNDS  Z  P       19 958.440                                        10          
 BNB   Z  P       1910 2.960                                        10          
 BNB   N  S       191011.420                                        10          
 MZN1  Z  P       191014.780                                        10          
 KBAM  Z  P       191036.700                                        10          
 CHMN  Z  P       191036.720                                        10          
 JASK  Z  P       191037.480                                         0          
 KHGB  Z  P       191040.640                                         5          
                                                                                

 2021 1115 1912 14.5 L  27.564  56.187 12.1       9 0.4 0.0W                   1
 GAP=                                                                          E
 Action:ARG 22-09-14 15:25 OP:OBSP STATUS:               ID:20211115191214     I
 STAT SP IPHASW D HRMM SECON CODA AMPLIT PERI AZIMU VELO AIN AR TRES W  DIS CAZ7
 BNDS  Z  P       191218.280                                        10          
 BNB   Z  P       191220.940                                        10          
 BNB   N  S       191227.320                                        10          
 MZN1  Z  P       191241.840                                        10          
 JASK  Z  P       191253.960                                        10          
 KBAM  Z  P       191257.260                                        10          
 UOSS  Z  P       191258.120                                        10          
 CHMN  Z  P       191258.120                                        10          
 KRBR  Z  P       191252.780                                        10          
 JSSH  Z  P       191249.980                                        10          
                                                                                

 2021 1115 1931 51.0 L  27.518  56.047  8.2       8 0.4 0.0W                   1
 GAP=                                                                          E
 Action:ARG 22-09-14 15:25 OP:OBSP STATUS:               ID:20211115193151     I
 STAT SP IPHASW D HRMM SECON CODA AMPLIT PERI AZIMU VELO AIN AR TRES W  DIS CAZ7
 BNDS  Z  P       193154.380                                        10          
 BNB   Z  P       1932 0.400                                        10          
 JASK  Z  P       193231.420                                        10          
 CHMN  Z  P       193236.040                                        10          
 KBAM  Z  P       193236.460                                        10          
 GHIR  Z  P       193239.740                                        10          
 JSSH  Z  P       193228.130                                        10          
 KRBR  Z  P       193231.150                                         0          
                                                                                

 2021 1115 1953 16.0 L  27.480  56.017 11.4       7 0.4 0.0W                   1
 GAP=                                                                          E
 Action:ARG 22-09-14 15:25 OP:OBSP STATUS:               ID:20211115195316     I
 STAT SP IPHASW D HRMM SECON CODA AMPLIT PERI AZIMU VELO AIN AR TRES W  DIS CAZ7
 BNDS  Z  P       195319.840                                        10          
 BNB   Z  P       195324.640                                        10          
 BNB   N  S       195332.960                                        10          
 MZN1  Z  P       195342.120                                        10          
 JASK  Z  P       195355.880                                        10          
 CHMN  Z  P       1954 1.840                                        10          
 KBAM  Z  P       1954 2.060                                        10          
 KHGB  Z  P       1954 3.900                                        10          
                                                                                

 2021 1115 20 6 29.4 L  27.605  56.166 21.6      12 0.3 0.0W                   1
 GAP=                                                                          E
 Action:ARG 22-09-14 15:25 OP:OBSP STATUS:               ID:20211115200629     I
 STAT SP IPHASW D HRMM SECON CODA AMPLIT PERI AZIMU VELO AIN AR TRES W  DIS CAZ7
 BNDS  Z  P       20 635.000                                        10          
 BNB   Z  P       20 637.180                                        10          
 BNB   N  S       20 643.440                                        10          
 MZN1  Z  P       20 655.300                                        10          
 JASK  Z  P       20 7 7.780                                        10          
 CHMN  Z  P       20 711.040                                        10          
 KBAM  Z  P       20 711.100                                        10          
 UOSS  Z  P       20 713.170                                        10          
 KHGB  Z  P       20 714.480                                        10          
 KSHB  Z  P       20 714.820                                        10          
 GHIR  Z  P       20 716.560                                        10          
 JSSH  Z  P       20 7 4.930                                        10          
 KRBR  Z  P       20 7 5.230                                         0          
                                                                                

 2021 1115 2014 40.2 L  27.618  56.180  5.0       6 0.2 0.0W                   1
 GAP=                                                                          E
 Action:ARG 22-09-14 15:25 OP:OBSP STATUS:               ID:20211115201440     I
 STAT SP IPHASW D HRMM SECON CODA AMPLIT PERI AZIMU VELO AIN AR TRES W  DIS CAZ7
 BNDS  Z  P       201444.900                                        10          
 BNB   N  S       201453.560                                        10          
 MZN1  Z  P       2015 9.640                                        10          
 JASK  Z  P       201521.480                                        10          
 KBAM  Z  P       201523.820                                        10          
 CHMN  Z  P       201525.040                                        10          
                                                                                

 2021 1115 2016 47.1 L  27.631  56.158  6.0       5 0.4 0.0W                   1
 GAP=                                                                          E
 Action:ARG 22-09-14 15:25 OP:OBSP STATUS:               ID:20211115201647     I
 STAT SP IPHASW D HRMM SECON CODA AMPLIT PERI AZIMU VELO AIN AR TRES W  DIS CAZ7
 BNDS  Z  P       201651.700                                        10          
 MZN1  Z  P       201716.180                                        10          
 JASK  Z  P       201729.080                                        10          
 CHMN  Z  P       201731.060                                        10          
 KBAM  Z  P       201731.060                                        10          
                                                                                

 2021 1115 2037 55.6 L  27.605  56.133  6.0       5 0.5 0.0W                   1
 GAP=                                                                          E
 Action:ARG 22-09-14 15:25 OP:OBSP STATUS:               ID:20211115203755     I
 STAT SP IPHASW D HRMM SECON CODA AMPLIT PERI AZIMU VELO AIN AR TRES W  DIS CAZ7
 BNDS  Z  P       2038 0.260                                        10          
 MZN1  Z  P       203823.840                                        10          
 JASK  Z  P       203837.400                                        10          
 KBAM  Z  P       203839.680                                        10          
 CHMN  Z  P       203840.480                                        10          
                                                                                

