# 2015 06 26 13 44 30.900000 35.926 53.002   9.1  3.3 0.0 0.0 0.0       595
ANJ  16.510 1.00 Pg
ANAR 46.660 1.00 Pn
AKL  73.300 0.00 Pn
AFRZ 84.560 0.00 Pn
DAH  97.890 0.00 Pn
GLO  16.800 1.00 Pg
HSAM 64.820 0.00 Pn
ZEF  51.140 0.00 Pn
VRN  26.620 1.00 Pg
TPRV 66.640 0.00 Pn
TKDS 64.780 0.00 Pn
TEH  24.800 1.00 Pg
TEG  86.410 0.00 Pn
SHM   5.560 1.00 Pg
SFR  66.450 1.00 Pn
SFB  31.120 1.00 Pg
SBZV 60.180 1.00 Pn
RAZ  45.140 0.00 Pn
RAM  65.450 0.00 Pn
QOM  35.000 0.00 Pn
QAMS 43.680 1.00 Pn
QALM 35.760 1.00 Pn
QABG 47.960 0.00 Pn
PRN  12.260 1.00 Pg
PIR  60.480 0.00 Pn
MON  93.760 0.00 Pn
MND  40.020 1.00 Pn
MHD  35.780 0.00 Pn
MEH  73.400 0.00 Pn
LAS  11.110 1.00 Pg
KRSH 36.880 0.00 Pn
KOO  91.970 0.00 Pn
KLH  48.760 0.00 Pn
HSB  28.260 0.00 Pg
SHRO 43.660 1.00 Pn
DAMV 17.240 1.00 Pg
GHVR 37.830 0.00 Pn
# 2015 06 27 06 47 35.700000 35.918 53.053   7.2  2.5 0.0 0.0 0.0       596
ANJ  16.160 1.00 Pg
VRN  27.340 1.00 Pg
SHM   5.420 1.00 Pg
SFB  31.640 1.00 Pg
QALM 37.160 1.00 Pn
PRN  12.320 1.00 Pg
LAS  11.750 1.00 Pg
GLO  16.880 1.00 Pg
ANJ  27.940 1.00 Sg
# 2015 06 27 11 48 08.000000 35.550 50.250  10.0  1.7 0.0 0.0 0.0       597
RAZ   6.380 1.00 Pg
QOM  18.820 1.00 Pg
QABG 11.340 1.00 Pg
# 2015 06 28 08 44 58.300000 35.382 49.162  10.0  1.4 0.0 0.0 0.0       598
RAZ  13.160 1.00 Pg
QABG  9.160 1.00 Pg
HALM 19.260 1.00 Pg
HAGD 10.720 1.00 Pg
# 2015 06 29 07 06 35.900000 35.237 50.644  10.0  1.9 0.0 0.0 0.0       599
VRN  18.060 1.00 Pg
QOM  10.360 1.00 Pg
MHD   9.140 1.00 Pg
HSB  10.900 1.00 Pg
# 2015 06 29 08 03 33.100000 35.333 49.231  10.0  1.6 0.0 0.0 0.0       600
RAZ  11.940 1.00 Pg
QABG  9.280 1.00 Pg
HAGD 10.060 1.00 Pg
HALM 19.640 1.00 Pg
# 2015 06 29 18 33 32.500000 35.593 49.688   5.0  2.4 0.0 0.0 0.0       601
GZV  18.900 1.00 Pg
HAGD 17.940 1.00 Pg
HALM 28.640 0.50 Pg
HSAM 31.300 1.00 Pg
KRSH 45.920 1.00 Pn
MHD  15.960 1.00 Pg
QABG  3.280 1.00 Pg
QALM 21.900 0.50 Pg
QAMS 42.060 1.00 Pn
QSDN 20.540 1.00 Pg
RAZ   5.920 1.00 Pg
RAZ   9.640 1.00 Sg
SFB  43.340 1.00 Pn
VRN  33.480 1.00 Pg
# 2015 06 30 06 40 09.300000 35.531 53.210  10.0  1.3 0.0 0.0 0.0       602
ANJ  11.560 1.00 Pg
LAS   5.610 1.00 Pg
SHM   5.970 1.00 Pg
SHM  10.810 1.00 Sg
# 2015 06 30 07 55 29.500000 36.618 49.915   7.1  4.1 0.0 0.0 0.0       603
VRN  40.480 0.00 Pn
TBZ  55.130 0.00 Pn
SRB  39.010 1.00 Pn
SFB  50.640 0.00 Pn
RAZ  23.560 1.00 Pg
QSDN 11.880 1.00 Pg
QOM  37.060 0.00 Pn
QCNT  7.440 1.00 Pg
QALM 12.440 1.00 Pg
QAMS 53.160 0.00 Pn
PRN  37.500 0.00 Pn
MRD  64.060 0.00 Pn
MHD  22.640 0.00 Pg
LIN  50.220 1.00 Pn
LAS  48.120 0.00 Pn
KRSH 53.540 0.00 Pn
KLH  59.480 0.00 Pn
KFM  58.520 0.00 Pn
KCHF 54.960 1.00 Pn
HSH  38.840 1.00 Pn
HSB  31.420 0.00 Pg
HSAM 46.340 0.00 Pn
HRS  47.630 1.00 Pn
HAGD 35.600 1.00 Pn
GZV   8.280 1.00 Pg
EMG  105.460 1.00 Pn
DOB  54.540 0.00 Pn
DHR  58.120 0.00 Pn
BZA  47.940 0.00 Pn
BMDN 52.380 0.00 Pn
ANJ  58.630 0.00 Pn
QALM 20.800 1.00 Sg
TEH  29.620 0.00 Pg
RAZ  40.000 1.00 Sg
GZV  12.420 1.00 Sg
GLO  52.620 1.00 Pn
SHRO 78.340 0.00 Pn
KHMZ 48.580 0.00 Pn
DAMV 37.770 0.00 Pn
GHVR 43.240 0.00 Pn
ZNJK 18.700 1.00 Pg
CHTH 24.610 0.00 Pg
# 2015 06 30 08 00 03.600000 36.632 49.875   9.0  2.2 0.0 0.0 0.0       604
GZV   8.360 1.00 Pg
MHD  22.860 1.00 Pg
QALM 12.420 1.00 Pg
QSDN 12.060 1.00 Pg
RAZ  23.640 1.00 Pg
QSDN 19.920 1.00 Sg
GZV  13.100 1.00 Sg
# 2015 06 30 08 20 38.200000 36.532 49.866  10.0  1.2 0.0 0.0 0.0       605
QABG 16.720 1.00 Pg
QALM 12.500 1.00 Pg
QSDN 11.660 1.00 Pg
QSDN 19.300 1.00 Sg
# 2015 06 30 10 27 47.100000 35.368 50.192  10.0  1.4 0.0 0.0 0.0       606
MHD  10.520 1.00 Pg
QOM  17.140 1.00 Pg
RAZ   5.040 1.00 Pg
QALM 21.440 1.00 Pg
# 2015 06 30 12 28 41.500000 36.273 49.897  10.0  1.9 0.0 0.0 0.0       607
MHD  16.680 1.00 Pg
QALM 13.040 1.00 Pg
QSDN 12.400 1.00 Pg
QALM 21.600 1.00 Sg
# 2015 07 01 03 54 53.400000 35.189 51.376  12.0  2.1 0.0 0.0 0.0       608
KRSH 25.620 1.00 Pg
LAS  24.620 1.00 Pg
QAMS 26.820 1.00 Pg
QOM   9.620 1.00 Pg
RAZ  23.000 1.00 Pg
SFB  20.640 1.00 Pg
SHM  31.970 1.00 Pg
VRN   8.200 1.00 Pg
# 2015 07 01 05 20 31.300000 35.994 53.543  12.0  2.0 0.0 0.0 0.0       609
ANJ  12.350 1.00 Pg
SHM   7.090 1.00 Pg
SFB  36.200 1.00 Pn
GLO  11.480 1.00 Pg
# 2015 07 01 08 09 26.800000 36.035 50.558  10.0  1.5 0.0 0.0 0.0       610
MHD   7.540 1.00 Pg
QALM  8.280 1.00 Pg
QALM 14.700 1.00 Sg
RAZ  15.960 1.00 Pg
# 2015 07 01 08 14 21.800000 34.327 52.492   8.7  1.3 0.0 0.0 0.0       611
ANAR 29.340 1.00 Pg
KRSH  9.880 1.00 Pg
QAMS 20.500 1.00 Pg
SFB   4.980 1.00 Pg
ZEF  27.630 1.00 Pg
# 2015 07 01 10 15 20.100000 36.573 49.823  10.0  2.5 0.0 0.0 0.0       612
GZV   7.820 1.00 Pg
MHD  22.220 1.00 Pg
QABG 16.940 1.00 Pg
QALM 13.040 1.00 Pg
QSDN 11.060 1.00 Pg
RAZ  22.600 1.00 Pg
QSDN 18.540 1.00 Sg
# 2015 07 01 10 50 11.400000 36.582 49.843  10.0  2.1 0.0 0.0 0.0       613
GZV   7.820 1.00 Pg
MHD  22.000 1.00 Pg
QABG 17.160 1.00 Pg
QALM 12.740 1.00 Pg
QSDN 11.280 1.00 Pg
QSDN 19.140 1.00 Sg
# 2015 07 01 13 12 28.000000 34.104 49.543  10.0  2.2 0.0 0.0 0.0       614
HAGD 15.340 1.00 Pg
HALM 26.200 1.00 Pg
HSAM 16.020 1.00 Pg
RAZ  26.120 1.00 Pg
QOM  27.540 1.00 Pg
HSAM 26.940 1.00 Sg
# 2015 07 02 06 18 38.800000 35.596 49.690  10.0  1.3 0.0 0.0 0.0       615
QABG  3.460 1.00 Pg
RAZ   6.040 1.00 Pg
RAZ  10.300 1.00 Sg
QSDN 19.600 1.00 Pg
GZV  17.520 1.00 Pg
# 2015 07 03 05 45 08.800000 35.919 53.035   8.0  3.9 0.0 0.0 0.0       616
ALA   5.340 1.00 Pg
ANJ  16.150 1.00 Pg
CHK  61.310 0.00 Pn
GLO  16.860 1.00 Pg
GZV  42.700 0.00 Pn
HAGD 56.980 0.00 Pn
HRS  83.570 0.00 Pn
HSB  28.480 1.00 Pg
HSAM 65.620 0.00 Pn
KFM  77.600 0.00 Pn
KLH  48.380 0.00 Pn
KLNJ 78.980 0.00 Pn
KRSH 37.080 0.00 Pn
LAS  11.250 1.00 Pg
MEH  73.830 0.00 Pn
MHD  35.960 0.00 Pn
MND  40.180 1.00 Pn
MYA  87.970 0.00 Pn
PIR  60.970 0.00 Pn
PRN  12.540 1.00 Pg
QABG 48.300 0.00 Pn
QALM 37.060 1.00 Pn
QAMS 44.380 1.00 Pn
QCNT 43.600 1.00 Pn
QOM  35.480 1.00 Pn
RAM  66.090 0.00 Pn
RAZ  46.020 0.00 Pn
SAD  64.290 0.00 Pn
SBZV 60.600 1.00 Pn
SFB  31.240 1.00 Pg
SFR  67.320 0.00 Pn
SHK1 65.580 0.00 Pn
SHM   5.220 1.00 Pg
SHM   9.370 1.00 Sg
SRB  74.470 0.00 Pn
TEH  25.900 1.00 Pg
TKDS 64.940 0.00 Pn
TNSJ 57.400 0.00 Pn
TPRV 66.560 0.00 Pn
VRN  26.860 1.00 Pg
ZEF  51.340 0.00 Pn
# 2015 07 03 06 10 15.000000 35.943 53.011   8.2  2.5 0.0 0.0 0.0       617
ANJ  16.880 1.00 Pg
GLO  17.000 1.00 Pg
KRSH 37.460 1.00 Pn
LAS  11.720 1.00 Pg
PRN  12.540 1.00 Pg
QOM  35.680 1.00 Pn
SFB  31.480 1.00 Pg
SHM   5.760 1.00 Pg
VRN  27.060 1.00 Pg
HSB  28.320 1.00 Pg
# 2015 07 03 08 42 53.900000 35.904 53.010  13.3  1.4 0.0 0.0 0.0       618
ANJ  16.540 1.00 Pg
LAS  10.530 1.00 Pg
SHM   5.630 1.00 Pg
PRN  22.120 1.00 Sg
# 2015 07 03 23 20 57.100000 35.060 53.872  10.0  2.0 0.0 0.0 0.0       619
ANJ   8.620 1.00 Pg
GLO  27.880 1.00 Pg
LAS  16.840 1.00 Pg
PRN  32.580 1.00 Pg
SHM  16.640 1.00 Pg
SFB  28.860 1.00 Pg
# 2015 07 04 10 33 15.300000 35.202 50.792  10.0  1.3 0.0 0.0 0.0       620
QOM   8.900 1.00 Pg
RAZ  15.000 1.00 Pg
VRN  15.580 1.00 Pg
QOM  14.820 1.00 Sg
QABG 20.860 1.00 Pg
# 2015 07 04 11 14 09.900000 35.768 49.100   8.0  3.0 0.0 0.0 0.0       621
BMDN 39.000 0.00 Pn
BZA  30.360 1.00 Pg
DHR  43.020 1.00 Pn
GZV  21.880 1.00 Pg
HAGD 18.560 1.00 Pg
HALM 22.280 1.00 Pg
HSAM 29.940 1.00 Pg
HSB  35.180 0.00 Pg
DOB  39.180 0.00 Pn
LIN  35.360 1.00 Pn
KRSH 51.480 0.00 Pn
MHD  25.040 1.00 Pg
MHD  43.520 1.00 Sg
QABG  7.540 1.00 Pg
QALM 27.260 1.00 Pg
QOM  34.820 0.00 Pn
QSDN 14.280 1.00 Pg
RAZ  15.440 1.00 Pg
SFB  50.100 0.00 Pn
SHM  57.420 0.00 Pn
SRB  41.730 1.00 Pn
VRN  41.020 0.00 Pn
QALM 47.220 1.00 Sg
# 2015 07 04 11 24 14.100000 36.613 49.874  10.0  1.7 0.0 0.0 0.0       622
GZV   8.000 1.00 Pg
MHD  22.240 1.00 Pg
QABG 17.440 1.00 Pg
QALM 13.000 1.00 Pg
QALM 22.260 1.00 Sg
QSDN 11.400 1.00 Pg
RAZ  23.880 1.00 Pg
GZV  13.020 1.00 Sg
# 2015 07 05 03 41 04.400000 35.548 53.229  10.0  1.6 0.0 0.0 0.0       623
LAS   6.020 1.00 Pg
SFB  27.800 1.00 Pg
SHM   5.650 1.00 Pg
SFB  48.400 1.00 Sg
# 2015 07 05 09 26 09.100000 34.294 49.609   7.0  1.8 0.0 0.0 0.0       624
BMDN 17.500 1.00 Pg
HSAM 16.680 1.00 Pg
HAGD 13.140 1.00 Pg
HALM 25.080 1.00 Pg
HSAM 28.940 1.00 Sg
# 2015 07 06 01 13 25.800000 36.509 50.845   8.7  2.0 0.0 0.0 0.0       625
GZV  10.780 1.00 Pg
GZV  18.620 1.00 Sg
QALM  4.440 1.00 Pg
QALM  7.040 1.00 Sg
QSDN 25.500 1.00 Pg
RAZ  25.460 1.00 Pg
# 2015 07 06 08 40 43.900000 35.939 53.384  12.2  2.7 0.0 0.0 0.0       626
VRN  30.560 1.00 Pg
SHM   4.240 1.00 Pg
SFB  32.860 1.00 Pn
QALM 40.600 1.00 Pn
PRN  16.680 1.00 Pg
LAS  13.260 1.00 Pg
KRSH 38.500 1.00 Pn
GLO  13.000 1.00 Pg
FIR  11.500 1.00 Pg
ANJ  12.250 1.00 Pg
ANJ  21.950 1.00 Sg
# 2015 07 06 13 38 23.400000 35.540 53.171   7.6  1.1 0.0 0.0 0.0       627
LAS   5.170 1.00 Pg
SHM   6.120 1.00 Pg
SFB  27.120 1.00 Pg
ANJ  12.220 1.00 Pg
# 2015 07 07 04 24 49.400000 35.885 53.167  15.6  2.8 0.0 0.0 0.0       628
ANJ  14.360 1.00 Pg
DMV  18.360 1.00 Pg
GLO  15.620 1.00 Pg
LAS  10.830 1.00 Pg
KRSH 36.980 1.00 Pn
PRN  14.860 1.00 Pg
SFB  31.340 1.00 Pg
SHM   4.180 1.00 Pg
SHM   7.340 1.00 Sg
QOM  34.920 1.00 Pn
QALM 37.960 1.00 Pn
# 2015 07 07 08 38 08.000000 35.918 53.035   7.2  2.1 0.0 0.0 0.0       629
ANJ  15.750 1.00 Pg
VRN  26.840 1.00 Pg
SHM   4.850 1.00 Pg
SHM   9.160 1.00 Sg
PRN  12.200 1.00 Pg
LAS  10.820 1.00 Pg
GLO  17.320 1.00 Pg
FIR   7.600 1.00 Pg
# 2015 07 07 10 20 03.800000 36.220 53.665   8.0  2.7 0.0 0.0 0.0       630
ANJ  15.350 1.00 Pg
GLO   6.340 1.00 Pg
LAS  19.520 1.00 Pg
PRN  20.860 1.00 Pg
VRN  36.980 1.00 Pn
SHM  10.400 1.00 Pg
# 2015 07 08 02 46 30.700000 36.674 49.707  10.0  1.6 0.0 0.0 0.0       631
GZV  10.420 1.00 Pg
MHD  24.600 1.00 Pg
QABG 18.340 1.00 Pg
QALM 15.300 1.00 Pg
QSDN  9.500 1.00 Pg
RAZ  24.860 1.00 Pg
QSDN 16.600 1.00 Sg
# 2015 07 08 18 57 22.600000 35.930 53.027   8.0  1.9 0.0 0.0 0.0       632
ANJ  16.430 1.00 Pg
DMV  17.220 1.00 Pg
FIR   7.400 1.00 Pg
GLO  17.220 1.00 Pg
KRSH 37.660 1.00 Pn
LAS  10.920 1.00 Pg
PRN  11.840 1.00 Pg
QOM  34.820 1.00 Pn
SFB  31.960 1.00 Pg
SHM   5.310 1.00 Pg
VRN  27.060 1.00 Pg
SHM   9.010 1.00 Sg
# 2015 07 09 13 50 52.200000 34.910 52.367  10.0  1.8 0.0 0.0 0.0       633
KRSH 18.420 1.00 Pg
LAS  13.790 1.00 Pg
SFB  11.500 1.00 Pg
SHM  22.230 1.00 Pg
VRN  10.720 1.00 Pg
# 2015 07 09 13 53 47.900000 34.895 52.362  12.0  2.5 0.0 0.0 0.0       634
ANAR 36.620 1.00 Pn
ANJ  25.750 1.00 Pg
DMV  15.020 1.00 Pg
FIR  16.180 1.00 Pg
KLH  31.400 1.00 Pg
KRSH 18.320 1.00 Pg
LAS  14.010 1.00 Pg
MHD  29.560 1.00 Pg
PRN  26.260 1.00 Pg
QAMS 26.220 1.00 Pg
QOM  20.620 1.00 Pg
SFB  11.400 1.00 Pg
SHM  22.350 1.00 Pg
VRN  10.960 1.00 Pg
# 2015 07 09 16 17 41.500000 35.923 53.020  10.0  1.7 0.0 0.0 0.0       635
ANJ  16.330 1.00 Pg
FIR   7.580 1.00 Pg
GLO  17.500 1.00 Pg
LAS  11.010 1.00 Pg
PRN  12.220 1.00 Pg
SHM   5.490 1.00 Pg
DMV  17.100 1.00 Pg
VRN  27.060 1.00 Pg
# 2015 07 09 17 14 11.600000 34.909 52.339  10.0  1.4 0.0 0.0 0.0       636
LAS  14.030 1.00 Pg
SFB  11.240 1.00 Pg
SHM  22.620 1.00 Pg
VRN  10.140 1.00 Pg
VRN  18.100 1.00 Sg
DMV  14.220 1.00 Pg
# 2015 07 10 17 42 28.200000 36.769 49.448  16.9  2.5 0.0 0.0 0.0       637
GZV  14.720 1.00 Pg
GZV  24.940 1.00 Sg
HSH  34.060 1.00 Pn
QABG 20.060 1.00 Pg
QALM 19.600 1.00 Pg
RAZ  27.020 1.00 Pg
QSDN  7.600 1.00 Pg
# 2015 07 10 20 44 34.200000 35.735 52.101   8.0  2.8 0.0 0.0 0.0       638
ANJ  28.520 1.00 Pg
FIR  10.440 1.00 Pg
GLO  30.500 1.00 Pg
GZV  31.700 1.00 Pg
HSB  14.740 1.00 Pg
KLH  43.040 1.00 Pn
KRSH 32.820 1.00 Pg
LAS  15.520 1.00 Pg
MHD  22.440 1.00 Pg
PRN  10.740 1.00 Pg
QABG 36.280 1.00 Pn
QAMS 37.500 1.00 Pn
QOM  23.420 1.00 Pg
QSDN 44.620 0.00 Pn
RAZ  33.100 0.00 Pg
SFB  26.460 1.00 Pg
SHM  18.660 1.00 Pg
VRN  16.460 1.00 Pg
# 2015 07 11 04 27 04.000000 36.531 49.819  10.0  1.7 0.0 0.0 0.0       639
GZV   7.140 1.00 Pg
MHD  21.440 1.00 Pg
QABG 16.280 1.00 Pg
QSDN 10.560 1.00 Pg
# 2015 07 11 07 42 51.000000 35.548 53.224  10.0  1.0 0.0 0.0 0.0       640
LAS   5.980 1.00 Pg
SHM   5.630 1.00 Pg
ANJ  11.480 1.00 Pg
SHM  10.310 1.00 Sg
# 2015 07 11 10 05 57.900000 35.938 53.245   8.0  2.5 0.0 0.0 0.0       641
ANJ  13.530 1.00 Pg
DMV  20.200 1.00 Pg
GLO  14.720 1.00 Pg
FIR  10.000 1.00 Pg
KRSH 38.600 1.00 Pn
LAS  12.400 1.00 Pg
PRN  15.320 1.00 Pg
QAMS 46.320 1.00 Pn
QOM  37.640 1.00 Pn
SFB  32.820 1.00 Pg
SHM   3.370 1.00 Pg
VRN  29.580 1.00 Pg
ZEF  52.030 1.00 Pn
SHM   5.810 1.00 Sg
QABG 50.680 1.00 Pn
MHD  40.120 1.00 Pn
# 2015 07 11 10 46 11.900000 35.603 49.702  10.0  1.6 0.0 0.0 0.0       642
GZV  17.080 1.00 Pg
QABG  3.340 1.00 Pg
MHD  15.700 1.00 Pg
RAZ   5.960 1.00 Pg
QSDN 19.840 1.00 Pg
RAZ  10.240 1.00 Sg
# 2015 07 11 10 46 58.900000 35.593 49.680  10.0  1.5 0.0 0.0 0.0       643
QABG  3.460 1.00 Pg
MHD  16.100 1.00 Pg
QSDN 33.860 1.00 Sg
RAZ   5.260 1.00 Pg
HAGD 17.780 1.00 Pg
GZV  18.180 1.00 Pg
# 2015 07 12 00 26 14.900000 35.461 53.206  11.0  2.2 0.0 0.0 0.0       644
ANJ  11.430 1.00 Pg
DMV  18.540 1.00 Pg
FIR   8.420 1.00 Pg
GLO  24.220 0.50 Pg
LAS   5.150 1.00 Pg
PRN  20.620 1.00 Pg
SHM   8.070 1.00 Pg
SHM  12.710 1.00 Sg
# 2015 07 12 02 18 24.800000 35.362 53.279  10.0  1.4 0.0 0.0 0.0       645
FIR   9.720 1.00 Pg
LAS   6.320 1.00 Pg
SFB  25.200 1.00 Pg
SHM   9.330 1.00 Pg
LAS  10.020 1.00 Sg
# 2015 07 12 10 13 58.800000 34.318 50.645  10.0  1.7 0.0 0.0 0.0       646
QOM  12.540 1.00 Pg
RAZ  23.820 1.00 Pg
SFB  25.440 1.00 Pg
VRN  21.480 1.00 Pg
# 2015 07 12 10 47 36.600000 35.370 52.713  10.0  1.7 0.0 0.0 0.0       647
ANJ  19.460 1.00 Pg
DMV  12.080 1.00 Pg
FIR   5.560 1.00 Pg
LAS   4.060 1.00 Pg
SHM  13.370 1.00 Pg
# 2015 07 12 11 00 10.800000 36.039 53.568  10.7  2.3 0.0 0.0 0.0       648
ANJ  12.370 1.00 Pg
FIR  14.800 1.00 Pg
GLO  10.180 1.00 Pg
LAS  16.180 1.00 Pg
PRN  19.240 1.00 Pg
SHM   6.830 1.00 Pg
SFB  35.760 1.00 Pn
VRN  33.620 1.00 Pn
# 2015 07 12 11 57 32.900000 34.113 49.545  14.0  2.0 0.0 0.0 0.0       649
HAGD 15.380 1.00 Pg
HSAM 15.720 1.00 Pg
QOM  27.140 1.00 Pg
RAZ  24.460 1.00 Pg
HAGD 26.620 1.00 Sg
HSAM 26.240 1.00 Sg
# 2015 07 13 04 17 08.500000 36.402 50.058   8.0  1.6 0.0 0.0 0.0       650
GZV   2.500 1.00 Pg
PRN  34.880 1.00 Pn
QABG 15.540 1.00 Pg
QSDN 14.260 1.00 Pg
RAZ  19.580 1.00 Pg
# 2015 07 13 12 52 58.600000 35.721 51.989   8.0  2.1 0.0 0.0 0.0       651
ANJ  30.220 1.00 Pg
DMV   3.200 1.00 Pg
FIR  11.460 1.00 Pg
QABG 34.940 1.00 Pn
RAZ  32.440 1.00 Pg
VRN  15.360 1.00 Pg
SHM  20.810 1.00 Pg
SFB  25.860 1.00 Pg
SHM  36.570 1.00 Sg
# 2015 07 14 08 16 46.100000 35.511 53.193  10.0  1.6 0.0 0.0 0.0       652
ANJ  11.480 1.00 Pg
FIR   7.120 1.00 Pg
LAS   5.960 1.00 Pg
SHM   6.720 1.00 Pg
SHM  11.880 1.00 Sg
# 2015 07 14 10 07 28.500000 36.970 50.164  24.1  2.4 0.0 0.0 0.0       653
GZV  12.220 1.00 Pg
MHD  25.260 1.00 Pg
QABG 23.880 1.00 Pg
QALM 13.140 1.00 Pg
QSDN 17.340 1.00 Pg
RAZ  28.500 1.00 Pg
QALM 22.960 1.00 Sg
JIR1 15.300 1.00 Sg
JIR1  8.700 1.00 Pg
# 2015 07 14 12 06 43.900000 36.993 50.661  12.0  2.5 0.0 0.0 0.0       654
GZV  14.520 1.00 Pg
JIR1 14.820 1.00 Pg
MHD  25.080 1.00 Pg
QABG 28.480 1.00 Pg
QALM 11.260 1.00 Pg
RAZ  31.800 1.00 Pg
QSDN 24.780 1.00 Pg
GZV  24.500 1.00 Sg
PRN  29.240 1.00 Pg
# 2015 07 15 12 15 17.600000 35.721 53.131   5.7  1.6 0.0 0.0 0.0       655
ANJ  13.770 1.00 Pg
FIR   6.160 1.00 Pg
LAS   7.780 1.00 Pg
SHM   3.660 1.00 Pg
VRN  26.440 1.00 Pg
QOM  35.340 1.00 Pn
DMV  18.700 1.00 Pg
# 2015 07 15 15 07 22.100000 36.577 49.929   8.0  2.7 0.0 0.0 0.0       656
GZV   6.540 1.00 Pg
JIR1  3.640 1.00 Pg
MHD  21.180 1.00 Pg
QABG 17.420 1.00 Pg
QALM 11.620 1.00 Pg
QSDN 12.460 1.00 Pg
RAZ  22.540 1.00 Pg
SRB  39.210 1.00 Pn
# 2015 07 15 15 08 36.900000 35.616 52.094  10.0  2.0 0.0 0.0 0.0       657
ANJ  29.040 1.00 Pg
FIR  10.680 1.00 Pg
LAS  14.530 1.00 Pg
VRN  13.600 1.00 Pg
# 2015 07 15 16 47 22.500000 36.920 49.224  14.6  2.3 0.0 0.0 0.0       658
CSN1 12.700 1.00 Pg
GZV  19.320 1.00 Pg
HSH  29.440 1.00 Pg
JIR1 17.440 1.00 Sg
QABG 23.120 1.00 Pg
QSDN  8.940 1.00 Pg
RAZ  29.840 1.00 Pg
SRB  28.440 1.00 Pg
# 2015 07 16 01 01 18.600000 35.539 51.461  24.7  1.6 0.0 0.0 0.0       659
HSB   5.520 1.00 Pg
VRN  11.880 1.00 Pg
SHM  27.760 1.00 Pg
SFB  24.660 1.00 Pg
QOM  15.300 1.00 Pg
QALM 21.080 1.00 Pg
MHD  13.300 1.00 Pg
KRSH 30.140 1.00 Pg
QABG 27.880 1.00 Pg
VRN  20.680 1.00 Sg
QOM  26.220 1.00 Sg
# 2015 07 16 03 28 43.400000 36.092 53.767  10.0  1.8 0.0 0.0 0.0       660
ANJ  12.600 1.00 Pg
GLO   8.500 1.00 Pg
SHM   9.890 1.00 Pg
# 2015 07 16 07 39 12.100000 35.650 51.539  18.0  1.8 0.0 0.0 0.0       661
DMV   8.740 1.00 Pg
VRN  13.380 1.00 Pg
RAZ  25.040 1.00 Pg
QOM  17.120 1.00 Pg
QABG 28.960 1.00 Pg
MHD  14.200 1.00 Pg
# 2015 07 17 03 51 13.000000 35.810 52.230   9.0  2.4 0.0 0.0 0.0       662
DMV   6.280 1.00 Pg
FIR   9.280 1.00 Pg
GLO  28.220 1.00 Pg
HSB  16.700 1.00 Pg
KLH  44.080 1.00 Pn
KRSH 33.920 1.00 Pn
LAS  14.720 1.00 Pg
PRN   8.660 1.00 Pg
QABG 37.620 1.00 Pn
QALM 28.380 1.00 Pg
QAMS 38.840 1.00 Pn
QOM  25.140 1.00 Pg
RAZ  34.980 1.00 Pn
SHM  16.510 1.00 Pg
SFB  27.560 1.00 Pg
VRN  18.080 1.00 Pg
MHD  24.380 1.00 Pg
# 2015 07 17 04 10 21.300000 35.817 52.228   8.0  2.0 0.0 0.0 0.0       663
DMV   6.420 1.00 Pg
FIR   9.480 1.00 Pg
GLO  28.020 1.00 Pg
HSB  16.780 1.00 Pg
KRSH 34.340 1.00 Pn
PRN   8.860 1.00 Pg
MHD  24.360 1.00 Pg
KLH  45.220 1.00 Pn
QOM  25.760 1.00 Pg
SFB  27.660 1.00 Pg
VRN  18.260 1.00 Pg
PRN  15.520 1.00 Sg
# 2015 07 17 04 12 53.400000 35.815 52.242  10.0  1.4 0.0 0.0 0.0       664
DMV   6.380 1.00 Pg
FIR   9.420 1.00 Pg
PRN   8.780 1.00 Pg
SFB  27.640 1.00 Pg
VRN  18.140 1.00 Pg
# 2015 07 17 16 58 34.100000 35.702 49.180   8.0  2.0 0.0 0.0 0.0       665
GZV  21.300 1.00 Pg
HAGD 17.640 1.00 Pg
HALM 22.240 1.00 Pg
MHD  23.640 1.00 Pg
QABG  6.040 1.00 Pg
QALM 27.120 1.00 Pg
QSDN 15.700 1.00 Pg
RAZ  13.600 1.00 Pg
QOM  33.900 1.00 Pg
QABG 11.260 1.00 Sg
# 2015 07 18 18 34 21.300000 35.610 53.812   4.0  2.0 0.0 0.0 0.0       666
FIR  17.280 1.00 Pg
GLO  17.680 1.00 Pg
SFB  33.720 1.00 Pg
PRN  26.600 1.00 Pg
QOM  42.520 1.00 Pn
# 2015 07 19 04 07 36.900000 35.722 52.739  10.0  1.7 0.0 0.0 0.0       667
DMV   9.600 0.00 Pg
LAS   7.740 1.00 Pg
PRN  12.040 1.00 Pg
SHM   9.440 1.00 Pg
VRN  21.420 1.00 Pg
FIR  12.560 0.00 Pg
# 2015 07 20 16 43 45.600000 35.685 49.322  10.0  1.8 0.0 0.0 0.0       668
GZV  20.020 1.00 Pg
HAGD 16.980 1.00 Pg
QABG  4.460 1.00 Pg
QALM 25.660 1.00 Pg
QSDN 15.940 1.00 Pg
RAZ  11.860 1.00 Pg
QABG  8.140 1.00 Sg
# 2015 07 20 17 46 19.200000 35.471 49.679  10.0  1.8 0.0 0.0 0.0       669
GZV  19.860 1.00 Pg
QABG  5.420 1.00 Pg
QALM 23.660 1.00 Pg
QOM  24.560 1.00 Pg
QSDN 21.760 1.00 Pg
RAZ   5.100 1.00 Pg
RAZ   8.740 1.00 Sg
# 2015 07 21 06 36 16.600000 35.631 53.204  10.0  1.0 0.0 0.0 0.0       670
ANJ  12.260 1.00 Pg
FIR   8.040 1.00 Pg
LAS   6.470 1.00 Pg
SHM   4.270 1.00 Pg
# 2015 07 21 08 47 28.900000 36.039 50.519  10.0  1.6 0.0 0.0 0.0       671
GZV   9.140 1.00 Pg
MHD   7.920 1.00 Pg
QALM  8.100 1.00 Pg
QABG 16.020 1.00 Pg
QALM 14.740 1.00 Sg
# 2015 07 21 10 32 34.200000 35.536 53.182  10.0  1.0 0.0 0.0 0.0       672
ANJ  11.730 1.00 Pg
FIR   7.180 1.00 Pg
LAS   5.600 1.00 Pg
SHM   6.470 1.00 Pg
# 2015 07 22 08 53 57.600000 34.306 50.621   8.0  1.8 0.0 0.0 0.0       673
KLH  24.340 1.00 Pg
KRSH 25.300 1.00 Pg
PIR  30.950 1.00 Pg
QAMS 16.800 1.00 Pg
SFB  25.500 1.00 Pg
ZEF  37.160 1.00 Pn
QAMS 29.480 1.00 Sg
# 2015 07 22 11 34 00.500000 34.156 49.502  10.0  1.9 0.0 0.0 0.0       674
BMDN 14.540 1.00 Pg
HAGD 14.280 1.00 Pg
HALM 25.140 1.00 Pg
HSAM 14.960 1.00 Pg
RAZ  25.020 1.00 Pg
# 2015 07 22 13 21 45.800000 34.423 50.757  10.0  1.8 0.0 0.0 0.0       675
KLH  25.010 1.00 Pg
KRSH 24.020 1.00 Pg
QAMS 17.080 1.00 Pg
QOM  10.060 1.00 Pg
RAZ  22.940 1.00 Pg
SFB  23.060 1.00 Pg
VRN  19.120 1.00 Pg
# 2015 07 22 16 27 09.500000 36.222 53.795   8.0  2.3 0.0 0.0 0.0       676
ANJ  15.210 1.00 Pg
FIR  19.020 1.00 Pg
GLO   6.140 1.00 Pg
LAS  19.300 0.50 Pg
PRN  22.800 1.00 Pg
QALM 44.560 1.00 Pn
SFB  39.760 1.00 Pn
SHM  11.500 1.00 Pg
VRN  37.720 1.00 Pn
SHM  21.380 1.00 Sg
