# 2015 04 09 06 07 49.400000 35.884 52.141   8.1  2.4 0.0 0.0 0.0       359
PRN   8.100 1.00 Pg
MHD  23.960 1.00 Pg
QOM  25.240 1.00 Pg
RAZ  34.760 1.00 Pn
SFB  28.600 1.00 Pg
VRN  18.820 1.00 Pg
QAM  39.080 1.00 Pn
QALM 25.780 1.00 Pg
QABG 36.460 1.00 Pn
LAS  16.190 1.00 Pg
KRSH 35.080 1.00 Pn
KLH  45.170 1.00 Pn
GLO  28.300 1.00 Pg
ANJ  28.490 1.00 Pg
SHM  18.820 1.00 Pg
PRN  14.240 1.00 Sg
# 2015 04 09 07 28 43.500000 35.577 51.484  10.0  1.9 0.0 0.0 0.0       360
ANJ  35.910 1.00 Pn
KRSH 30.940 1.00 Pg
QABG 27.180 0.50 Pg
QOM  16.240 1.00 Pg
RAZ  24.160 1.00 Pg
SFB  25.800 1.00 Pg
VRN  12.440 1.00 Pg
LAS  23.630 1.00 Pg
MHD  13.820 1.00 Pg
HSB   4.720 1.00 Pg
QOM  27.960 1.00 Sg
# 2015 04 09 09 50 58.500000 35.187 52.205  10.0  1.3 0.0 0.0 0.0       361
LAS  12.880 1.00 Pg
SFB  16.120 1.00 Pg
VRN   8.340 1.00 Pg
VRN  15.600 1.00 Sg
# 2015 04 09 10 48 22.400000 34.303 50.583   9.1  1.6 0.0 0.0 0.0       362
ZEF  36.820 1.00 Pn
VRN  22.760 1.00 Pg
SFB  25.980 1.00 Pg
RAZ  23.640 1.00 Pg
QOM  13.940 1.00 Pg
QAM  17.340 1.00 Pg
PIR  31.550 1.00 Pg
MHD  25.820 1.00 Pg
KRSH 25.340 1.00 Pg
KLH  24.500 1.00 Pg
QOM  23.020 1.00 Sg
# 2015 04 10 00 10 29.900000 35.511 51.865   9.9  2.3 0.0 0.0 0.0       363
ANJ  32.310 1.00 Pg
HSB  10.320 1.00 Pg
KLH  39.180 1.00 Pn
KRSH 28.720 1.00 Pg
LAS  19.410 0.00 Pg
MHD  18.840 1.00 Pg
PRN  15.840 1.00 Pg
QAM  32.600 1.00 Pg
RAZ  29.400 1.00 Pg
SFB  23.180 1.00 Pg
HSB  17.320 1.00 Sg
# 2015 04 10 01 20 07.600000 35.724 49.951   5.0  1.8 0.0 0.0 0.0       364
KLH  48.120 1.00 Pn
KRSH 44.460 1.00 Pn
QABG  6.480 1.00 Pg
QALM 18.100 1.00 Pg
QAM  41.280 1.00 Pn
RAZ   6.760 1.00 Pg
RAZ  11.160 1.00 Sg
# 2015 04 11 16 06 53.100000 35.854 53.119   8.0  2.4 0.0 0.0 0.0       365
ANJ  14.680 1.00 Pg
GLO  16.460 1.00 Pg
KRSH 37.780 1.00 Pn
LAS  10.100 1.00 Pg
SFB  31.440 1.00 Pg
SHM   3.110 1.00 Pg
SFB  55.520 1.00 Sg
# 2015 04 11 16 08 26.100000 36.361 51.044  10.0  2.9 0.0 0.0 0.0       366
GLO  38.960 1.00 Pn
LAS  34.490 1.00 Pn
PRN  20.260 1.00 Pg
QABG 25.340 1.00 Pg
QALM  6.760 1.00 Pg
GZV  14.060 1.00 Pg
# 2015 04 12 17 36 22.600000 37.633 53.833   8.0  3.0 0.0 0.0 0.0       367
ANJ  38.520 1.00 Pn
LAS  42.240 1.00 Pn
PRN  34.320 1.00 Pn
SFR  55.390 1.00 Pn
GLO  23.220 1.00 Pg
MND  24.660 1.00 Pg
GLO  37.880 1.00 Sg
# 2015 04 12 18 24 16.600000 36.672 53.583  10.0  2.1 0.0 0.0 0.0       368
ANJ  23.880 1.00 Pg
GLO   5.540 1.00 Pg
LAS  26.470 1.00 Pg
PRN  21.140 1.00 Pg
MND  29.620 1.00 Pg
GLO  10.040 1.00 Sg
# 2015 04 14 09 53 08.700000 36.562 49.547   5.4  2.7 0.0 0.0 0.0       369
GZV  12.200 1.00 Pg
MHD  26.180 1.00 Pg
PRN  40.740 1.00 Pn
QABG 17.080 1.00 Pg
RAZ  25.200 1.00 Pg
MHD  45.560 1.00 Sg
RAZ  44.100 1.00 Sg
# 2015 04 14 21 14 50.900000 35.859 53.062   8.0  2.3 0.0 0.0 0.0       370
ANJ  15.080 1.00 Pg
GLO  17.520 1.00 Pg
HSB  29.100 1.00 Pg
LAS  10.050 1.00 Pg
PRN  13.660 1.00 Pg
QAM  43.540 1.00 Pn
SHM   4.070 1.00 Pg
SFB  31.100 1.00 Pg
GLO  30.860 1.00 Sg
# 2015 04 15 13 06 58.400000 36.332 50.383  10.0  1.9 0.0 0.0 0.0       371
GZV   3.820 1.00 Pg
MHD  14.020 1.00 Pg
QABG 15.360 0.50 Pg
QALM  4.980 1.00 Pg
RAZ  19.160 1.00 Pg
QALM  9.380 1.00 Sg
GZV   6.720 1.00 Sg
# 2015 04 15 23 30 23.500000 37.330 50.961  17.7  2.8 0.0 0.0 0.0       372
GZV  21.500 1.00 Pg
MHD  30.980 1.00 Pg
PRN  29.060 1.00 Pg
QALM 17.720 1.00 Pg
RAZ  36.240 1.00 Pn
SRB  44.060 1.00 Pn
# 2015 04 16 11 23 01.600000 35.321 50.099  20.5  1.8 0.0 0.0 0.0       373
MHD  11.780 1.00 Pg
QABG 10.840 1.00 Pg
QOM  17.720 1.00 Pg
RAZ   5.460 1.00 Pg
QOM  29.820 1.00 Sg
VRN  26.420 1.00 Pg
# 2015 04 16 17 10 17.900000 35.710 49.974   8.0  3.2 0.0 0.0 0.0       374
GZV  15.120 1.00 Pg
HAGD 22.080 1.00 Pg
HSAM 35.260 0.00 Pn
MHD  11.160 1.00 Pg
PRN  36.880 0.00 Pn
QABG  6.480 1.00 Pg
QALM 17.440 1.00 Pg
QAM  40.380 1.00 Pn
SFB  41.000 1.00 Pn
SHM  46.790 0.00 Pn
SRB  46.990 1.00 Pn
ZEF  58.230 0.00 Pn
TPRV 93.880 0.00 Pn
TKDS 95.780 0.00 Pn
TEH  23.960 0.00 Pg
RAZ   6.460 1.00 Pg
RAZ  11.260 1.00 Sg
QABG 11.460 1.00 Sg
LAS  44.080 0.00 Pn
KRSH 43.420 1.00 Pn
KLH  47.960 0.00 Pn
KFM  46.240 0.00 Pn
KCHF 49.140 0.00 Pn
HSB  20.820 0.00 Pg
HALM 33.000 1.00 Pg
DAMV 30.140 0.00 Pg
KHMZ 35.790 1.00 Pn
ASAO 22.660 1.00 Pg
ZNJK 27.860 1.00 Pg
THKV 14.390 1.00 Pg
CHTH 18.050 0.00 Pg
# 2015 04 16 22 06 44.100000 36.607 49.727  10.0  2.1 0.0 0.0 0.0       375
RAZ  23.260 1.00 Pg
SRB  36.380 1.00 Pn
QALM 13.780 0.50 Pg
QABG 15.840 0.50 Pg
HRS  46.330 1.00 Pn
GZV   9.560 1.00 Pg
GZV  15.940 1.00 Sg
MHD  23.480 1.00 Pg
# 2015 04 18 05 16 21.000000 36.261 52.354  10.0  2.0 0.0 0.0 0.0       376
GLO  23.440 1.00 Pg
LAS  19.770 1.00 Pg
PRN   2.580 1.00 Pg
VRN  25.940 1.00 Pg
SHM  16.750 1.00 Pg
SHM  30.660 1.00 Sg
# 2015 04 18 05 51 37.500000 35.568 53.346  10.0  1.1 0.0 0.0 0.0       377
LAS   7.510 1.00 Pg
SHM   5.390 1.00 Pg
SFB  28.500 1.00 Pg
ANJ   9.860 1.00 Pg
LAS  13.750 1.00 Sg
# 2015 04 18 18 28 58.400000 35.680 49.499  12.0  1.8 0.0 0.0 0.0       378
RAZ   9.060 1.00 Pg
QOM  28.400 1.00 Pg
QALM 22.100 1.00 Pg
QABG  0.300 0.00 Pg
MHD  18.840 1.00 Pg
HSB  27.980 1.00 Pg
GZV  18.240 1.00 Pg
HAGD 17.680 1.00 Pg
HALM 25.860 1.00 Pg
RAZ  15.580 1.00 Sg
# 2015 04 18 23 41 01.200000 36.823 49.327  10.0  2.5 0.0 0.0 0.0       379
GZV  16.840 1.00 Pg
HAGD 36.000 1.00 Pn
HRS  40.830 1.00 Pn
MHD  30.160 1.00 Pg
QABG 20.060 0.50 Pg
QALM 20.780 0.50 Pg
RAZ  28.560 1.00 Pg
SRB  30.660 1.00 Pg
GZV  28.480 1.00 Sg
# 2015 04 19 02 30 00.200000 37.452 49.088  10.0  2.9 0.0 0.0 0.0       380
GZV  27.840 1.00 Pg
HAGD 44.960 1.00 Pn
HRS  34.140 1.00 Pn
MHD  40.740 0.00 Pn
QABG 31.580 0.50 Pg
QALM 30.480 1.00 Pg
RAZ  39.300 0.50 Pn
SRB  22.490 1.00 Pg
GZV  46.900 1.00 Sg
# 2015 04 20 04 25 53.900000 35.549 53.205  12.0  1.4 0.0 0.0 0.0       381
ANJ  11.610 1.00 Pg
SHM   5.780 1.00 Pg
SFB  26.940 1.00 Pg
LAS   5.820 1.00 Pg
LAS   9.860 1.00 Sg
# 2015 04 21 08 38 16.600000 35.987 51.907  12.0  2.1 0.0 0.0 0.0       382
RAZ  32.100 1.00 Pg
SFB  31.260 1.00 Pg
TEH  10.180 1.00 Pg
VRN  19.260 1.00 Pg
PRN   9.040 1.00 Pg
# 2015 04 21 12 36 17.300000 35.621 51.578  14.1  1.5 0.0 0.0 0.0       383
VRN  12.760 1.00 Pg
SFB  25.160 1.00 Pg
QOM  17.560 1.00 Pg
KRSH 31.120 1.00 Pg
TEH   4.620 1.00 Pg
SHM  26.870 1.00 Pg
# 2015 04 22 08 28 43.100000 35.540 53.217   8.2  1.5 0.0 0.0 0.0       384
LAS   5.690 1.00 Pg
ANJ  11.490 1.00 Pg
SHM   5.900 1.00 Pg
SFB  27.460 1.00 Pg
# 2015 04 23 00 16 51.700000 35.693 49.982   8.0  3.3 0.0 0.0 0.0       385
DHR  53.900 0.00 Pn
GZV  14.500 1.00 Pg
HAGD 21.460 1.00 Pg
HALM 32.560 1.00 Pg
HSAM 34.600 1.00 Pn
HSB  20.260 1.00 Pg
KCHF 49.240 0.00 Pn
KER  48.300 0.00 Pn
KLH  46.900 0.00 Pn
KLNJ 76.740 0.00 Pn
KRSH 43.160 1.00 Pn
LAS  43.500 0.00 Pn
MHD  10.680 1.00 Pg
PIR  53.820 0.00 Pn
PRN  37.080 0.00 Pn
QABG  5.800 1.00 Pg
QALM 16.520 1.00 Pg
QAM  40.060 1.00 Pn
QCNT 12.420 1.00 Pg
RAM  70.740 0.00 Pn
RAZ   6.280 1.00 Pg
SFB  39.780 1.00 Pn
SHK1 56.160 0.00 Pn
SHM  45.900 0.00 Pn
SRB  48.800 0.00 Pn
TEH  21.960 1.00 Pg
ZEF  57.460 0.00 Pn
QABG 11.300 1.00 Sg
KHMZ 35.320 1.00 Pn
DAMV 29.950 0.00 Pg
ZNJK 27.230 1.00 Pg
ASAO 21.870 1.00 Pg
THKV 14.760 1.00 Pg
CHTH 18.270 0.00 Pg
# 2015 04 23 03 52 50.500000 36.872 50.465  10.0  2.2 0.0 0.0 0.0       386
QALM  9.340 1.00 Pg
MHD  23.240 1.00 Pg
GZV  10.580 1.00 Pg
MHD  40.600 1.00 Sg
# 2015 04 23 05 32 41.900000 35.326 52.274   8.0  2.1 0.0 0.0 0.0       387
ANJ  25.750 1.00 Pg
KLH  37.890 1.00 Pn
KRSH 25.660 1.00 Pg
LAS  11.460 1.00 Pg
QOM  20.680 1.00 Pg
SFB  18.980 1.00 Pg
VRN  11.700 1.00 Pg
# 2015 04 23 05 35 14.800000 35.338 52.301  14.7  1.9 0.0 0.0 0.0       388
KRSH 25.740 1.00 Pg
VRN  11.540 1.00 Pg
SFB  18.920 1.00 Pg
KLH  36.710 1.00 Pn
VRN  20.260 1.00 Sg
# 2015 04 24 03 23 59.200000 35.664 49.770   8.0  2.3 0.0 0.0 0.0       389
GZV  16.440 1.00 Pg
HAGD 18.960 1.00 Pg
HSB  23.880 1.00 Pg
KLH  48.830 0.50 Pn
KRSH 46.000 0.50 Pn
MHD  14.660 1.00 Pg
QABG  3.600 1.00 Pg
QALM 19.480 1.00 Pg
RAZ   6.560 1.00 Pg
SFB  42.120 1.00 Pn
RAZ  10.440 1.00 Sg
HSAM 33.440 1.00 Pg
# 2015 04 25 05 00 40.300000 35.689 49.938  10.0  1.8 0.0 0.0 0.0       390
GZV  14.540 1.00 Pg
QABG  5.760 1.00 Pg
QABG 11.180 1.00 Sg
RAZ   6.160 1.00 Pg
# 2015 04 25 23 12 09.400000 34.176 49.884  16.0  2.0 0.0 0.0 0.0       391
HAGD 16.780 1.00 Pg
HALM 28.900 1.00 Pg
HSAM 20.320 1.00 Pg
QAM  26.120 1.00 Pg
RAZ  23.300 1.00 Pg
QAM  43.920 1.00 Sg
# 2015 04 26 06 59 03.900000 35.762 53.515  12.7  2.5 0.0 0.0 0.0       392
ANJ  10.010 1.00 Pg
GLO  14.840 1.00 Pg
VRN  30.260 1.00 Pg
SFB  32.240 1.00 Pg
PRN  20.100 1.00 Pg
LAS  12.650 1.00 Pg
ANJ  15.330 1.00 Sg
KRSH 36.400 1.00 Pn
QALM 41.940 1.00 Pn
# 2015 04 26 11 38 47.500000 36.079 50.489  10.0  1.6 0.0 0.0 0.0       393
MHD   8.240 1.00 Pg
QABG 15.500 1.00 Pg
QALM  7.460 1.00 Pg
RAZ  16.920 1.00 Pg
QALM 14.000 1.00 Sg
# 2015 04 27 01 31 26.800000 35.946 53.325  10.7  1.5 0.0 0.0 0.0       394
ANJ  13.780 1.00 Pg
GLO  13.840 1.00 Pg
LAS  12.990 1.00 Pg
PRN  16.240 1.00 Pg
SHM   3.840 1.00 Pg
SFB  33.380 1.00 Pn
ANJ  23.140 1.00 Sg
# 2015 04 27 12 08 18.900000 35.500 50.245  10.0  1.8 0.0 0.0 0.0       395
QABG 11.160 1.00 Pg
QABG 20.820 1.00 Sg
QOM  18.420 1.00 Pg
RAZ   5.880 1.00 Pg
# 2015 04 27 12 55 53.100000 36.041 52.106   8.0  2.4 0.0 0.0 0.0       396
GLO  28.320 1.00 Pg
LAS  18.540 1.00 Pg
PRN   5.600 1.00 Pg
PRN  10.260 1.00 Sg
VRN  21.060 1.00 Pg
# 2015 04 27 13 53 29.000000 35.195 50.361  28.0  2.0 0.0 0.0 0.0       397
MHD  12.400 1.00 Pg
MHD  20.260 1.00 Sg
QABG 15.640 1.00 Pg
QABG 27.760 1.00 Sg
QOM  14.160 1.00 Pg
QOM  23.220 1.00 Sg
RAZ  10.360 1.00 Pg
RAZ  16.960 1.00 Sg
# 2015 04 28 01 36 40.400000 34.225 51.198  10.0  2.3 0.0 0.0 0.0       398
KLH  18.840 1.00 Pg
KLH  33.120 1.00 Sg
PIR  29.660 1.00 Pg
SFB  17.000 1.00 Pg
ZEF  31.240 1.00 Pg
ZEF  54.580 1.00 Sg
# 2015 04 28 10 21 49.200000 35.221 52.322  10.0  2.0 0.0 0.0 0.0       399
ANJ  24.950 1.00 Pg
KRSH 24.480 1.00 Pg
LAS  10.900 1.00 Pg
QOM  21.040 1.00 Pg
SHM  19.570 1.00 Pg
# 2015 04 28 10 31 15.900000 35.488 49.162  10.0  1.3 0.0 0.0 0.0       400
QABG  8.360 1.00 Pg
RAZ  12.740 1.00 Pg
HSAM 26.320 1.00 Pg
HAGD 12.980 1.00 Pg
# 2015 04 28 10 49 31.600000 35.522 49.110  10.0  1.5 0.0 0.0 0.0       401
HAGD 13.580 1.00 Pg
QABG  8.940 1.00 Pg
RAZ  13.760 1.00 Pg
QABG 15.080 1.00 Sg
# 2015 04 28 10 50 27.400000 35.630 53.371  10.0  2.0 0.0 0.0 0.0       402
ANJ   9.340 1.00 Pg
GLO  19.000 1.00 Pg
LAS   8.770 1.00 Pg
SHM   3.950 1.00 Pg
# 2015 04 28 15 31 10.000000 35.883 52.999   9.1  2.0 0.0 0.0 0.0       403
ANJ  16.880 1.00 Pg
GLO  17.200 1.00 Pg
KRSH 36.820 1.00 Pn
LAS   9.470 1.00 Pg
PRN  12.620 1.00 Pg
SFB  30.440 1.00 Pg
SHM   5.620 1.00 Pg
VRN  26.040 1.00 Pg
# 2015 04 28 17 46 20.300000 34.959 53.829  10.0  1.8 0.0 0.0 0.0       404
ANJ   9.640 1.00 Pg
GLO  30.200 1.00 Pg
KRSH 32.520 1.00 Pg
SFB  28.320 1.00 Pg
SFB  48.360 1.00 Sg
# 2015 04 29 03 08 01.200000 34.771 52.888  14.9  2.4 0.0 0.0 0.0       405
ZEF  33.790 1.00 Pn
SHM  20.220 1.00 Pg
SFB  13.560 1.00 Pg
RAZ  42.700 1.00 Pn
QAM  28.500 1.00 Pg
LAS  11.870 1.00 Pg
KRSH 19.900 1.00 Pg
ANJ  21.370 1.00 Pg
SFB  23.360 1.00 Sg
# 2015 04 29 04 54 55.400000 35.856 53.102  12.0  1.8 0.0 0.0 0.0       406
ANJ  14.970 1.00 Pg
GLO  17.440 1.00 Pg
LAS  10.700 1.00 Pg
SHM   3.900 1.00 Pg
VRN  26.300 1.00 Pg
# 2015 04 29 07 31 15.100000 35.457 49.022  10.0  1.7 0.0 0.0 0.0       407
RAZ  14.640 1.00 Pg
QABG 10.520 1.00 Pg
HAGD 12.720 1.00 Pg
# 2015 04 29 07 59 48.400000 36.790 50.829  12.0  2.2 0.0 0.0 0.0       408
RAZ  29.960 1.00 Pg
QALM  8.000 1.00 Pg
GZV  13.360 1.00 Pg
QABG 26.640 1.00 Pg
PRN  25.660 1.00 Pg
# 2015 04 29 10 27 00.700000 37.099 49.849  10.0  2.8 0.0 0.0 0.0       409
GZV  15.860 1.00 Pg
MHD  29.180 1.00 Pg
RAZ  32.400 1.00 Pg
RAZ  56.940 1.00 Sg
QABG 26.900 1.00 Pg
# 2015 04 30 03 13 25.200000 35.257 52.725  10.0  2.0 0.0 0.0 0.0       410
ANJ  19.720 1.00 Pg
GLO  30.000 1.00 Pg
LAS   4.500 1.00 Pg
SHM  13.810 1.00 Pg
SHM  24.930 1.00 Sg
# 2015 04 30 03 41 38.800000 35.344 52.916   2.6  1.5 0.0 0.0 0.0       411
ANJ  17.080 1.00 Pg
LAS   0.940 1.00 Pg
LAS   2.480 1.00 Sg
SFB  23.560 1.00 Pg
SHM  11.510 1.00 Pg
# 2015 04 30 09 43 17.800000 34.712 50.421  12.0  2.2 0.0 0.0 0.0       412
HAGD 20.580 1.00 Pg
GZV  31.620 1.00 Pg
HSAM 29.760 1.00 Pg
HSB  19.620 1.00 Pg
KLH  31.360 1.00 Pg
KRSH 29.760 1.00 Pg
MHD  19.020 1.00 Pg
QALM 31.700 1.00 Pg
QAM  24.360 1.00 Pg
QOM  11.380 1.00 Pg
RAZ  16.220 1.00 Pg
SFB  28.980 1.00 Pg
VRN  21.540 1.00 Pg
QOM  19.700 1.00 Sg
# 2015 04 30 18 37 57.300000 35.048 52.740   8.9  2.4 0.0 0.0 0.0       413
ANJ  19.460 1.00 Pg
GLO  32.800 1.00 Pg
HSB  23.420 1.00 Pg
KLH  36.000 1.00 Pn
KRSH 22.920 1.00 Pg
LAS   8.350 1.00 Pg
PRN  24.200 1.00 Pg
SFB  16.320 1.00 Pg
SHM  16.900 1.00 Pg
VRN  16.240 1.00 Pg
LAS  13.970 1.00 Sg
# 2015 05 01 16 47 03.800000 35.404 53.194   9.2  1.3 0.0 0.0 0.0       414
ANJ  11.840 1.00 Pg
LAS   4.380 1.00 Pg
SHM   8.190 1.00 Pg
VRN  24.380 1.00 Pg
SHM  15.080 1.00 Sg
SFB  25.340 1.00 Pg
# 2015 05 01 20 09 58.700000 35.683 49.620  10.0  1.9 0.0 0.0 0.0       415
HAGD 18.780 1.00 Pg
MHD  17.160 1.00 Pg
QABG  2.060 1.00 Pg
RAZ   7.120 1.00 Pg
# 2015 05 02 16 29 27.900000 35.795 49.026  10.0  1.5 0.0 0.0 0.0       416
HAGD 18.780 1.00 Pg
QABG  8.780 1.00 Pg
RAZ  17.420 1.00 Pg
RAZ  28.580 1.00 Sg
# 2015 05 03 06 21 11.600000 35.518 53.280  10.0  1.6 0.0 0.0 0.0       417
LAS   6.540 1.00 Pg
SHM   6.020 1.00 Pg
SFB  28.000 1.00 Pg
SFB  48.180 1.00 Sg
# 2015 05 03 18 39 38.900000 35.619 53.823  15.6  2.4 0.0 0.0 0.0       418
ANJ   4.480 1.00 Pg
GLO  17.220 1.00 Pg
LAS  14.880 1.00 Pg
KRSH 37.600 1.00 Pn
SFB  32.120 1.00 Pn
SHM   9.560 1.00 Pg
VRN  32.520 1.00 Pn
# 2015 05 03 22 18 53.300000 35.540 51.567   7.1  2.5 0.0 0.0 0.0       419
ANJ  35.310 1.00 Pn
GZV  26.880 1.00 Pg
HSB   6.480 1.00 Pg
HAGD 38.620 1.00 Pn
KLH  39.560 1.00 Pn
KRSH 30.240 1.00 Pg
LAS  22.640 1.00 Pg
MHD  14.820 1.00 Pg
PRN  17.820 1.00 Pg
QALM 21.420 0.50 Pg
QAM  32.640 1.00 Pg
RAZ  25.120 1.00 Pg
SFB  24.780 1.00 Pg
SHM  27.510 1.00 Pg
TEH   5.820 1.00 Pg
MHD  25.260 1.00 Sg
# 2015 05 03 22 25 42.300000 36.396 52.218   5.3  1.8 0.0 0.0 0.0       420
ANJ  32.640 1.00 Pg
GLO  25.940 1.00 Pg
GZV  32.520 1.00 Pg
PRN   3.960 1.00 Pg
QALM 24.660 1.00 Pg
QABG 40.440 1.00 Pn
SFB  37.400 1.00 Pn
SHM  21.050 1.00 Pg
PRN   6.920 1.00 Sg
# 2015 05 04 05 58 09.900000 35.657 49.683  10.0  2.0 0.0 0.0 0.0       421
HAGD 18.640 1.00 Pg
QABG  2.860 1.00 Pg
MHD  15.980 1.00 Pg
RAZ   6.520 1.00 Pg
# 2015 05 04 09 16 54.500000 35.373 49.165  10.0  1.6 0.0 0.0 0.0       422
HAGD 10.460 1.00 Pg
QABG  9.160 1.00 Pg
RAZ  13.000 1.00 Pg
RAZ  21.960 1.00 Sg
HALM 19.240 1.00 Pg
# 2015 05 04 14 39 57.700000 35.358 50.189   8.0  1.8 0.0 0.0 0.0       423
MHD  10.320 1.00 Pg
KRSH 38.360 1.00 Pn
SFB  36.260 1.00 Pn
RAZ   4.600 1.00 Pg
QOM  17.040 1.00 Pg
QALM 21.300 1.00 Pg
QOM  28.940 1.00 Sg
# 2015 05 04 18 17 03.500000 35.967 50.808   9.1  1.7 0.0 0.0 0.0       424
GZV  13.340 1.00 Pg
HSB  13.120 1.00 Pg
MHD   6.600 1.00 Pg
QABG 17.460 0.00 Pg
QALM  9.860 1.00 Pg
QOM  21.740 1.00 Pg
RAZ  17.320 1.00 Pg
VRN  23.540 1.00 Pg
QALM 16.720 1.00 Sg
# 2015 05 05 12 07 26.100000 35.886 52.858  10.0  2.0 0.0 0.0 0.0       425
SHM   7.460 1.00 Pg
SFB  30.740 1.00 Pg
PRN  11.000 1.00 Pg
LAS  10.300 1.00 Pg
# 2015 05 05 12 10 21.200000 35.993 52.431   8.0  2.8 0.0 0.0 0.0       426
ANJ  24.960 1.00 Pg
KRSH 36.980 1.00 Pn
LAS  14.710 1.00 Pg
PRN   5.520 1.00 Pg
QOM  29.500 1.00 Pg
SFB  31.000 1.00 Pg
SHM  13.950 1.00 Pg
VRN  22.100 1.00 Pg
# 2015 05 05 13 44 13.100000 35.999 53.787   8.0  2.2 0.0 0.0 0.0       427
ANJ  10.750 1.00 Pg
GLO  10.140 1.00 Pg
LAS  17.750 1.00 Pg
KRSH 42.160 1.00 Pn
SFB  36.980 1.00 Pn
SHM   9.080 1.00 Pg
VRN  36.780 1.00 Pn
ANJ  19.210 1.00 Sg
# 2015 05 05 13 52 24.500000 35.561 53.711   6.0  1.7 0.0 0.0 0.0       428
ANJ   4.250 1.00 Pg
LAS  13.170 1.00 Pg
SFB  32.120 1.00 Pg
SHM   9.070 1.00 Pg
# 2015 05 05 17 13 52.700000 36.173 53.293   3.5  1.6 0.0 0.0 0.0       429
GLO  11.320 1.00 Pg
LAS  17.210 1.00 Pg
PRN  16.060 1.00 Pg
SHM   7.600 1.00 Pg
SFB  37.180 1.00 Pn
VRN  32.720 1.00 Pg
SHM  13.560 1.00 Sg
# 2015 05 05 18 51 43.400000 35.087 52.415  10.0  1.4 0.0 0.0 0.0       430
KRSH 21.580 1.00 Pg
LAS  10.810 1.00 Pg
SFB  15.100 1.00 Pg
SHM  19.310 1.00 Pg
VRN  12.020 1.00 Pg
QOM  21.460 1.00 Pg
LAS  19.040 1.00 Sg
# 2015 05 06 05 38 44.300000 34.753 50.412  14.3  2.5 0.0 0.0 0.0       431
SFB  28.760 1.00 Pg
RAZ  15.140 1.00 Pg
QOM  11.140 1.00 Pg
QAM  24.880 1.00 Pg
QALM 30.640 1.00 Pg
QABG 20.700 1.00 Pg
MHD  18.800 1.00 Pg
KRSH 29.960 1.00 Pg
KLH  31.980 1.00 Pg
HSB  19.600 1.00 Pg
HAGD 20.180 1.00 Pg
SFB  50.100 1.00 Sg
# 2015 05 06 13 41 44.500000 34.816 53.262  15.5  3.1 0.0 0.0 0.0       432
ZEF  35.900 1.00 Pn
VRN  23.860 1.00 Pg
TPRV 53.600 1.00 Pn
TNSJ 48.380 1.00 Pn
TKDS 54.740 1.00 Pn
SHM  19.180 1.00 Pg
SFB  19.100 1.00 Pg
SFB  32.420 1.00 Sg
QOM  32.020 1.00 Pn
QAM  32.440 0.00 Pn
QABG 51.860 0.00 Pn
PRN  29.460 0.00 Pg
LAS  12.380 1.00 Pg
KRSH 24.200 1.00 Pg
KLH  35.440 1.00 Pn
ANJ  16.010 1.00 Pg
ANAR 30.600 1.00 Pg
THKV 38.470 0.00 Pn
NASN 35.600 1.00 Pn
DAMV 24.820 1.00 Pg
GHVR 30.780 1.00 Pg
# 2015 05 07 15 54 35.300000 36.346 52.543  10.0  2.1 0.0 0.0 0.0       433
GLO  20.480 1.00 Pg
LAS  19.610 1.00 Pg
PRN   4.160 1.00 Pg
PRN   8.140 1.00 Sg
SHM  16.130 1.00 Pg
# 2015 05 08 03 34 23.300000 36.192 53.297  10.0  2.8 0.0 0.0 0.0       434
ANJ  16.650 1.00 Pg
GLO  10.140 1.00 Pg
GLO  19.400 1.00 Sg
LAS  17.000 1.00 Pg
LAS  29.390 1.00 Sg
PRN  15.160 1.00 Pg
SHM   8.560 1.00 Pg
# 2015 05 09 05 37 27.000000 35.571 53.194  12.0  1.0 0.0 0.0 0.0       435
ANJ  12.050 1.00 Pg
LAS   6.300 1.00 Pg
SHM   6.030 1.00 Pg
SFB  27.140 1.00 Pg
LAS  10.960 1.00 Sg
# 2015 05 09 19 57 38.800000 34.527 51.001  10.0  1.5 0.0 0.0 0.0       436
KLH  24.800 1.00 Pg
KRSH 21.160 1.00 Pg
PIR  34.530 1.00 Pn
QAM  16.380 1.00 Pg
QOM   6.160 1.00 Pg
SFB  20.160 1.00 Pg
VRN  15.320 1.00 Pg
QOM  11.900 1.00 Sg
# 2015 05 10 00 39 12.800000 34.729 52.778  14.0  1.5 0.0 0.0 0.0       437
ANJ  22.580 1.00 Pg
KRSH 17.680 1.00 Pg
LAS  13.310 1.00 Pg
SFB  11.460 1.00 Pg
SHM  21.550 1.00 Pg
SFB  20.080 1.00 Sg
# 2015 05 10 05 20 54.700000 35.676 49.158  10.0  2.9 0.0 0.0 0.0       438
SRB  43.450 1.00 Pn
QOM  34.300 1.00 Pg
QALM 26.540 1.00 Pg
QABG  6.520 1.00 Pg
MHD  24.640 1.00 Pg
HSAM 29.200 1.00 Pg
HRS  51.630 1.00 Pn
HALM 21.940 1.00 Pg
HAGD 17.100 1.00 Pg
GZV  21.820 1.00 Pg
BZA  29.980 1.00 Pg
GZV  38.160 1.00 Sg
HAGD 29.780 1.00 Sg
QABG 12.420 1.00 Sg
# 2015 05 10 09 37 18.600000 35.406 52.750  10.0  1.6 0.0 0.0 0.0       439
ANJ  18.460 1.00 Pg
LAS   4.200 1.00 Pg
SHM  11.900 1.00 Pg
VRN  18.120 1.00 Pg
