# 2015 02 07 14 50 48.500000 34.859 52.836  16.0  1.8 0.0 0.0 0.0       184
FIR  14.880 1.00 Pg
ANJ  20.200 1.00 Pg
LAS  11.170 1.00 Pg
SHM  18.880 1.00 Pg
VRN  17.500 1.00 Pg
SHM  33.890 1.00 Sg
# 2015 02 07 14 56 07.300000 36.484 52.141  18.9  1.9 0.0 0.0 0.0       185
FIR  18.920 1.00 Pg
PRN   6.960 1.00 Pg
QALM 22.820 1.00 Pg
SHM  21.670 1.00 Pg
PRN  11.380 1.00 Sg
# 2015 02 07 20 37 18.600000 34.188 49.842  12.0  2.2 0.0 0.0 0.0       186
VRN  32.420 1.00 Pg
QOM  23.120 1.00 Pg
QAM  26.200 1.00 Pg
KLH  31.210 1.00 Pg
HAGD 16.800 1.00 Pg
HAGD 28.820 1.00 Sg
# 2015 02 08 07 52 04.600000 35.536 53.232  10.0  1.2 0.0 0.0 0.0       187
SHM   6.360 1.00 Pg
LAS   6.300 1.00 Pg
FIR   7.780 1.00 Pg
ANJ  10.990 1.00 Pg
# 2015 02 08 07 53 03.800000 35.538 53.202  10.0  1.2 0.0 0.0 0.0       188
ANJ  11.570 1.00 Pg
FIR   7.560 1.00 Pg
SHM   6.300 1.00 Pg
LAS   5.200 1.00 Pg
LAS  10.000 1.00 Sg
# 2015 02 08 09 57 23.900000 35.588 53.116  10.0  1.3 0.0 0.0 0.0       189
FIR   6.100 1.00 Pg
ANJ  12.790 1.00 Pg
SHM   6.100 1.00 Pg
LAS   5.150 1.00 Pg
LAS   9.690 1.00 Sg
# 2015 02 08 10 11 26.300000 35.591 53.100  10.0  1.5 0.0 0.0 0.0       190
FIR   6.100 1.00 Pg
ANJ  13.290 1.00 Pg
SHM   5.830 1.00 Pg
LAS   5.330 1.00 Pg
# 2015 02 08 10 21 05.300000 35.378 49.168  10.0  1.8 0.0 0.0 0.0       191
RAZ  12.620 1.00 Pg
QABG  9.500 1.00 Pg
HAGD 11.060 1.00 Pg
RAZ  21.680 1.00 Sg
# 2015 02 08 11 50 32.200000 35.552 53.178  10.0  1.5 0.0 0.0 0.0       192
ANJ  12.060 1.00 Pg
FIR   7.420 1.00 Pg
LAS   5.580 1.00 Pg
SHM   6.040 1.00 Pg
# 2015 02 08 11 57 45.800000 35.548 53.186  10.0  1.5 0.0 0.0 0.0       193
ANJ  11.870 1.00 Pg
FIR   7.420 1.00 Pg
LAS   5.670 1.00 Pg
SHM   6.130 1.00 Pg
# 2015 02 09 23 50 23.400000 34.177 51.833  13.4  1.5 0.0 0.0 0.0       194
KLH  17.190 1.00 Pg
KRSH  6.980 1.00 Pg
QAM  10.620 1.00 Pg
ZEF  25.430 1.00 Pg
KLH  29.990 1.00 Sg
# 2015 02 10 02 55 47.400000 36.301 53.857  10.0  2.0 0.0 0.0 0.0       195
ANJ  16.250 1.00 Pg
GLO   4.620 1.00 Pg
SHM  13.120 1.00 Pg
LAS  23.000 1.00 Pg
# 2015 02 11 15 33 36.700000 36.829 53.121   8.0  2.7 0.0 0.0 0.0       196
ANJ  28.780 1.00 Pg
FIR  23.840 1.00 Pg
GLO  13.180 1.00 Pg
LAS  27.930 1.00 Pg
PRN  17.060 1.00 Pg
QALM 36.820 1.00 Pn
VRN  39.080 1.00 Pn
MND  34.220 1.00 Pn
PRN  29.240 1.00 Sg
# 2015 02 13 03 12 49.100000 35.006 53.882   8.0  2.5 0.0 0.0 0.0       197
ANJ   9.650 1.00 Pg
FIR  21.240 1.00 Pg
GLO  28.780 1.00 Pg
LAS  17.170 1.00 Pg
PRN  32.460 1.00 Pg
SHM  17.900 1.00 Pg
ZEF  42.730 1.00 Pn
ANAR 33.360 1.00 Pn
KLH  44.080 1.00 Pn
ANJ  16.490 1.00 Sg
# 2015 02 13 18 44 45.600000 36.694 49.571  11.6  2.4 0.0 0.0 0.0       198
GZV  12.780 1.00 Pg
MHD  26.540 1.00 Pg
QABG 18.420 1.00 Pg
QALM 17.020 1.00 Pg
RAZ  26.020 1.00 Pg
HSH  35.420 1.00 Pn
SRB  34.200 1.00 Pn
MHD  45.180 1.00 Sg
# 2015 02 13 22 47 01.000000 36.104 53.469  10.0  1.8 0.0 0.0 0.0       199
ANJ  14.230 1.00 Pg
FIR  14.220 1.00 Pg
GLO  10.100 1.00 Pg
PRN  18.100 1.00 Pg
SHM   7.720 1.00 Pg
# 2015 02 14 00 14 51.400000 36.774 50.866   8.0  2.6 0.0 0.0 0.0       200
FIR  36.880 1.00 Pn
GZV  12.820 1.00 Pg
LAS  41.020 1.00 Pn
MHD  21.760 1.00 Pg
PRN  25.360 1.00 Pg
QABG 26.200 0.00 Pg
QALM  7.400 1.00 Pg
QOM  36.140 0.00 Pn
RAZ  29.340 0.00 Pg
VRN  35.800 1.00 Pn
# 2015 02 14 07 44 56.500000 35.531 53.234  10.0  1.4 0.0 0.0 0.0       201
ANJ  11.070 1.00 Pg
FIR   8.120 1.00 Pg
LAS   6.020 1.00 Pg
SHM   6.210 1.00 Pg
# 2015 02 14 07 59 56.000000 35.563 53.249  11.4  1.0 0.0 0.0 0.0       202
ANJ  11.070 1.00 Pg
FIR   8.520 1.00 Pg
LAS   6.360 1.00 Pg
SHM   5.480 1.00 Pg
SHM   9.700 1.00 Sg
# 2015 02 14 08 14 07.900000 35.545 53.249  10.0  1.5 0.0 0.0 0.0       203
ANJ  11.070 1.00 Pg
FIR   8.600 1.00 Pg
SHM   5.790 1.00 Pg
LAS   5.850 1.00 Pg
LAS  11.010 1.00 Sg
# 2015 02 14 12 06 37.300000 35.250 50.303   4.0  1.9 0.0 0.0 0.0       204
KRSH 36.880 1.00 Pn
MHD   9.260 0.50 Pg
QOM  15.240 1.00 Pg
SHM  44.290 1.00 Pn
VRN  24.700 1.00 Pg
# 2015 02 14 12 48 31.300000 35.534 53.238   5.0  1.0 0.0 0.0 0.0       205
ANJ  11.510 1.00 Pg
LAS   5.630 1.00 Pg
KRSH 34.180 1.00 Pn
SHM   5.980 1.00 Pg
LAS  10.250 1.00 Sg
# 2015 02 14 14 51 13.400000 35.315 50.184   5.0  2.0 0.0 0.0 0.0       206
FIR  40.100 0.50 Pn
GZV  21.940 1.00 Pg
HAGD 19.760 1.00 Pg
KRSH 38.660 1.00 Pn
MHD  11.580 1.00 Pg
QOM  17.860 1.00 Pg
RAZ   4.860 1.00 Pg
VRN  26.340 1.00 Pg
HSAM 32.780 1.00 Pg
# 2015 02 14 19 33 58.800000 35.356 52.119  10.0  1.2 0.0 0.0 0.0       207
ANJ  28.160 1.00 Pg
FIR  11.880 1.00 Pg
SHM  20.410 1.00 Pg
VRN   9.840 1.00 Pg
VRN  16.720 1.00 Sg
# 2015 02 16 02 58 13.000000 35.931 53.544   9.4  1.7 0.0 0.0 0.0       208
ANJ  10.890 1.00 Pg
FIR  13.840 1.00 Pg
GLO  12.180 1.00 Pg
SHM   5.510 1.00 Pg
ANJ  19.030 1.00 Sg
# 2015 02 16 05 03 37.100000 35.444 52.498  10.0  1.3 0.0 0.0 0.0       209
ANJ  22.500 1.00 Pg
FIR   6.380 1.00 Pg
LAS   7.940 1.00 Pg
SHM  14.390 1.00 Pg
SHM  25.670 1.00 Sg
# 2015 02 16 07 26 04.300000 35.585 53.190  10.0  1.0 0.0 0.0 0.0       210
LAS   6.240 1.00 Pg
SHM   5.180 1.00 Pg
FIR   7.600 1.00 Pg
LAS  10.270 1.00 Sg
# 2015 02 16 08 24 50.100000 34.178 49.051  10.0  1.6 0.0 0.0 0.0       211
HAGD 13.520 1.00 Pg
HALM 19.200 1.00 Pg
HSAM  7.880 1.00 Pg
QABG 29.880 1.00 Pg
# 2015 02 16 18 56 17.100000 35.063 53.638  10.0  2.1 0.0 0.0 0.0       212
GLO  27.760 1.00 Pg
PRN  30.280 1.00 Pg
SHM   1.140 0.00 Pg
KRSH 30.580 1.00 Pg
ANJ  -6.750 0.00 Pg
# 2015 02 17 08 09 41.300000 35.336 53.368  10.0  1.7 0.0 0.0 0.0       213
ANJ   9.180 1.00 Pg
LAS   7.160 1.00 Pg
SHM   9.650 1.00 Pg
ANJ  16.840 1.00 Sg
# 2015 02 17 09 28 27.200000 35.535 53.188   7.6  1.4 0.0 0.0 0.0       214
ANJ  11.860 1.00 Pg
GLO  21.240 1.00 Pg
LAS   5.450 1.00 Pg
SHM   6.060 1.00 Pg
LAS   9.030 1.00 Sg
# 2015 02 17 14 07 14.400000 36.243 49.557  10.0  1.6 0.0 0.0 0.0       215
GZV  11.420 1.00 Pg
GZV  19.260 1.00 Sg
MHD  20.520 1.00 Pg
QABG 10.060 1.00 Pg
RAZ  18.000 1.00 Pg
# 2015 02 18 10 11 17.400000 34.446 50.768  16.0  1.5 0.0 0.0 0.0       216
KLH  24.690 1.00 Pg
QAM  17.040 1.00 Pg
QOM   9.440 1.00 Pg
QAM  29.940 1.00 Sg
# 2015 02 18 11 27 33.400000 34.357 50.498  12.0  1.8 0.0 0.0 0.0       217
HAGD 23.380 1.00 Pg
HSAM 29.280 1.00 Pg
KLH  26.440 1.00 Pg
KLH  45.420 1.00 Sg
KRSH 26.820 1.00 Pg
QAM  18.740 1.00 Pg
VRN  22.600 1.00 Pg
QOM  12.920 1.00 Pg
QAM  33.160 1.00 Sg
# 2015 02 18 20 06 24.200000 35.223 51.225  17.3  2.4 0.0 0.0 0.0       218
ANJ  37.870 1.00 Pn
FIR  24.500 1.00 Pg
GZV  26.260 1.00 Pg
HAGD 32.460 1.00 Pg
HSB   5.180 1.00 Pg
KLH  33.870 1.00 Pn
QALM 23.560 1.00 Pg
MHD  12.540 1.00 Pg
LAS  26.790 1.00 Pg
KRSH 26.360 1.00 Pg
VRN   9.760 1.00 Pg
SHM  32.410 1.00 Pg
TEH  10.940 1.00 Pg
RAZ  20.400 1.00 Pg
QOM   8.520 1.00 Pg
QAM  26.940 1.00 Pg
RAZ  34.940 1.00 Sg
# 2015 02 19 07 19 53.500000 36.850 52.074  10.0  2.8 0.0 0.0 0.0       219
FIR  25.700 1.00 Pg
GLO  27.880 1.00 Pg
GZV  29.820 1.00 Pg
MHD  31.620 1.00 Pg
PRN  12.860 1.00 Pg
QALM 23.300 1.00 Pg
VRN  35.680 1.00 Pn
PRN  22.080 1.00 Sg
# 2015 02 19 10 07 27.400000 34.663 50.635   8.5  2.5 0.0 0.0 0.0       220
FIR  35.760 1.00 Pn
HSB  18.080 1.00 Pg
KLH  29.590 1.00 Pg
KRSH 26.620 1.00 Pg
LAS  37.200 1.00 Pn
MHD  19.800 1.00 Pg
QABG 25.280 1.00 Pg
QOM   8.040 1.00 Pg
QAM  22.320 1.00 Pg
RAZ  19.320 1.00 Pg
VRN  18.260 1.00 Pg
HAGD 23.420 1.00 Pg
QOM  13.940 1.00 Sg
# 2015 02 20 14 47 52.900000 35.097 53.841  10.0  1.4 0.0 0.0 0.0       221
ANJ   7.830 1.00 Pg
FIR  20.080 1.00 Pg
LAS  15.370 1.00 Pg
SHM  16.820 1.00 Pg
ANJ  13.680 1.00 Sg
# 2015 02 20 21 44 23.400000 36.024 53.274  10.0  1.5 0.0 0.0 0.0       222
ANJ  14.820 1.00 Pg
FIR  11.300 1.00 Pg
GLO  13.020 1.00 Pg
LAS  14.480 1.00 Pg
SHM   4.540 1.00 Pg
SHM   8.740 1.00 Sg
FIR  19.860 1.00 Sg
# 2015 02 20 22 47 57.000000 35.936 53.266  11.0  1.7 0.0 0.0 0.0       223
FIR  10.280 1.00 Pg
ANJ  13.920 1.00 Pg
LAS  12.230 1.00 Pg
SHM   3.770 1.00 Pg
SHM   6.310 1.00 Sg
# 2015 02 21 05 27 17.700000 35.629 52.634   8.0  1.6 0.0 0.0 0.0       224
FIR   2.840 1.00 Pg
SHM  11.570 1.00 Pg
LAS   7.520 1.00 Pg
LAS  13.120 1.00 Sg
ANJ  20.180 1.00 Pg
FIR   4.800 1.00 Sg
# 2015 02 22 05 56 53.200000 36.269 52.994   8.0  3.1 0.0 0.0 0.0       225
ANJ  20.820 1.00 Pg
ANAR 52.320 1.00 Pn
FIR  13.000 1.00 Pg
GLO  14.680 1.00 Pg
GZV  40.540 1.00 Pn
KLH  52.760 0.00 Pn
KRSH 41.660 0.00 Pn
LAS  17.530 1.00 Pg
MND  37.420 1.00 Pn
PRN  10.460 1.00 Pg
QABG 48.060 0.00 Pn
QAM  46.800 0.00 Pn
QOM  37.780 1.00 Pn
RAZ  45.280 1.00 Pn
VRN  31.280 1.00 Pg
ASAO 49.570 0.00 Pn
GHVR 39.780 0.00 Pn
DAMV 20.130 1.00 Pg
CHTH 29.670 1.00 Pg
# 2015 02 22 08 18 22.300000 36.792 50.960  13.3  3.7 0.0 0.0 0.0       226
ANJ  46.680 0.00 Pn
ANAR 67.740 0.00 Pn
DOB  61.600 0.00 Pn
FIR  34.620 1.00 Pn
GHG  68.420 0.00 Pn
GLO  40.020 1.00 Pn
GZV  14.380 1.00 Pg
HAGD 43.160 0.00 Pn
HALM 49.960 0.00 Pn
HRS  55.980 1.00 Pn
HSB  26.400 1.00 Pg
KFM  66.200 0.00 Pn
KLH  56.670 0.00 Pn
KRSH 49.780 0.00 Pn
LAS  38.980 0.00 Pn
ZEF  64.440 0.00 Pn
VRN  35.320 1.00 Pn
TPRV 90.540 0.00 Pn
SRB  46.970 1.00 Pn
SFR  85.960 1.00 Pn
RAZ  29.900 0.00 Pg
QOM  35.140 0.00 Pn
QALM  8.060 1.00 Pg
PRN  23.540 1.00 Pg
MHD  22.120 1.00 Pg
AFRZ 111.220 0.00 Pn
QABG 27.440 0.00 Pg
GZV  25.100 1.00 Sg
RAZ  52.480 1.00 Sg
QALM 14.880 1.00 Sg
GHVR 40.220 0.00 Pn
ASAO 41.140 0.00 Pn
DAMV 26.860 1.00 Pg
ZNJK 33.770 1.00 Pn
THKV 18.050 0.00 Pg
# 2015 02 22 10 32 42.700000 36.654 50.957  10.0  2.7 0.0 0.0 0.0       227
PRN  22.600 1.00 Pg
QOM  34.820 1.00 Pn
RAZ  28.720 1.00 Pg
VRN  33.460 1.00 Pg
GZV  13.080 1.00 Pg
RAZ  49.440 1.00 Sg
# 2015 02 23 22 26 25.400000 35.401 52.193  15.5  1.8 0.0 0.0 0.0       228
VRN  11.300 1.00 Pg
QOM  20.340 1.00 Pg
FIR  10.520 1.00 Pg
ANJ  26.650 1.00 Pg
LAS  12.430 1.00 Pg
LAS  21.630 1.00 Sg
# 2015 02 23 22 35 00.900000 35.384 52.458  16.1  2.2 0.0 0.0 0.0       229
ANJ  22.320 1.00 Pg
FIR   6.980 1.00 Pg
LAS   8.750 1.00 Pg
PRN  17.060 1.00 Pg
QOM  23.540 1.00 Pg
VRN  14.160 1.00 Pg
QALM 32.420 1.00 Pg
LAS  15.230 1.00 Sg
# 2015 02 24 03 54 59.400000 36.627 49.791  10.0  1.5 0.0 0.0 0.0       230
GZV   9.080 1.00 Pg
QABG 17.860 1.00 Pg
QALM 13.440 1.00 Pg
RAZ  23.460 1.00 Pg
QABG 30.760 1.00 Sg
# 2015 02 24 22 51 13.500000 34.947 49.509  10.0  2.5 0.0 0.0 0.0       231
GZV  30.420 1.00 Pg
HAGD  8.040 1.00 Pg
HALM 22.320 1.00 Pg
HSAM 20.720 1.00 Pg
HSAM 34.400 1.00 Sg
MHD  23.680 1.00 Pg
QABG 14.420 1.00 Pg
QABG 25.260 1.00 Sg
RAZ  12.400 1.00 Pg
QOM  23.920 1.00 Pg
# 2015 02 25 01 40 13.400000 35.386 52.192  12.0  1.7 0.0 0.0 0.0       232
ANJ  26.080 1.00 Pg
FIR  10.880 1.00 Pg
LAS  12.690 1.00 Pg
VRN  11.120 1.00 Pg
# 2015 02 25 03 26 59.000000 34.670 50.796  10.0  2.2 0.0 0.0 0.0       233
HAGD 25.660 1.00 Pg
HSB  16.700 1.00 Pg
KLH  27.580 1.00 Pg
MHD  18.940 1.00 Pg
PIR  36.720 1.00 Pn
QOM   6.140 1.00 Pg
RAZ  19.740 1.00 Pg
VRN  15.800 1.00 Pg
RAZ  33.860 1.00 Sg
# 2015 02 25 14 40 15.300000 35.721 53.144  10.0  1.6 0.0 0.0 0.0       234
ANJ  13.360 1.00 Pg
FIR   6.860 1.00 Pg
LAS   7.740 1.00 Pg
PRN  16.380 1.00 Pg
PRN  28.680 1.00 Sg
# 2015 02 25 16 19 03.200000 35.701 49.149  10.0  2.1 0.0 0.0 0.0       235
GZV  21.620 1.00 Pg
HAGD 17.140 1.00 Pg
HALM 22.360 1.00 Pg
MHD  24.360 1.00 Pg
QALM 26.560 1.00 Pg
RAZ  14.140 1.00 Pg
RAZ  24.040 1.00 Sg
# 2015 02 26 02 20 11.100000 35.698 49.132  10.0  2.5 0.0 0.0 0.0       236
BZA  30.220 1.00 Pg
GZV  21.940 1.00 Pg
HAGD 17.360 1.00 Pg
HALM 22.720 1.00 Pg
HSAM 29.300 1.00 Pg
MHD  24.480 1.00 Pg
QABG  6.580 1.00 Pg
RAZ  14.460 1.00 Pg
QALM 27.020 1.00 Pg
HALM 37.760 1.00 Sg
# 2015 02 26 03 07 47.400000 36.587 49.742  10.0  2.0 0.0 0.0 0.0       237
HSH  38.130 1.00 Pn
QABG 16.580 1.00 Pg
QALM 14.240 1.00 Pg
RAZ  23.660 1.00 Pg
SRB  36.670 1.00 Pn
GZV   9.440 1.00 Pg
# 2015 02 26 07 53 21.800000 35.582 53.225  10.0  1.4 0.0 0.0 0.0       238
FIR   8.020 1.00 Pg
LAS   6.140 1.00 Pg
ANJ  11.460 1.00 Pg
GLO  21.800 0.50 Pg
LAS  11.220 1.00 Sg
# 2015 02 26 07 59 47.400000 35.961 53.096   8.0  2.5 0.0 0.0 0.0       239
ANJ  16.020 1.00 Pg
FIR   8.900 1.00 Pg
GLO  15.780 1.00 Pg
LAS  12.250 1.00 Pg
PRN  13.460 1.00 Pg
QOM  35.900 1.00 Pn
QALM 37.640 1.00 Pn
VRN  27.980 1.00 Pg
PRN  23.200 1.00 Sg
# 2015 02 26 08 02 49.300000 35.954 53.152  10.0  1.3 0.0 0.0 0.0       240
FIR   9.160 1.00 Pg
LAS  12.130 1.00 Pg
ANJ  15.470 1.00 Pg
LAS  20.770 1.00 Sg
# 2015 02 26 08 05 59.500000 35.957 53.094  10.0  1.5 0.0 0.0 0.0       241
FIR   8.720 1.00 Pg
GLO  15.900 1.00 Pg
LAS  11.740 1.00 Pg
FIR  15.240 1.00 Sg
# 2015 02 26 09 35 39.700000 35.609 52.130   8.0  1.9 0.0 0.0 0.0       242
FIR  10.220 1.00 Pg
LAS  13.900 1.00 Pg
VRN  13.740 1.00 Pg
FIR  18.180 1.00 Sg
ANJ  28.300 1.00 Pg
# 2015 02 26 14 10 24.800000 35.644 51.322  10.5  1.2 0.0 0.0 0.0       243
TEH   3.120 1.00 Pg
VRN  14.140 1.00 Pg
RAZ  22.020 1.00 Pg
QOM  16.140 1.00 Pg
QALM 19.000 1.00 Pg
MHD  10.820 1.00 Pg
HSB   5.000 1.00 Pg
QABG 24.520 0.50 Pg
# 2015 02 26 15 43 19.500000 34.158 50.722  11.3  1.6 0.0 0.0 0.0       244
KLH  20.860 1.00 Pg
PIR  29.180 1.00 Pg
QOM  14.520 1.00 Pg
RAZ  26.620 1.00 Pg
VRN  22.460 1.00 Pg
ZEF  33.660 1.00 Pn
QOM  26.060 1.00 Sg
# 2015 02 26 19 21 40.800000 35.951 53.098  10.0  1.7 0.0 0.0 0.0       245
FIR   8.420 1.00 Pg
GLO  15.480 1.00 Pg
LAS  11.650 1.00 Pg
PRN  13.260 1.00 Pg
VRN  28.080 1.00 Pg
FIR  14.460 1.00 Sg
# 2015 02 26 20 14 59.500000 35.123 51.090  10.0  1.4 0.0 0.0 0.0       246
MHD  13.040 1.00 Pg
QOM   6.200 1.00 Pg
VRN  10.760 1.00 Pg
QOM  10.420 1.00 Sg
# 2015 02 27 06 53 31.000000 36.354 53.723  10.2  2.8 0.0 0.0 0.0       247
ANJ  18.330 1.00 Pg
FIR  19.840 1.00 Pg
GLO   4.460 1.00 Pg
PRN  21.540 1.00 Pg
QALM 42.520 1.00 Pn
MND  29.060 1.00 Pg
LAS  21.750 1.00 Pg
ANJ  30.700 1.00 Sg
PRN  38.580 1.00 Sg
VRN  38.100 1.00 Pn
# 2015 02 27 06 58 18.800000 36.353 53.689  10.0  2.4 0.0 0.0 0.0       248
ANJ  17.290 1.00 Pg
FIR  19.720 1.00 Pg
PRN  21.120 1.00 Pg
LAS  22.820 1.00 Pg
GLO   4.140 1.00 Pg
GLO   7.940 1.00 Sg
# 2015 02 27 13 02 47.500000 36.364 53.700  10.0  2.2 0.0 0.0 0.0       249
ANJ  17.680 1.00 Pg
GLO   4.080 1.00 Pg
LAS  22.400 1.00 Pg
PRN  21.320 1.00 Pg
GLO   7.360 1.00 Sg
# 2015 02 27 22 16 12.800000 36.431 52.177   8.0  2.7 0.0 0.0 0.0       250
ANJ  32.160 1.00 Pg
FIR  17.140 1.00 Pg
GLO  26.020 1.00 Pg
GZV  30.460 1.00 Pg
LAS  23.810 1.00 Pg
MHD  28.260 1.00 Pg
PRN   5.040 1.00 Pg
QALM 23.700 1.00 Pg
QOM  33.880 1.00 Pn
VRN  28.780 1.00 Pg
QABG 39.580 1.00 Pn
GLO  45.140 1.00 Sg
# 2015 02 27 22 26 21.300000 35.621 50.101  10.0  1.7 0.0 0.0 0.0       251
MHD   9.220 1.00 Pg
QABG  8.620 1.00 Pg
RAZ   5.800 1.00 Pg
QALM 18.260 1.00 Pg
# 2015 02 27 22 35 03.700000 35.934 53.334  20.0  1.5 0.0 0.0 0.0       252
ANJ  13.790 1.00 Pg
FIR  11.980 1.00 Pg
GLO  13.960 1.00 Pg
LAS  12.490 1.00 Pg
PRN  16.400 1.00 Pg
ANJ  23.050 1.00 Sg
# 2015 02 28 03 44 49.900000 36.345 53.707  11.0  2.2 0.0 0.0 0.0       253
FIR  19.420 1.00 Pg
ANJ  17.730 1.00 Pg
VRN  38.200 1.00 Pn
PRN  21.040 1.00 Pg
LAS  22.840 1.00 Pg
GLO   4.080 1.00 Pg
GLO   8.000 1.00 Sg
ANJ  30.190 1.00 Sg
# 2015 02 28 19 46 17.000000 35.709 49.165  10.0  1.3 0.0 0.0 0.0       254
HAGD 17.460 1.00 Pg
RAZ  15.220 1.00 Pg
RAZ  23.940 1.00 Sg
QABG  6.000 1.00 Pg
HAGD 30.000 1.00 Sg
# 2015 03 01 02 13 45.800000 36.833 52.063  14.0  2.0 0.0 0.0 0.0       255
FIR  25.340 1.00 Pg
ANJ  37.500 1.00 Pn
GLO  27.280 1.00 Pg
GZV  29.600 1.00 Pg
LAS  30.230 1.00 Pg
MHD  31.160 1.00 Pg
PRN  12.200 1.00 Pg
PRN  21.460 1.00 Sg
GZV  50.280 1.00 Sg
# 2015 03 01 06 36 45.400000 36.124 53.394  10.0  1.9 0.0 0.0 0.0       256
VRN  33.580 1.00 Pg
PRN  17.260 1.00 Pg
GLO  10.220 1.00 Pg
FIR  13.960 1.00 Pg
ANJ  15.650 1.00 Pg
FIR  24.560 1.00 Sg
# 2015 03 01 09 50 21.300000 35.379 49.138   8.0  1.5 0.0 0.0 0.0       257
HAGD 10.940 1.00 Pg
QABG  9.720 1.00 Pg
RAZ  13.500 1.00 Pg
RAZ  22.420 1.00 Sg
QALM 30.980 1.00 Pg
HALM 18.620 1.00 Pg
# 2015 03 01 10 59 28.100000 35.478 50.018  10.0  1.6 0.0 0.0 0.0       258
GZV  18.760 1.00 Pg
QABG  8.500 1.00 Pg
QALM 20.440 1.00 Pg
RAZ   3.200 1.00 Pg
# 2015 03 01 12 14 15.500000 34.448 51.036  22.5  1.7 0.0 0.0 0.0       259
KRSH 19.360 1.00 Pg
QOM   8.340 1.00 Pg
RAZ  24.600 1.00 Pg
VRN  15.640 1.00 Pg
QABG 30.420 1.00 Pg
VRN  26.640 1.00 Sg
# 2015 03 01 12 35 51.300000 35.843 49.374   5.0  1.9 0.0 0.0 0.0       260
GZV  18.680 1.00 Pg
QABG  4.020 1.00 Pg
QALM 24.060 1.00 Pg
RAZ  13.640 1.00 Pg
RAZ  23.020 1.00 Sg
QABG  8.360 1.00 Sg
# 2015 03 01 12 44 22.900000 36.528 51.050   8.0  2.5 0.0 0.0 0.0       261
GZV  13.300 1.00 Pg
QABG 25.760 0.50 Pg
QALM  6.440 1.00 Pg
RAZ  27.760 1.00 Pg
VRN  32.440 0.50 Pg
QALM 12.580 1.00 Sg
PRN  21.100 1.00 Pg
MHD  17.260 1.00 Pg
GZV  24.460 1.00 Sg
# 2015 03 02 08 22 33.300000 36.465 51.828   8.0  2.4 0.0 0.0 0.0       262
ANJ  36.340 1.00 Pn
FIR  21.500 1.00 Pg
GLO  30.140 1.00 Pg
GZV  25.700 1.00 Pg
KRSH 44.120 1.00 Pn
LAS  26.870 1.00 Pg
MHD  24.180 1.00 Pg
PRN   9.260 1.00 Pg
QABG 35.420 1.00 Pn
QALM 18.340 1.00 Pg
QOM  32.880 1.00 Pg
RAZ  35.300 1.00 Pn
VRN  28.500 1.00 Pg
PRN  16.620 1.00 Sg
# 2015 03 02 13 13 07.400000 35.515 53.095  10.0  1.3 0.0 0.0 0.0       263
ANJ  12.580 1.00 Pg
FIR   6.020 1.00 Pg
GLO  22.360 1.00 Pg
LAS   4.500 1.00 Pg
# 2015 03 02 13 58 34.200000 34.122 49.578  10.0  1.8 0.0 0.0 0.0       264
HAGD 15.520 1.00 Pg
HSAM 16.060 1.00 Pg
QOM  27.040 1.00 Pg
RAZ  26.080 1.00 Pg
QABG 28.680 1.00 Pg
HAGD 27.080 1.00 Sg
# 2015 03 02 17 20 29.900000 36.805 51.214  10.0  1.8 0.0 0.0 0.0       265
GZV  17.680 1.00 Pg
QALM 11.680 1.00 Pg
RAZ  33.140 1.00 Pg
GZV  30.420 1.00 Sg
QALM 20.700 1.00 Sg
RAZ  57.300 1.00 Sg
# 2015 03 02 22 38 36.100000 36.878 52.915   8.0  3.3 0.0 0.0 0.0       266
ANJ  30.530 1.00 Pg
ANAR 58.360 0.00 Pn
FIR  23.020 1.00 Pg
GAR  70.730 0.00 Pn
GLO  15.960 1.00 Pg
GZV  39.100 1.00 Pn
HSB  36.300 0.00 Pn
KRSH 48.380 0.00 Pn
LAS  28.040 0.00 Pg
MHD  40.580 0.00 Pn
MND  36.380 1.00 Pn
PRN  15.960 1.00 Pg
PRN  27.360 1.00 Sg
QABG 47.440 0.00 Pn
QALM 32.800 0.00 Pn
QAM  53.380 0.00 Pn
QOM  42.480 0.00 Pn
RAZ  47.720 0.00 Pn
SBZV 61.560 1.00 Pn
TEG  93.890 0.00 Pn
TKDS 73.000 0.00 Pn
TPRV 75.620 0.00 Pn
VRN  37.260 0.00 Pn
ZEF  62.370 0.00 Pn
ZNJK 55.360 1.00 Pn
DAMV 27.500 1.00 Pg
CHTH 32.510 1.00 Pg
SHRO 46.160 1.00 Pn
# 2015 03 03 01 38 15.900000 35.259 52.923  14.8  1.7 0.0 0.0 0.0       267
ANJ  16.180 1.00 Pg
FIR   8.460 1.00 Pg
LAS   3.830 1.00 Pg
FIR  14.920 1.00 Sg
LAS   6.660 1.00 Sg
# 2015 03 03 08 31 25.600000 34.351 52.405  10.0  2.3 0.0 0.0 0.0       268
ZEF  27.690 1.00 Pg
VRN  16.660 1.00 Pg
QAM  19.240 1.00 Pg
LAS  23.060 1.00 Pg
KRSH  9.560 1.00 Pg
KLH  23.480 1.00 Pg
FIR  24.380 1.00 Pg
ANJ  31.670 1.00 Pg
KRSH 16.040 1.00 Sg
# 2015 03 03 10 21 45.100000 35.568 53.072  10.0  1.7 0.0 0.0 0.0       269
ANJ  13.940 1.00 Pg
FIR   6.060 1.00 Pg
GLO  21.500 1.00 Pg
KRSH 33.240 1.00 Pg
LAS   5.270 1.00 Pg
# 2015 03 03 17 21 19.500000 35.545 51.114  10.0  1.6 0.0 0.0 0.0       270
VRN  14.320 1.00 Pg
MHD   7.960 1.00 Pg
HSB   4.300 1.00 Pg
RAZ  19.140 1.00 Pg
# 2015 03 04 04 30 14.100000 35.302 52.618   9.5  2.6 0.0 0.0 0.0       271
ANJ  20.690 1.00 Pg
FIR   7.780 1.00 Pg
GLO  29.160 1.00 Pg
KLH  38.690 1.00 Pn
KRSH 26.280 1.00 Pg
LAS   6.650 1.00 Pg
QAM  33.400 1.00 Pn
RAZ  39.180 1.00 Pn
VRN  15.660 1.00 Pg
PRN  18.600 1.00 Pg
ANJ  36.730 1.00 Sg
# 2015 03 04 14 43 11.900000 36.637 52.025   8.4  2.4 0.0 0.0 0.0       272
FIR  22.140 1.00 Pg
ANJ  34.900 1.00 Pn
GLO  27.960 1.00 Pg
LAS  28.210 1.00 Pg
PRN   9.920 1.00 Pg
QALM 21.720 1.00 Pg
VRN  31.300 1.00 Pg
PRN  16.640 1.00 Sg
RAZ  38.020 1.00 Pn
MHD  49.020 1.00 Sg
# 2015 03 06 12 28 19.200000 35.757 52.036  13.4  1.9 0.0 0.0 0.0       273
FIR  11.640 1.00 Pg
VRN  15.500 1.00 Pg
RAZ  31.740 1.00 Pg
PRN  10.960 1.00 Pg
KRSH 32.540 1.00 Pg
# 2015 03 06 13 32 26.100000 35.371 50.179  10.0  2.1 0.0 0.0 0.0       274
RAZ   4.200 1.00 Pg
QOM  17.280 1.00 Pg
QABG  9.640 0.00 Pg
QALM 22.120 1.00 Pg
HAGD 20.280 1.00 Pg
# 2015 03 06 14 29 33.400000 35.214 50.364  10.0  2.0 0.0 0.0 0.0       275
QABG 15.220 1.00 Pg
QABG 26.800 1.00 Sg
QALM 24.000 1.00 Pg
QALM 42.140 1.00 Sg
QOM  13.820 1.00 Pg
QOM  23.020 1.00 Sg
RAZ   9.860 1.00 Pg
