# 2015 05 28 16 07 28.500000 34.503 52.191  10.0  1.8 0.0 0.0 0.0       508
KLH  24.140 1.00 Pg
KRSH 10.860 1.00 Pg
LAS  21.390 1.00 Pg
QAM  18.560 1.00 Pg
SHM  28.880 1.00 Pg
VRN  12.080 1.00 Pg
ZEF  30.280 1.00 Pg
VRN  21.160 1.00 Sg
# 2015 05 29 08 26 38.700000 35.916 52.991  12.1  1.7 0.0 0.0 0.0       509
ANJ  16.660 1.00 Pg
LAS  11.180 1.00 Pg
SHM   5.840 1.00 Pg
LAS  18.460 1.00 Sg
PRN  21.380 1.00 Sg
# 2015 05 30 16 17 53.600000 37.039 53.443  10.0  2.8 0.0 0.0 0.0       510
ANJ  31.590 1.00 Pg
GLO  12.080 1.00 Pg
LAS  32.560 1.00 Pg
PRN  22.460 1.00 Pg
SHM  24.610 1.00 Pg
VRN  42.400 1.00 Pn
GLO  21.340 1.00 Sg
# 2015 05 30 23 44 04.800000 35.166 53.732  10.0  1.3 0.0 0.0 0.0       511
SHM  13.950 1.00 Pg
SFB  26.980 1.00 Pg
LAS  13.580 1.00 Pg
KRSH 33.420 1.00 Pg
ANJ   7.600 1.00 Pg
ANJ  11.810 1.00 Sg
# 2015 05 31 15 10 19.200000 35.594 53.783  18.6  1.7 0.0 0.0 0.0       512
ANJ   4.870 1.00 Pg
LAS  13.910 1.00 Pg
SHM   9.620 1.00 Pg
VRN  31.780 1.00 Pg
# 2015 05 31 15 29 28.100000 35.587 53.763  13.0  1.8 0.0 0.0 0.0       513
ANJ   4.330 1.00 Pg
LAS  13.460 1.00 Pg
SFB  31.820 1.00 Pg
VRN  32.140 1.00 Pg
SHM  16.160 1.00 Sg
# 2015 06 01 06 24 40.000000 35.523 53.283  10.0  1.4 0.0 0.0 0.0       514
ANJ  10.480 1.00 Pg
LAS   6.430 1.00 Pg
SHM   5.720 1.00 Pg
SHM  11.000 1.00 Sg
# 2015 06 01 07 25 35.100000 35.546 53.271  10.0  1.4 0.0 0.0 0.0       515
ANJ  10.740 1.00 Pg
LAS   6.520 1.00 Pg
SHM   5.570 1.00 Pg
SFB  27.940 1.00 Pg
SHM  10.190 1.00 Sg
# 2015 06 01 10 56 25.100000 35.592 53.120  10.0  1.3 0.0 0.0 0.0       516
SHM   5.630 1.00 Pg
LAS   5.350 1.00 Pg
ANJ  13.100 1.00 Pg
LAS   9.590 1.00 Sg
# 2015 06 02 13 05 42.100000 35.843 53.293  10.1  1.5 0.0 0.0 0.0       517
ANJ  12.580 1.00 Pg
LAS  11.520 1.00 Pg
SHM   1.840 1.00 Pg
SFB  31.200 1.00 Pg
GLO  15.740 1.00 Pg
SHM   4.580 1.00 Sg
# 2015 06 02 16 43 27.900000 36.217 53.467  10.0  1.3 0.0 0.0 0.0       518
SHM   8.770 1.00 Pg
PRN  17.760 1.00 Pg
LAS  18.680 1.00 Pg
GLO   8.460 1.00 Pg
SHM  15.720 1.00 Sg
# 2015 06 02 18 16 33.800000 35.775 52.091  20.4  2.0 0.0 0.0 0.0       519
SHM  18.330 1.00 Pg
SFB  26.440 1.00 Pg
RAZ  32.820 1.00 Pg
PRN  10.140 1.00 Pg
MHD  22.040 1.00 Pg
LAS  15.980 1.00 Pg
KRSH 32.340 1.00 Pn
HSB  14.280 1.00 Pg
ANJ  27.680 1.00 Pg
PRN  18.080 1.00 Sg
# 2015 06 02 20 40 07.100000 35.740 52.107  12.8  1.7 0.0 0.0 0.0       520
KRSH 32.180 1.00 Pg
LAS  15.130 1.00 Pg
PRN  10.740 1.00 Pg
SFB  26.200 1.00 Pg
SHM  18.420 1.00 Pg
SHM  32.590 1.00 Sg
# 2015 06 03 13 21 04.100000 36.733 52.048   9.7  2.4 0.0 0.0 0.0       521
GLO  28.720 1.00 Pg
PRN  11.200 1.00 Pg
SHM  26.070 1.00 Pg
SFB  41.660 1.00 Pn
VRN  31.780 1.00 Pg
GZV  28.820 1.00 Pg
LAS  29.700 1.00 Pg
GLO  48.340 1.00 Sg
# 2015 06 03 14 16 41.800000 35.220 51.561  10.0  1.8 0.0 0.0 0.0       522
SFB  19.480 1.00 Pg
RAZ  25.480 1.00 Pg
QOM  11.680 1.00 Pg
SHM  29.600 1.00 Pg
QOM  19.580 1.00 Sg
# 2015 06 03 23 04 44.600000 35.762 52.069  10.0  1.8 0.0 0.0 0.0       523
SHM  19.420 1.00 Pg
PRN  10.540 1.00 Pg
PRN  18.560 1.00 Sg
LAS  15.950 1.00 Pg
HSB  14.220 1.00 Pg
# 2015 06 04 02 02 23.000000 37.258 52.967  15.6  2.2 0.0 0.0 0.0       524
SHM  27.230 1.00 Pg
PRN  21.640 1.00 Pg
GLO  19.760 1.00 Pg
LAS  33.320 1.00 Pn
SHM  48.820 1.00 Sg
# 2015 06 04 12 12 29.600000 35.799 51.532  12.0  2.5 0.0 0.0 0.0       525
ANJ  36.890 1.00 Pn
HSB   8.960 1.00 Pg
KRSH 34.620 1.00 Pn
MHD  14.460 1.00 Pg
QOM  19.720 1.00 Pg
RAZ  25.580 1.00 Pg
SFB  29.440 1.00 Pg
TEH   4.160 1.00 Pg
VRN  16.580 1.00 Pg
# 2015 06 04 21 32 20.600000 35.858 52.975  10.0  1.6 0.0 0.0 0.0       526
GLO  19.000 1.00 Pg
LAS   9.600 1.00 Pg
LAS  17.160 1.00 Sg
PRN  12.420 1.00 Pg
PRN  22.400 1.00 Sg
SHM   5.040 1.00 Pg
# 2015 06 05 11 24 42.600000 36.572 53.139  10.0  2.7 0.0 0.0 0.0       527
ANJ  24.780 1.00 Pg
GLO  11.620 1.00 Pg
HSB  35.240 1.00 Pn
LAS  22.970 1.00 Pg
MND  34.500 1.00 Pn
PRN  14.300 1.00 Pg
SHM  14.950 1.00 Pg
PRN  25.660 1.00 Sg
# 2015 06 06 00 13 01.900000 34.528 52.121   8.0  2.0 0.0 0.0 0.0       528
ANAR 34.880 1.00 Pn
ANJ  32.520 1.00 Pg
KLH  24.430 1.00 Pg
KRSH 11.200 1.00 Pg
LAS  22.170 1.00 Pg
QAM  18.580 1.00 Pg
SFB   4.440 1.00 Pg
SHM  30.180 1.00 Pg
ZEF  30.520 1.00 Pg
RAZ  36.860 1.00 Pn
# 2015 06 06 07 54 05.200000 36.144 53.271  10.0  1.8 0.0 0.0 0.0       529
ANJ  17.050 1.00 Pg
GLO  10.360 1.00 Pg
SHM   7.830 1.00 Pg
PRN  15.420 1.00 Pg
GLO  20.960 1.00 Sg
LAS  14.840 1.00 Pg
# 2015 06 07 12 55 53.100000 35.527 53.190  10.0  1.0 0.0 0.0 0.0       530
ANJ  11.860 1.00 Pg
LAS   5.270 1.00 Pg
SHM   6.060 1.00 Pg
SHM  11.100 1.00 Sg
# 2015 06 09 00 48 12.700000 36.470 52.322   8.0  2.9 0.0 0.0 0.0       531
ANAR 56.900 1.00 Pn
ANJ  31.110 1.00 Pg
GLO  23.960 1.00 Pg
GZV  32.300 1.00 Pg
KLH  53.470 1.00 Pn
KRSH 43.620 1.00 Pn
LAS  22.480 1.00 Pg
MHD  29.600 1.00 Pg
MND  43.680 1.00 Pn
PRN   3.800 0.50 Pg
RAZ  39.360 1.00 Pn
SFB  38.020 1.00 Pn
SHM  20.020 1.00 Pg
SHM  35.390 1.00 Sg
# 2015 06 10 02 34 16.400000 35.959 53.349   9.4  2.8 0.0 0.0 0.0       532
ANJ  13.000 1.00 Pg
GLO  13.120 1.00 Pg
KRSH 39.220 1.00 Pn
LAS  13.300 1.00 Pg
PRN  16.600 1.00 Pg
SHM   4.110 1.00 Pg
SFB  33.500 1.00 Pn
QALM 39.420 1.00 Pn
LAS  22.440 1.00 Sg
# 2015 06 10 10 35 09.300000 34.482 52.071  10.0  1.4 0.0 0.0 0.0       533
VRN  11.660 1.00 Pg
SFB   4.320 1.00 Pg
QAMS 18.280 1.00 Pg
KRSH 10.580 1.00 Pg
KLH  23.580 1.00 Pg
# 2015 06 11 04 00 07.100000 36.315 52.958  21.3  1.5 0.0 0.0 0.0       534
ANJ  20.890 1.00 Pg
GLO  14.600 1.00 Pg
LAS  18.410 1.00 Pg
PRN  10.220 1.00 Pg
QALM 32.460 1.00 Pn
SFB  35.300 0.50 Pn
SHM  10.380 0.50 Pg
# 2015 06 11 06 42 57.000000 35.528 53.249  10.0  1.2 0.0 0.0 0.0       535
LAS   5.470 1.00 Pg
SHM   5.780 1.00 Pg
SFB  27.640 1.00 Pg
SHM  10.980 1.00 Sg
KRSH 33.640 1.00 Pn
ANJ  10.830 1.00 Pg
# 2015 06 11 09 01 22.300000 35.476 53.311  10.0  1.4 0.0 0.0 0.0       536
SHM   6.410 1.00 Pg
LAS   6.550 1.00 Pg
GLO  21.760 1.00 Pg
SHM  12.590 1.00 Sg
LAS  11.290 1.00 Sg
# 2015 06 11 20 35 51.700000 35.488 49.635  19.0  1.2 0.0 0.0 0.0       537
QABG  5.700 1.00 Pg
QSDN 20.640 1.00 Pg
RAZ   6.140 1.00 Pg
RAZ  10.780 1.00 Sg
# 2015 06 12 08 10 40.100000 34.066 49.370  10.0  1.5 0.0 0.0 0.0       538
BMDN 12.040 1.00 Pg
HAGD 15.620 1.00 Pg
HSAM 13.040 1.00 Pg
HALM 24.380 1.00 Pg
RAZ  27.040 1.00 Pg
# 2015 06 12 14 10 46.100000 35.283 50.169   8.1  1.8 0.0 0.0 0.0       539
MHD  11.320 1.00 Pg
QOM  16.600 1.00 Pg
VRN  25.560 1.00 Pg
KLH  40.180 1.00 Pn
QOM  29.240 1.00 Sg
# 2015 06 12 14 42 00.600000 35.309 50.123  10.0  1.6 0.0 0.0 0.0       540
QOM  17.580 1.00 Pg
RAZ   4.400 1.00 Pg
MHD  11.680 1.00 Pg
# 2015 06 12 17 54 20.000000 36.183 52.787  10.0  2.3 0.0 0.0 0.0       541
GLO  17.060 1.00 Pg
LAS  15.850 1.00 Pg
PRN   7.920 1.00 Pg
SHM  11.240 1.00 Pg
VRN  26.800 1.00 Pg
LAS  27.210 1.00 Sg
# 2015 06 12 17 56 28.600000 34.743 52.456  11.2  3.1 0.0 0.0 0.0       542
ANAR 34.060 1.00 Pn
ANJ  26.140 1.00 Pg
GAR  41.280 0.00 Pn
GLO  37.400 0.00 Pn
GZV  42.120 0.00 Pn
HAGD 46.120 1.00 Pn
HSAM 53.080 1.00 Pn
HSB  22.320 0.00 Pg
KLH  29.560 0.00 Pg
KOO  90.250 1.00 Pn
KRSH 15.920 1.00 Pg
LAS  15.670 1.00 Pg
MHD  31.360 0.00 Pg
ZEF  33.500 1.00 Pn
VRN  13.000 1.00 Pg
TPRV 62.100 1.00 Pn
SHM  24.190 1.00 Pg
SFB   9.180 1.00 Pg
SFB  15.960 1.00 Sg
RAZ  37.140 0.00 Pn
QOM  21.520 1.00 Pg
QAMS 24.840 1.00 Pg
QALM 39.040 1.00 Pn
PRN  28.320 1.00 Pg
PIR  42.720 0.00 Pn
# 2015 06 13 09 08 58.000000 36.615 50.847  10.0  1.7 0.0 0.0 0.0       543
GZV  11.520 1.00 Pg
QABG 25.580 1.00 Pg
QALM  5.320 1.00 Pg
RAZ  27.620 1.00 Pg
QABG 46.280 1.00 Sg
# 2015 06 14 04 38 09.700000 35.636 49.499   8.0  2.6 0.0 0.0 0.0       544
RAZ   8.540 1.00 Pg
QALM 22.920 1.00 Pg
QAMS 44.120 1.00 Pn
QABG  1.380 1.00 Pg
MHD  18.720 1.00 Pg
HSAM 29.960 1.00 Pg
HAGD 17.060 1.00 Pg
HALM 25.920 1.00 Pg
GZV  18.920 1.00 Pg
QSDN 18.260 1.00 Pg
MHD  33.040 1.00 Sg
HSB  27.340 1.00 Pg
GZV  32.220 1.00 Sg
QABG  3.520 1.00 Sg
# 2015 06 14 10 24 17.000000 36.820 49.687  10.0  2.0 0.0 0.0 0.0       545
GZV  12.740 1.00 Pg
MHD  26.840 1.00 Pg
QALM 16.640 1.00 Pg
QALM 29.660 1.00 Sg
RAZ  27.080 1.00 Pg
# 2015 06 14 11 54 05.000000 35.556 49.547  10.0  2.1 0.0 0.0 0.0       546
MHD  17.980 1.00 Pg
QABG  3.320 1.00 Pg
RAZ   7.440 1.00 Pg
QSDN 19.400 1.00 Pg
QSDN 34.200 1.00 Sg
GZV  34.060 1.00 Sg
# 2015 06 14 13 35 19.500000 35.656 53.414   6.3  2.0 0.0 0.0 0.0       547
ANJ   9.530 1.00 Pg
GLO  18.800 1.00 Pg
LAS   9.590 1.00 Pg
PRN  21.960 1.00 Pg
SHM   4.010 1.00 Pg
SHM   7.410 1.00 Sg
# 2015 06 14 14 07 04.200000 35.696 53.413  10.0  1.1 0.0 0.0 0.0       548
ANJ   9.590 1.00 Pg
LAS   9.520 1.00 Pg
SHM   3.940 1.00 Pg
LAS  17.450 1.00 Sg
# 2015 06 14 14 38 55.100000 36.275 52.101   8.0  2.3 0.0 0.0 0.0       549
ANJ  31.230 1.00 Pg
GLO  27.180 1.00 Pg
LAS  22.020 1.00 Pg
MHD  25.240 1.00 Pg
PRN   3.880 1.00 Pg
QALM 22.200 1.00 Pg
QOM  31.000 1.00 Pg
SFB  35.200 1.00 Pn
SHM  20.350 1.00 Pg
VRN  24.500 1.00 Pg
# 2015 06 14 15 21 37.000000 35.528 53.699   5.1  1.5 0.0 0.0 0.0       550
ANJ   4.040 1.00 Pg
LAS  13.350 1.00 Pg
KRSH 36.900 1.00 Pn
SHM   8.740 1.00 Pg
SFB  31.500 1.00 Pg
VRN  32.340 1.00 Pg
GLO  20.720 1.00 Pg
SHM  16.090 1.00 Sg
# 2015 06 14 15 41 18.700000 35.555 53.729   8.0  1.6 0.0 0.0 0.0       551
ANJ   3.860 1.00 Pg
GLO  18.740 1.00 Pg
KRSH 37.000 1.00 Pn
LAS  13.400 1.00 Pg
SFB  31.520 1.00 Pg
SHM   8.530 1.00 Pg
SHM  15.810 1.00 Sg
# 2015 06 14 22 19 08.900000 34.472 53.999  11.7  3.0 0.0 0.0 0.0       552
ANAR 25.460 1.00 Pg
ANJ  19.920 1.00 Pg
GLO  36.620 1.00 Pn
KLH  39.650 1.00 Pn
KOO  71.980 1.00 Pn
KRSH 30.000 1.00 Pg
LAS  22.990 1.00 Pg
MEH  51.400 0.00 Pn
PIR  50.600 0.00 Pn
PRN  38.760 0.00 Pn
QABG 59.640 0.00 Pn
QAMS 39.380 0.00 Pn
ZEF  37.900 1.00 Pn
VRN  35.280 1.00 Pn
TPRV 44.960 1.00 Pn
TKDS 45.020 1.00 Pn
SHM  28.320 1.00 Pg
SFB  27.700 1.00 Pg
SBZV 57.780 1.00 Pn
SAD  43.440 0.00 Pn
TABS 44.750 0.00 Pn
SHRO 38.250 1.00 Pn
YZKH 37.310 1.00 Pn
DAMV 36.410 0.00 Pn
NASN 35.090 1.00 Pn
# 2015 06 15 08 49 43.000000 35.436 49.005  10.0  1.3 0.0 0.0 0.0       553
RAZ  14.880 1.00 Pg
QABG 10.940 1.00 Pg
HAGD 12.380 1.00 Pg
# 2015 06 15 13 17 57.000000 36.064 50.624  10.0  1.6 0.0 0.0 0.0       554
GZV   9.780 1.00 Pg
MHD   8.380 1.00 Pg
QABG 15.500 0.00 Pg
QALM  7.320 1.00 Pg
RAZ  16.660 1.00 Pg
QSDN 23.500 1.00 Pg
GZV  17.020 1.00 Sg
# 2015 06 16 09 33 22.400000 36.055 50.630  10.0  1.4 0.0 0.0 0.0       555
GZV   9.600 1.00 Pg
MHD   8.260 1.00 Pg
QALM  7.540 1.00 Pg
RAZ  16.320 1.00 Pg
GZV  17.200 1.00 Sg
# 2015 06 16 15 58 36.500000 34.490 51.648  10.0  1.7 0.0 0.0 0.0       556
KLH  22.410 1.00 Pg
KRSH 13.240 1.00 Pg
KRSH 22.580 1.00 Sg
QAMS 15.600 1.00 Pg
SFB  10.520 1.00 Pg
VRN   9.980 1.00 Pg
# 2015 06 17 11 20 19.800000 36.538 52.013   4.0  2.8 0.0 0.0 0.0       557
ANJ  36.440 0.50 Pn
GLO  30.360 1.00 Pg
GZV  30.460 1.00 Pg
LAS  28.740 1.00 Pg
HSB  25.000 1.00 Pg
MHD  28.520 1.00 Pg
PRN   8.460 1.00 Pg
QALM 22.740 1.00 Pg
RAZ  38.580 0.50 Pn
SHM  25.360 1.00 Pg
VRN  30.340 1.00 Pg
PRN  14.680 1.00 Sg
# 2015 06 17 12 43 41.800000 35.917 49.055  10.0  1.6 0.0 0.0 0.0       558
QABG  9.680 1.00 Pg
QSDN 11.820 1.00 Pg
RAZ  18.940 0.50 Pg
QABG 17.000 1.00 Sg
GZV  20.640 1.00 Pg
# 2015 06 17 14 55 48.400000 35.874 53.259   8.3  1.7 0.0 0.0 0.0       559
ANJ  13.090 1.00 Pg
GLO  15.440 1.00 Pg
LAS  11.690 1.00 Pg
SHM   2.320 1.00 Pg
SFB  31.620 1.00 Pg
PRN  16.040 1.00 Pg
GLO  27.020 1.00 Sg
# 2015 06 17 16 28 26.400000 36.294 50.400  10.0  1.7 0.0 0.0 0.0       560
GZV   4.120 1.00 Pg
QALM  5.380 1.00 Pg
RAZ  18.840 1.00 Pg
GZV   7.400 1.00 Sg
# 2015 06 17 17 30 44.100000 35.538 49.535   8.0  2.3 0.0 0.0 0.0       561
HAGD 15.460 1.00 Pg
MHD  18.320 1.00 Pg
QALM 24.260 1.00 Pg
QOM  26.760 1.00 Pg
RAZ   7.560 1.00 Pg
RAZ  12.740 1.00 Sg
QABG  6.360 1.00 Sg
GZV  20.580 1.00 Pg
# 2015 06 18 10 12 47.400000 36.035 50.570  10.0  1.6 0.0 0.0 0.0       562
GZV   9.240 1.00 Pg
GZV  16.360 1.00 Sg
MHD   7.540 1.00 Pg
RAZ  16.080 1.00 Pg
# 2015 06 18 18 25 28.200000 35.294 50.745  14.0  1.9 0.0 0.0 0.0       563
HSB   9.300 1.00 Pg
HSB  15.820 1.00 Sg
MHD   8.560 1.00 Pg
QABG 18.340 1.00 Pg
QOM  10.820 1.00 Pg
QOM  17.740 1.00 Sg
RAZ  14.220 1.00 Pg
VRN  16.780 1.00 Pg
# 2015 06 19 19 29 29.100000 36.433 50.076   8.0  2.4 0.0 0.0 0.0       564
GZV   3.420 1.00 Pg
MHD  17.820 1.00 Pg
QABG 14.060 0.00 Pg
QALM  8.820 1.00 Pg
QCNT  3.100 1.00 Pg
QOM  33.140 1.00 Pg
QSDN 14.660 1.00 Pg
RAZ  19.740 1.00 Pg
# 2015 06 20 11 05 32.100000 36.670 49.835  10.3  2.3 0.0 0.0 0.0       565
GZV   9.320 1.00 Pg
MHD  23.340 1.00 Pg
QALM 13.000 1.00 Pg
QSDN 11.760 1.00 Pg
QOM  37.920 0.50 Pn
RAZ  24.060 1.00 Pg
QSDN 19.360 1.00 Sg
GZV  15.200 1.00 Sg
HAGD 34.960 1.00 Pn
QABG 17.260 0.50 Pg
# 2015 06 20 12 33 30.600000 35.824 52.203  12.0  2.1 0.0 0.0 0.0       566
ANJ  26.920 1.00 Pg
HSB  16.600 1.00 Pg
LAS  15.680 1.00 Pg
PRN   8.600 1.00 Pg
QOM  25.240 1.00 Pg
SFB  27.380 1.00 Pg
SHM  17.440 1.00 Pg
VRN  18.000 1.00 Pg
RAZ  34.740 1.00 Pn
PRN  15.500 1.00 Sg
# 2015 06 20 14 43 01.600000 35.978 51.813   9.9  2.4 0.0 0.0 0.0       567
GLO  32.360 1.00 Pg
HSB  13.060 1.00 Pg
LAS  20.800 1.00 Pg
MHD  19.200 1.00 Pg
PRN   9.800 1.00 Pg
QALM 19.700 1.00 Pg
QOM  23.940 1.00 Pg
RAZ  30.100 1.00 Pg
SHM  23.060 1.00 Pg
TEH   8.440 1.00 Pg
VRN  18.760 1.00 Pg
TEH  14.980 1.00 Sg
# 2015 06 21 00 52 26.500000 36.577 53.132  10.0  1.6 0.0 0.0 0.0       568
GLO  11.380 1.00 Pg
LAS  23.340 1.00 Pg
PRN  14.320 1.00 Pg
SHM  15.300 1.00 Pg
PRN  24.940 1.00 Sg
# 2015 06 21 02 09 15.400000 36.603 53.110  10.0  1.7 0.0 0.0 0.0       569
GLO  11.820 1.00 Pg
LAS  23.950 1.00 Pg
PRN  14.160 1.00 Pg
SHM  15.670 1.00 Pg
PRN  24.880 1.00 Sg
# 2015 06 21 02 59 55.300000 36.666 53.125  10.0  1.8 0.0 0.0 0.0       570
GLO  11.920 1.00 Pg
SHM  16.380 1.00 Pg
QALM 36.100 1.00 Pn
LAS  25.450 1.00 Pg
# 2015 06 21 04 45 05.900000 36.573 53.160  10.0  1.8 0.0 0.0 0.0       571
GLO  11.060 1.00 Pg
LAS  22.900 1.00 Pg
PRN  14.720 1.00 Pg
SHM  14.850 1.00 Pg
SHM  27.050 1.00 Sg
# 2015 06 21 05 22 09.000000 36.528 53.164  10.0  1.9 0.0 0.0 0.0       572
ANJ  23.370 1.00 Pg
GLO  10.960 1.00 Pg
LAS  22.850 1.00 Pg
PRN  14.180 1.00 Pg
SHM  14.190 1.00 Pg
# 2015 06 21 06 54 51.100000 36.604 53.127  10.0  1.9 0.0 0.0 0.0       573
ANJ  25.320 1.00 Pg
GLO  11.520 1.00 Pg
PRN  14.440 1.00 Pg
SHM  15.700 1.00 Pg
# 2015 06 21 07 31 53.100000 34.415 50.979  10.0  1.9 0.0 0.0 0.0       574
VRN  16.760 1.00 Pg
SFB  19.440 1.00 Pg
QOM   9.220 1.00 Pg
RAZ  25.000 1.00 Pg
QABG 32.760 1.00 Pg
KLH  23.650 1.00 Pg
# 2015 06 21 14 20 37.900000 35.360 50.184  10.0  1.8 0.0 0.0 0.0       575
MHD  10.820 1.00 Pg
QALM 21.480 1.00 Pg
QOM  17.100 1.00 Pg
RAZ   4.960 1.00 Pg
# 2015 06 22 07 36 20.100000 36.621 49.921   7.5  2.4 0.0 0.0 0.0       576
RAZ  23.840 1.00 Pg
QSDN 12.660 1.00 Pg
QALM 11.360 1.00 Pg
MHD  22.300 1.00 Pg
HSH  40.100 1.00 Pn
GZV   7.580 1.00 Pg
QABG 17.540 1.00 Pg
QSDN 21.340 1.00 Sg
# 2015 06 22 10 38 29.000000 36.068 50.505  10.0  1.4 0.0 0.0 0.0       577
RAZ  16.440 1.00 Pg
QALM  7.440 1.00 Pg
QABG 15.420 1.00 Pg
MHD   8.520 1.00 Pg
GZV   9.000 1.00 Pg
# 2015 06 22 11 45 57.300000 34.761 52.659  12.5  1.8 0.0 0.0 0.0       578
ANJ  23.400 1.00 Pg
KLH  31.150 1.00 Pg
LAS  13.400 1.00 Pg
ZEF  33.880 1.00 Pn
VRN  15.300 1.00 Pg
SHM  22.030 1.00 Pg
SFB  10.780 1.00 Pg
LAS  22.920 1.00 Sg
# 2015 06 22 15 24 48.700000 35.822 52.227  10.0  1.7 0.0 0.0 0.0       579
ANJ  26.200 1.00 Pg
PRN   8.420 1.00 Pg
SFB  26.880 1.00 Pg
SHM  17.400 1.00 Pg
VRN  17.840 1.00 Pg
VRN  30.540 1.00 Sg
# 2015 06 22 21 54 24.000000 36.592 53.130  10.0  1.8 0.0 0.0 0.0       580
GLO  11.640 1.00 Pg
LAS  24.180 1.00 Pg
PRN  14.480 1.00 Pg
QALM 35.940 1.00 Pn
SHM  14.960 1.00 Pg
SHM  27.520 1.00 Sg
# 2015 06 22 23 11 21.900000 36.652 53.110  14.0  2.1 0.0 0.0 0.0       581
GLO  11.940 1.00 Pg
LAS  24.350 1.00 Pg
PRN  14.840 1.00 Pg
QALM 35.040 1.00 Pn
SHM  16.160 1.00 Pg
SFB  40.880 1.00 Pn
PRN  25.280 1.00 Sg
# 2015 06 22 23 15 18.000000 35.830 52.164  10.0  1.4 0.0 0.0 0.0       582
PRN   8.840 1.00 Pg
SFB  27.920 1.00 Pg
SHM  17.840 1.00 Pg
VRN  18.240 1.00 Pg
QOM  25.260 1.00 Pg
PRN  15.520 1.00 Sg
# 2015 06 23 06 54 05.500000 34.273 50.169  10.0  2.1 0.0 0.0 0.0       583
QOM  18.760 1.00 Pg
QABG 29.580 1.00 Pg
HSAM 24.040 1.00 Pg
HAGD 19.380 1.00 Pg
DOB  33.540 1.00 Pg
QOM  31.060 1.00 Sg
# 2015 06 23 15 22 05.100000 36.514 50.884  10.0  1.6 0.0 0.0 0.0       584
GZV  11.520 1.00 Pg
QABG 23.320 0.50 Pg
QALM  4.580 1.00 Pg
QSDN 26.280 1.00 Pg
RAZ  26.060 1.00 Pg
QALM  8.260 1.00 Sg
GZV  19.580 1.00 Sg
# 2015 06 24 09 48 19.000000 35.958 53.050  13.0  1.9 0.0 0.0 0.0       585
ANJ  16.150 1.00 Pg
LAS  11.640 1.00 Pg
PRN  12.440 1.00 Pg
SHM   5.680 1.00 Pg
SFB  31.680 1.00 Pg
GLO  16.280 1.00 Pg
# 2015 06 24 12 02 06.900000 35.839 53.866  10.0  1.6 0.0 0.0 0.0       586
ANJ   7.520 1.00 Pg
GLO  13.160 1.00 Pg
SHM   9.670 1.00 Pg
ANJ  13.680 1.00 Sg
# 2015 06 24 18 23 18.400000 34.327 52.476  10.0  1.9 0.0 0.0 0.0       587
KLH  24.340 1.00 Pg
KRSH  9.680 1.00 Pg
LAS  21.900 1.00 Pg
QAMS 20.700 1.00 Pg
SFB   4.520 1.00 Pg
VRN  17.500 1.00 Pg
ZEF  27.260 1.00 Pg
# 2015 06 25 01 50 02.400000 35.922 53.014   9.2  2.1 0.0 0.0 0.0       588
ANJ  16.780 1.00 Pg
GLO  17.040 1.00 Pg
LAS  11.000 1.00 Pg
PRN  12.600 1.00 Pg
QALM 36.040 1.00 Pn
SHM   5.650 1.00 Pg
VRN  26.560 1.00 Pg
# 2015 06 25 04 56 58.200000 35.925 53.046  10.0  1.4 0.0 0.0 0.0       589
LAS  11.330 1.00 Pg
SHM   4.920 1.00 Pg
ANJ  16.270 1.00 Pg
SHM   9.210 1.00 Sg
LAS  19.060 1.00 Sg
# 2015 06 25 07 16 31.500000 35.213 53.299  13.6  3.8 0.0 0.0 0.0       590
AFRZ 77.580 0.00 Pn
ANAR 35.940 1.00 Pn
ANJ  10.760 1.00 Pg
BAF  65.050 1.00 Pn
BMDN 65.400 0.00 Pn
CHK  51.160 1.00 Pn
DAH  91.090 0.00 Pn
EMG  75.470 0.00 Pn
GLO  25.620 1.00 Pg
GZV  48.400 0.00 Pn
HAGD 56.640 0.00 Pn
HSAM 64.940 0.00 Pn
HSB  30.340 1.00 Pg
KLH  40.560 0.00 Pn
KLNJ 69.840 0.00 Pn
KOO  84.300 0.00 Pn
KRSH 29.020 1.00 Pg
LAS   7.530 1.00 Pg
KRD  81.420 0.00 Pn
MEH  62.990 0.00 Pn
MHD  38.620 0.00 Pn
MND  45.040 0.00 Pn
MON  86.340 0.00 Pn
PIR  54.210 0.00 Pn
PRN  25.000 0.00 Pg
QALM 42.340 0.00 Pn
QAMS 37.080 0.00 Pn
QOM  33.220 0.00 Pn
RAM  56.400 1.00 Pn
SAD  53.700 0.00 Pn
SBZV 59.100 1.00 Pn
SFB  23.200 1.00 Pg
SFR  67.080 1.00 Pn
SHM  11.810 1.00 Pg
TEG  78.270 0.00 Pn
TEH  30.800 1.00 Pg
TKDS 56.740 1.00 Pn
TNSJ 49.260 1.00 Pn
TPRV 57.200 1.00 Pn
VRN  24.400 1.00 Pg
ZEF  41.310 1.00 Pn
THKV 35.240 0.00 Pn
SHRO 40.240 1.00 Pn
MRVT 53.080 1.00 Pn
GHVR 33.540 1.00 Pg
CHTH 33.800 0.00 Pn
# 2015 06 25 12 12 12.700000 35.894 53.089  10.0  1.0 0.0 0.0 0.0       591
ANJ  15.340 1.00 Pg
LAS  10.660 1.00 Pg
SHM   4.120 1.00 Pg
SHM   7.920 1.00 Sg
GLO  16.820 1.00 Pg
# 2015 06 25 22 44 50.000000 37.201 50.178   9.0  3.4 0.0 0.0 0.0       592
GLO  50.720 1.00 Pn
GZV  16.380 1.00 Pg
HAGD 42.400 0.00 Pn
DOB  60.060 0.00 Pn
DHR  64.060 0.00 Pn
SRB  37.720 1.00 Pn
SHM  49.840 0.00 Pn
SFB  53.900 0.00 Pn
RAZ  31.980 0.00 Pn
QCNT 17.300 1.00 Pg
QAMS 57.800 0.00 Pn
QALM 16.620 1.00 Pg
PRN  35.660 1.00 Pn
MHD  29.400 0.00 Pg
LAS  50.150 0.00 Pn
KRSH 59.080 0.00 Pn
HSH  40.070 1.00 Pn
HSB  36.100 0.00 Pn
HSAM 53.060 0.00 Pn
HRS  47.410 1.00 Pn
HALM 47.820 1.00 Pn
GHVR 46.370 0.00 Pn
MRVT 72.840 1.00 Pn
CHTH 28.570 1.00 Pg
GRMI 41.760 1.00 Pn
ZNJK 24.950 1.00 Pg
THKV 24.820 0.00 Pg
# 2015 06 25 22 59 38.800000 37.047 50.156  25.5  2.0 0.0 0.0 0.0       593
GZV  13.760 1.00 Pg
QALM 14.140 1.00 Pg
QSDN 18.160 1.00 Pg
RAZ  30.340 1.00 Pg
SRB  35.680 1.00 Pn
GZV  23.140 1.00 Sg
# 2015 06 26 11 05 53.400000 37.060 50.122  16.6  2.6 0.0 0.0 0.0       594
GZV  13.960 0.00 Pg
MHD  27.040 1.00 Pg
QALM 14.440 1.00 Pg
QALM 24.880 1.00 Sg
QSDN 18.280 1.00 Pg
GZV  23.520 1.00 Sg
QSDN 30.580 1.00 Sg
RAZ  30.000 0.50 Pg
