# 2015 03 07 09 15 31.500000 35.353 49.189  10.0  1.7 0.0 0.0 0.0       276
HAGD 10.620 1.00 Pg
HALM 19.440 1.00 Pg
HSAM 23.620 1.00 Pg
QABG  8.940 1.00 Pg
RAZ  12.800 1.00 Pg
RAZ  21.300 1.00 Sg
HAGD 18.480 1.00 Sg
# 2015 03 07 09 33 32.100000 36.068 50.585  10.0  1.5 0.0 0.0 0.0       277
GZV   9.220 1.00 Pg
MHD   8.280 1.00 Pg
QALM  7.200 1.00 Pg
QALM 13.700 1.00 Sg
RAZ  16.440 1.00 Pg
# 2015 03 08 03 21 32.100000 35.673 51.911  10.2  1.9 0.0 0.0 0.0       278
FIR  14.000 1.00 Pg
MHD  19.600 1.00 Pg
HSB  11.420 1.00 Pg
FIR  23.800 1.00 Sg
KRSH 31.580 1.00 Pg
# 2015 03 08 11 50 44.700000 37.033 49.894  10.0  2.3 0.0 0.0 0.0       279
GZV  14.340 1.00 Pg
QABG 25.180 1.00 Pg
QABG 45.940 1.00 Sg
MHD  49.640 1.00 Sg
MHD  28.560 1.00 Pg
# 2015 03 08 17 39 57.700000 36.836 50.180  10.0  2.2 0.0 0.0 0.0       280
QABG 23.340 1.00 Pg
QALM 11.100 1.00 Pg
RAZ  28.100 1.00 Pg
QALM 19.420 1.00 Sg
# 2015 03 09 10 40 09.200000 35.775 52.005  22.8  2.2 0.0 0.0 0.0       281
VRN  15.760 1.00 Pg
QOM  21.900 1.00 Pg
QAM  36.560 1.00 Pn
QABG 33.740 1.00 Pn
KRSH 31.660 1.00 Pn
FIR  11.200 1.00 Pg
ANJ  29.460 1.00 Pg
VRN  27.660 1.00 Sg
PRN  11.520 1.00 Pg
LAS  17.100 1.00 Pg
HSB  13.220 1.00 Pg
# 2015 03 11 00 47 22.800000 35.972 53.243   8.0  1.6 0.0 0.0 0.0       282
SHM   3.780 1.00 Pg
SFB  33.220 1.00 Pn
LAS  12.940 1.00 Pg
KRSH 39.240 1.00 Pn
FIR  10.300 1.00 Pg
LAS  21.400 1.00 Sg
# 2015 03 11 11 42 20.200000 35.349 50.212  10.0  1.9 0.0 0.0 0.0       283
RAZ   4.640 1.00 Pg
QOM  16.780 1.00 Pg
QALM 21.680 1.00 Pg
MHD  10.640 1.00 Pg
HAGD 20.420 1.00 Pg
VRN  24.900 1.00 Pg
QOM  29.140 1.00 Sg
# 2015 03 12 01 24 14.300000 34.310 51.796  16.0  1.8 0.0 0.0 0.0       284
KLH  19.290 1.00 Pg
KRSH  9.500 1.00 Pg
QAM  12.580 1.00 Pg
SFB   7.700 1.00 Pg
ZEF  27.350 1.00 Pg
QAM  21.500 1.00 Sg
# 2015 03 12 08 49 09.300000 35.668 51.458  11.6  2.1 0.0 0.0 0.0       285
ANJ  36.410 1.00 Pn
FIR  19.840 1.00 Pg
HSB   6.180 1.00 Pg
KLH  41.230 1.00 Pn
MHD  13.320 1.00 Pg
LAS  25.070 1.00 Pg
PIR  49.650 1.00 Pn
QABG 28.060 1.00 Pg
QALM 19.380 1.00 Pg
QOM  16.960 1.00 Pg
QAM  34.140 1.00 Pn
RAZ  24.880 1.00 Pg
SFB  26.440 0.50 Pg
VRN  13.180 1.00 Pg
VRN  24.800 1.00 Sg
# 2015 03 12 16 04 31.100000 36.275 52.554  10.0  1.7 0.0 0.0 0.0       286
FIR  12.500 1.00 Pg
GLO  20.800 1.00 Pg
PRN   4.100 1.00 Pg
QALM 28.840 1.00 Pg
SFB  35.280 1.00 Pn
VRN  27.640 1.00 Pg
PRN   7.980 1.00 Sg
ANJ  26.370 1.00 Pg
# 2015 03 12 16 06 00.800000 36.305 52.538  10.0  1.7 0.0 0.0 0.0       287
FIR  12.780 1.00 Pg
ANJ  26.890 1.00 Pg
GLO  20.780 1.00 Pg
PRN   4.000 1.00 Pg
PRN   7.640 1.00 Sg
SFB  34.960 1.00 Pn
VRN  28.000 1.00 Pg
LAS  19.970 1.00 Pg
QALM 29.080 1.00 Pg
# 2015 03 13 07 04 41.700000 36.291 50.264  12.7  2.4 0.0 0.0 0.0       288
GZV   3.260 1.00 Pg
VRN  32.100 1.00 Pg
RAZ  18.640 1.00 Pg
QOM  28.980 1.00 Pg
QALM  4.860 0.00 Pg
QABG 15.000 1.00 Pg
MHD  13.580 1.00 Pg
PRN  30.780 1.00 Pg
GZV   6.100 1.00 Sg
# 2015 03 13 07 39 42.800000 36.824 51.035   8.0  2.1 0.0 0.0 0.0       289
FIR  34.460 1.00 Pn
GZV  15.820 1.00 Pg
PRN  22.740 1.00 Pg
QALM  9.700 1.00 Pg
RAZ  31.660 1.00 Pg
PRN  40.760 1.00 Sg
# 2015 03 13 12 30 19.200000 35.039 53.133  22.0  1.5 0.0 0.0 0.0       290
VRN  21.460 1.00 Pg
SFB  19.180 1.00 Pg
LAS   9.290 1.00 Pg
KRSH 25.140 1.00 Pg
FIR  13.640 1.00 Pg
ANJ  14.870 1.00 Pg
LAS  14.230 1.00 Sg
# 2015 03 14 05 14 45.000000 35.853 53.120  11.3  2.2 0.0 0.0 0.0       291
ANJ  14.510 1.00 Pg
VRN  27.600 1.00 Pg
SFB  31.600 1.00 Pg
LAS   9.910 1.00 Pg
KRSH 37.780 1.00 Pn
PRN  13.480 1.00 Pg
GLO  17.600 1.00 Pg
FIR   7.900 1.00 Pg
FIR  13.880 1.00 Sg
QALM 37.440 1.00 Pn
# 2015 03 14 13 17 10.100000 35.530 53.075  11.7  1.7 0.0 0.0 0.0       292
ANJ  13.630 1.00 Pg
FIR   6.240 1.00 Pg
LAS   4.300 1.00 Pg
SFB  26.100 1.00 Pg
KRSH 31.960 1.00 Pg
# 2015 03 14 13 28 18.200000 36.097 50.473  10.0  1.1 0.0 0.0 0.0       293
MHD   8.620 1.00 Pg
QALM  7.340 1.00 Pg
QABG 15.460 1.00 Pg
RAZ  16.980 1.00 Pg
QALM 13.540 1.00 Sg
# 2015 03 15 00 29 33.200000 36.130 53.554   5.0  3.9 0.0 0.0 0.0       294
ZEF  56.210 0.00 Pn
TPRV 64.780 1.00 Pn
TNSJ 54.660 1.00 Pn
TKDS 62.280 1.00 Pn
TEG  83.490 0.00 Pn
SRB  78.140 0.00 Pn
SHK1 70.360 0.00 Pn
SFB  37.500 0.00 Pn
SBZV 55.360 1.00 Pn
SAD  67.080 0.00 Pn
RAZ  51.900 0.00 Pn
RAM  71.180 0.00 Pn
QAM  49.560 0.00 Pn
QALM 42.100 1.00 Pn
QABG 53.720 0.00 Pn
PRN  19.820 1.00 Pg
PIR  66.600 0.00 Pn
PAY  69.530 0.00 Pn
NHDN 107.960 0.00 Pn
MYA  82.390 0.00 Pn
MRD  102.860 0.00 Pn
MON  89.710 0.00 Pn
MND  33.840 1.00 Pn
MHD  43.200 0.00 Pn
MEH  75.650 0.00 Pn
LAS  17.710 1.00 Pg
KRSH 43.020 0.00 Pn
KRD  76.760 0.00 Pn
KOO  89.560 0.00 Pn
KMR  78.820 0.00 Pn
KLH  54.490 0.00 Pn
KLNJ 84.340 0.00 Pn
HSB  36.860 0.00 Pn
HSAM 72.220 0.00 Pn
HRS  87.140 0.00 Pn
HALM 73.420 0.00 Pn
GZV  48.840 0.00 Pn
GLO   8.960 1.00 Pg
GAR  64.370 0.00 Pn
FIR  15.720 1.00 Pg
DAH  95.160 0.00 Pn
CHMN 107.200 0.00 Pn
CHK  63.500 0.00 Pn
ANJ  14.760 1.00 Pg
ANAR 49.400 1.00 Pn
DOB  79.740 0.00 Pn
AKL  67.710 1.00 Pn
AFRZ 81.460 0.00 Pn
ZNJK 65.540 0.00 Pn
BSRN 92.610 0.00 Pn
ASAO 53.590 0.00 Pn
YZKH 58.780 0.00 Pn
CHTH 37.340 1.00 Pn
GHVR 42.000 0.00 Pn
DAMV 26.640 1.00 Pg
SHRO 36.380 1.00 Pn
ANJ  25.280 1.00 Sg
# 2015 03 15 07 52 47.400000 35.584 53.081  10.0  1.6 0.0 0.0 0.0       295
FIR   6.280 1.00 Pg
LAS   4.360 1.00 Pg
LAS   9.500 1.00 Sg
VRN  23.780 1.00 Pg
GLO  21.520 1.00 Pg
# 2015 03 15 11 02 59.500000 34.965 50.006  10.0  1.1 0.0 0.0 0.0       296
HAGD 14.260 1.00 Pg
RAZ   8.960 1.00 Pg
RAZ  15.820 1.00 Sg
QABG 16.180 1.00 Pg
# 2015 03 15 17 56 30.300000 36.355 51.995  10.0  2.1 0.0 0.0 0.0       297
GLO  27.920 1.00 Pg
GLO  50.840 1.00 Sg
GZV  28.700 1.00 Pg
GZV  48.660 1.00 Sg
PRN   6.040 1.00 Pg
PRN  11.440 1.00 Sg
QALM 20.500 1.00 Pg
RAZ  36.760 1.00 Pn
# 2015 03 16 08 26 03.700000 36.218 49.745  10.0  2.2 0.0 0.0 0.0       298
GZV   9.240 1.00 Pg
MHD  18.480 1.00 Pg
MHD  31.220 1.00 Sg
QABG 10.060 1.00 Pg
QALM 14.220 1.00 Pg
RAZ  16.840 1.00 Pg
# 2015 03 16 10 06 28.400000 36.079 50.562  10.0  1.6 0.0 0.0 0.0       299
GZV   9.140 1.00 Pg
MHD   8.060 1.00 Pg
QALM  6.940 1.00 Pg
QALM 13.280 1.00 Sg
RAZ  16.300 1.00 Pg
SFB  39.420 1.00 Pn
# 2015 03 16 12 48 59.300000 34.068 49.375  10.0  2.1 0.0 0.0 0.0       300
HAGD 15.000 1.00 Pg
HSAM 13.120 1.00 Pg
QABG 29.840 1.00 Pg
QOM  30.700 1.00 Pg
RAZ  27.240 1.00 Pg
HAGD 27.100 1.00 Sg
HALM 24.680 1.00 Pg
# 2015 03 16 13 19 53.600000 34.655 51.246  10.0  2.0 0.0 0.0 0.0       301
KLH  25.850 1.00 Pg
KRSH 19.120 1.00 Pg
MHD  21.540 1.00 Pg
QAM  18.120 1.00 Pg
QOM   6.140 1.00 Pg
RAZ  24.820 1.00 Pg
SFB  16.920 1.00 Pg
VRN  10.860 1.00 Pg
QAM  31.480 1.00 Sg
# 2015 03 16 13 22 41.100000 34.100 49.336  10.0  2.2 0.0 0.0 0.0       302
HAGD 14.720 1.00 Pg
HALM 23.680 1.00 Pg
HSAM 12.360 1.00 Pg
KLH  36.450 1.00 Pn
KRSH 41.640 1.00 Pn
PIR  34.540 1.00 Pn
QABG 29.520 1.00 Pg
QAM  32.680 1.00 Pg
QOM  30.300 1.00 Pg
RAZ  27.080 1.00 Pg
HSAM 21.820 1.00 Sg
# 2015 03 16 13 34 49.600000 34.552 50.895  10.0  1.3 0.0 0.0 0.0       303
KRSH 22.760 1.00 Pg
KLH  26.110 1.00 Pg
QOM   6.640 1.00 Pg
SFB  21.740 1.00 Pg
VRN  16.000 1.00 Pg
# 2015 03 16 19 43 38.500000 36.165 50.921   8.0  1.7 0.0 0.0 0.0       304
GZV  12.020 1.00 Pg
HSB  15.220 1.00 Pg
MHD  10.980 1.00 Pg
QABG 20.820 0.00 Pg
QALM  7.120 1.00 Pg
RAZ  21.380 1.00 Pg
SFB  38.080 1.00 Pn
VRN  25.280 1.00 Pg
PRN  22.340 1.00 Pg
QALM 12.780 1.00 Sg
# 2015 03 16 19 56 03.300000 35.383 52.350   8.2  2.4 0.0 0.0 0.0       305
ANJ  24.110 1.00 Pg
GLO  32.260 1.00 Pg
HSB  17.260 1.00 Pg
KLH  38.480 1.00 Pn
LAS   9.710 1.00 Pg
MHD  26.220 1.00 Pg
PRN  16.580 1.00 Pg
QAM  32.520 1.00 Pg
QOM  22.380 1.00 Pg
RAZ  35.600 1.00 Pn
SFB  19.780 1.00 Pg
VRN  13.340 1.00 Pg
ZEF  43.520 1.00 Pn
LAS  17.130 1.00 Sg
# 2015 03 17 12 38 11.100000 34.667 50.878  19.3  2.2 0.0 0.0 0.0       306
MHD  19.700 1.00 Pg
QOM   5.680 1.00 Pg
QOM   9.980 1.00 Sg
VRN  15.000 1.00 Pg
# 2015 03 17 12 47 31.400000 36.778 52.089  12.0  2.3 0.0 0.0 0.0       307
GLO  26.680 1.00 Pg
ANJ  37.190 1.00 Pn
GZV  29.500 1.00 Pg
GZV  50.540 1.00 Sg
MHD  30.680 1.00 Pg
PRN  12.000 1.00 Pg
QALM 22.120 1.00 Pg
# 2015 03 17 18 17 18.600000 34.655 50.901  18.0  1.7 0.0 0.0 0.0       308
HAGD 27.560 1.00 Pg
QOM   5.840 1.00 Pg
QAM  19.080 1.00 Pg
RAZ  20.780 1.00 Pg
VRN  15.000 1.00 Pg
VRN  25.940 1.00 Sg
# 2015 03 18 01 18 07.400000 35.639 51.907  16.0  2.2 0.0 0.0 0.0       309
ANJ  30.960 1.00 Pg
GZV  29.320 1.00 Pg
HSB  11.480 1.00 Pg
KRSH 30.360 1.00 Pg
LAS  17.240 1.00 Pg
MHD  19.460 1.00 Pg
PRN  13.400 1.00 Pg
QABG 32.600 1.00 Pn
QAM  33.920 1.00 Pn
QOM  20.000 1.00 Pg
RAZ  30.280 1.00 Pg
SFB  24.480 1.00 Pg
VRN  13.180 1.00 Pg
QALM 23.700 1.00 Pg
# 2015 03 18 09 16 40.400000 35.618 51.448  14.9  1.9 0.0 0.0 0.0       310
VRN  12.820 1.00 Pg
SFB  25.820 1.00 Pg
RAZ  24.620 1.00 Pg
QOM  16.760 1.00 Pg
QABG 27.700 1.00 Pg
LAS  23.740 1.00 Pg
KRSH 31.280 1.00 Pg
ANJ  36.030 1.00 Pn
# 2015 03 18 19 52 16.900000 35.149 52.298  10.0  1.6 0.0 0.0 0.0       311
LAS  11.740 1.00 Pg
KLH  35.000 1.00 Pn
ANJ  26.180 1.00 Pg
# 2015 03 18 19 53 12.200000 35.058 52.428  10.0  1.6 0.0 0.0 0.0       312
ANJ  24.770 1.00 Pg
KLH  34.340 1.00 Pn
LAS  10.880 1.00 Pg
# 2015 03 18 21 15 36.300000 35.287 52.159  10.0  2.0 0.0 0.0 0.0       313
ANJ  26.730 1.00 Pg
GLO  33.440 1.00 Pn
HSB  14.700 1.00 Pg
PRN  18.420 1.00 Pg
SFB  18.360 1.00 Pg
SFB  31.700 1.00 Sg
LAS  13.530 1.00 Pg
LAS  23.120 1.00 Sg
# 2015 03 18 23 00 26.200000 37.121 53.488   8.1  2.4 0.0 0.0 0.0       314
ANJ  32.060 1.00 Pg
GLO  13.240 1.00 Pg
LAS  33.080 1.00 Pg
PRN  23.660 1.00 Pg
PRN  41.800 1.00 Sg
GLO  22.560 1.00 Sg
# 2015 03 19 06 59 32.000000 35.533 53.225  10.0  1.1 0.0 0.0 0.0       315
ANJ  11.370 1.00 Pg
LAS   5.740 1.00 Pg
KRSH 33.000 1.00 Pg
SFB  27.520 1.00 Pg
# 2015 03 19 18 56 49.900000 35.884 53.062  10.0  1.4 0.0 0.0 0.0       316
ANJ  15.010 1.00 Pg
LAS  10.500 1.00 Pg
PRN  13.660 1.00 Pg
SFB  31.140 1.00 Pg
GLO  17.160 1.00 Pg
PRN  22.640 1.00 Sg
# 2015 03 19 21 07 07.000000 36.324 50.870  10.0  1.5 0.0 0.0 0.0       317
PRN  23.140 1.00 Pg
QABG 23.300 1.00 Pg
QALM  4.020 1.00 Pg
RAZ  23.320 1.00 Pg
QALM  9.040 1.00 Sg
# 2015 03 19 23 28 42.400000 35.850 52.409  12.0  1.5 0.0 0.0 0.0       318
ANJ  23.950 1.00 Pg
LAS  13.020 1.00 Pg
PRN   7.920 1.00 Pg
RAZ  33.000 0.50 Pn
SFB  28.140 1.00 Pg
KRSH 34.100 1.00 Pn
PRN  14.540 1.00 Sg
# 2015 03 20 05 30 35.000000 35.830 51.845  10.0  1.8 0.0 0.0 0.0       319
LAS  19.240 1.00 Pg
PRN  11.220 1.00 Pg
QALM 21.680 1.00 Pg
# 2015 03 20 20 23 49.100000 34.874 51.846  16.9  2.4 0.0 0.0 0.0       320
QABG 34.860 1.00 Pn
MHD  24.540 1.00 Pg
SFB  12.240 1.00 Pg
RAZ  30.420 1.00 Pg
QAM  22.100 1.00 Pg
QALM 32.240 1.00 Pn
PRN  26.160 1.00 Pg
KRSH 17.820 1.00 Pg
HSB  14.920 1.00 Pg
ANAR 39.880 1.00 Pn
ZEF  35.650 1.00 Pn
KLH  28.760 1.00 Pg
HSB  25.180 1.00 Sg
# 2015 03 20 22 37 14.300000 36.438 51.907   4.0  2.3 0.0 0.0 0.0       321
HSB  21.500 1.00 Pg
PRN   8.020 1.00 Pg
QABG 35.280 0.50 Pn
QALM 19.720 1.00 Pg
SFB  39.000 1.00 Pn
MHD  24.880 1.00 Pg
QALM 35.140 1.00 Sg
PRN  14.160 1.00 Sg
# 2015 03 22 11 31 51.100000 34.542 52.756  12.0  2.3 0.0 0.0 0.0       322
ANAR 29.380 1.00 Pg
KLH  28.520 1.00 Pg
KRSH 15.280 1.00 Pg
QOM  26.720 1.00 Pg
SFB   9.660 1.00 Pg
VRN  18.800 1.00 Pg
ZEF  30.850 1.00 Pg
SFB  17.100 1.00 Sg
# 2015 03 23 19 41 00.200000 35.368 51.017  10.0  1.7 0.0 0.0 0.0       323
RAZ  17.540 1.00 Pg
MHD   8.640 1.00 Pg
HSB   4.320 1.00 Pg
LAS  30.520 1.00 Pg
RAZ  29.340 1.00 Sg
SFB  26.160 1.00 Pg
KLH  37.920 1.00 Pn
# 2015 03 24 00 23 02.800000 35.582 49.699   8.1  2.0 0.0 0.0 0.0       324
GZV  18.240 1.00 Pg
HAGD 17.860 1.00 Pg
HSAM 31.020 1.00 Pg
HSB  24.520 1.00 Pg
MHD  15.760 1.00 Pg
QABG  3.480 1.00 Pg
QALM 21.880 1.00 Pg
RAZ   5.560 1.00 Pg
QABG  6.540 1.00 Sg
# 2015 03 24 16 11 08.800000 37.303 53.919  24.5  2.6 0.0 0.0 0.0       325
ANJ  32.630 1.00 Pn
GLO  14.960 1.00 Pg
LAS  35.720 1.00 Pn
PRN  27.800 0.50 Pg
MND  21.480 1.00 Pg
QALM 45.760 1.00 Pn
GLO  26.220 1.00 Sg
# 2015 03 24 19 37 31.400000 36.553 52.342  10.0  2.0 0.0 0.0 0.0       326
ANJ  30.960 1.00 Pg
GLO  23.780 1.00 Pg
LAS  24.330 1.00 Pg
PRN   7.200 1.00 Pg
QALM 26.160 1.00 Pg
PRN  11.520 1.00 Sg
# 2015 03 25 00 02 13.900000 35.767 49.896  10.0  0.8 0.0 0.0 0.0       327
QABG  5.660 1.00 Pg
QALM 17.500 1.00 Pg
RAZ   7.980 1.00 Pg
RAZ  13.040 1.00 Sg
# 2015 03 25 01 44 50.200000 36.732 52.879   8.0  2.2 0.0 0.0 0.0       328
ANJ  28.890 1.00 Pg
FIR  21.060 1.00 Pg
GLO  16.280 1.00 Pg
LAS  25.030 1.00 Pg
MHD  37.200 1.00 Pn
PRN  13.300 1.00 Pg
QALM 34.460 1.00 Pn
SFB  42.580 1.00 Pn
PRN  23.260 1.00 Sg
# 2015 03 26 04 54 10.200000 36.613 51.503   8.0  2.4 0.0 0.0 0.0       329
ANJ  40.380 1.00 Pn
FIR  26.720 1.00 Pg
GLO  34.540 1.00 Pn
LAS  31.010 1.00 Pg
MHD  22.360 1.00 Pg
PRN  15.520 1.00 Pg
QALM 13.780 1.00 Pg
QOM  33.440 1.00 Pn
VRN  30.180 1.00 Pg
PRN  26.360 1.00 Sg
# 2015 03 26 19 12 57.900000 35.912 53.280  10.0  1.2 0.0 0.0 0.0       330
PRN  15.720 1.00 Pg
LAS  12.020 1.00 Pg
GLO  14.640 1.00 Pg
ANJ  12.910 1.00 Pg
PRN  27.620 1.00 Sg
# 2015 03 27 02 37 35.200000 36.329 52.944   1.5  2.6 0.0 0.0 0.0       331
ANJ  24.480 1.00 Pg
GLO  15.160 1.00 Pg
GZV  40.920 1.00 Pn
KLH  54.410 1.00 Pn
LAS  19.750 1.00 Pg
PRN  10.100 1.00 Pg
QALM 32.200 0.00 Pn
QAM  48.760 1.00 Pn
SFB  38.080 1.00 Pn
PRN  18.300 1.00 Sg
# 2015 03 27 11 41 48.000000 35.577 49.492   4.4  1.2 0.0 0.0 0.0       332
HAGD 16.880 1.00 Pg
QABG  3.100 1.00 Pg
RAZ   8.180 1.00 Pg
MHD  20.160 1.00 Pg
QABG  6.080 1.00 Sg
# 2015 03 27 16 59 47.700000 35.548 49.795  10.0  1.6 0.0 0.0 0.0       333
GZV  18.000 1.00 Pg
MHD  14.600 1.00 Pg
QALM 21.180 1.00 Pg
RAZ   4.320 1.00 Pg
QOM  23.660 1.00 Pg
RAZ   7.600 1.00 Sg
# 2015 03 28 01 31 55.100000 34.115 51.864  16.0  1.5 0.0 0.0 0.0       334
KLH  15.940 1.00 Pg
KRSH  6.420 1.00 Pg
QAM  10.220 1.00 Pg
SFB   8.480 1.00 Pg
ZEF  24.000 1.00 Pg
SFB  14.260 1.00 Sg
# 2015 03 28 09 40 17.600000 35.383 50.181  11.9  1.4 0.0 0.0 0.0       335
HAGD 20.140 1.00 Pg
MHD  10.880 1.00 Pg
QABG 10.000 0.50 Pg
QALM 21.080 1.00 Pg
QOM  17.080 1.00 Pg
RAZ   4.900 1.00 Pg
RAZ   8.420 1.00 Sg
# 2015 03 28 17 19 15.900000 35.548 51.025  17.4  1.0 0.0 0.0 0.0       336
HSB   5.940 1.00 Pg
MHD   7.060 1.00 Pg
QABG 20.520 0.50 Pg
QALM 17.720 1.00 Pg
QOM  13.460 1.00 Pg
RAZ  17.480 1.00 Pg
HSB   9.420 1.00 Sg
# 2015 04 01 03 18 49.800000 35.284 52.191  16.9  2.5 0.0 0.0 0.0       337
ANJ  26.230 1.00 Pg
HSB  15.040 1.00 Pg
KLH  36.180 1.00 Pn
KRSH 24.840 1.00 Pg
LAS  12.790 1.00 Pg
SFB  18.600 1.00 Pg
RAZ  32.940 1.00 Pn
QAM  29.620 1.00 Pg
KRSH 42.840 1.00 Sg
QABG 36.760 1.00 Pn
# 2015 04 01 06 15 29.500000 35.313 52.209  18.0  1.7 0.0 0.0 0.0       338
LAS  12.470 1.00 Pg
SFB  18.460 1.00 Pg
VRN  10.480 1.00 Pg
ANJ  26.240 1.00 Pg
VRN  17.920 1.00 Sg
# 2015 04 05 14 30 34.100000 35.189 53.664  10.0  2.2 0.0 0.0 0.0       339
ANJ   7.440 1.00 Pg
KRSH 33.060 1.00 Pg
LAS  10.980 1.00 Pg
SFB  27.860 1.00 Pg
VRN  31.900 1.00 Pg
ZEF  43.180 1.00 Pn
# 2015 04 05 15 04 28.400000 35.280 53.606  10.0  2.4 0.0 0.0 0.0       340
ANJ   6.790 1.00 Pg
GLO  32.060 0.00 Pg
KRSH 33.040 1.00 Pg
LAS  10.550 1.00 Pg
ZEF  44.520 1.00 Pn
SFB  28.100 1.00 Pg
ANAR 36.700 1.00 Pn
# 2015 04 06 13 44 09.100000 35.334 50.228   2.2  1.5 0.0 0.0 0.0       341
HAGD 21.640 1.00 Pg
HSAM 33.120 1.00 Pg
MHD  10.840 1.00 Pg
QABG  9.960 0.50 Pg
QOM  17.640 1.00 Pg
RAZ   5.160 1.00 Pg
VRN  26.020 1.00 Pg
RAZ   9.520 1.00 Sg
# 2015 04 06 18 19 14.400000 35.197 52.253   8.5  3.0 0.0 0.0 0.0       342
ZEF  39.900 0.00 Pn
VRN  10.100 1.00 Pg
SFB  16.400 1.00 Pg
RAZ  34.220 1.00 Pn
QOM  20.000 1.00 Pg
QAM  29.120 1.00 Pg
QALM 32.100 0.00 Pg
QABG 37.040 0.00 Pn
PRN  20.100 1.00 Pg
PIR  44.690 0.00 Pn
MHD  25.660 0.00 Pg
LAS  12.010 1.00 Pg
HSB  16.440 1.00 Pg
HSAM 53.120 0.00 Pn
GZV  37.020 0.00 Pn
GLO  34.620 1.00 Pn
DAMV  9.910 1.00 Pg
CHTH 22.050 1.00 Pg
THKV 25.260 1.00 Pg
ASAO 35.710 0.00 Pn
KHMZ 42.000 1.00 Pn
NASN 42.670 1.00 Pn
TPRV 67.100 1.00 Pn
SFR  77.080 0.00 Pn
SBZV 70.700 1.00 Pn
RAM  56.510 0.00 Pn
KOO  94.550 1.00 Pn
KLH  35.270 1.00 Pn
HALM 55.920 1.00 Pn
# 2015 04 06 18 20 31.000000 35.200 52.281  18.6  2.4 0.0 0.0 0.0       343
ANJ  25.500 1.00 Pg
LAS  11.510 1.00 Pg
KLH  34.810 1.00 Pn
QOM  19.840 1.00 Pg
SFB  16.060 1.00 Pg
VRN   9.800 1.00 Pg
VRN  17.640 1.00 Sg
# 2015 04 06 18 45 39.300000 35.218 52.289  22.8  1.4 0.0 0.0 0.0       344
ANJ  24.990 1.00 Pg
LAS  11.580 1.00 Pg
QAM  29.300 1.00 Pg
QOM  20.560 1.00 Pg
SFB  16.620 1.00 Pg
VRN  10.140 1.00 Pg
VRN  17.900 1.00 Sg
# 2015 04 06 18 55 43.200000 35.703 49.967  10.0  1.5 0.0 0.0 0.0       345
QABG  6.460 1.00 Pg
QOM  23.120 1.00 Pg
RAZ   6.760 1.00 Pg
SFB  40.680 1.00 Pn
RAZ  11.160 1.00 Sg
# 2015 04 06 19 02 53.300000 36.671 53.606  10.0  1.6 0.0 0.0 0.0       346
ANJ  24.140 1.00 Pg
GLO   5.080 1.00 Pg
PRN  21.280 1.00 Pg
GLO   9.460 1.00 Sg
MND  51.680 1.00 Sg
# 2015 04 06 19 18 33.700000 35.185 52.303  10.0  1.7 0.0 0.0 0.0       347
ANJ  25.430 1.00 Pg
LAS  11.970 1.00 Pg
SFB  16.360 1.00 Pg
VRN  10.180 1.00 Pg
# 2015 04 07 00 58 34.200000 35.889 49.052  10.0  1.1 0.0 0.0 0.0       348
HAGD 20.640 1.00 Pg
HALM 24.320 1.00 Pg
QABG  9.440 1.00 Pg
RAZ  18.860 0.50 Pg
QABG 16.780 1.00 Sg
# 2015 04 07 05 40 01.500000 36.732 53.624  10.0  1.9 0.0 0.0 0.0       349
ANJ  25.250 1.00 Pg
GLO   6.360 1.00 Pg
PRN  21.860 1.00 Pg
GLO  10.060 1.00 Sg
# 2015 04 07 14 03 52.700000 35.098 50.161   8.0  1.8 0.0 0.0 0.0       350
MHD  14.180 1.00 Pg
QOM  15.680 1.00 Pg
SFB  35.000 1.00 Pn
QABG 14.980 1.00 Pg
QOM  26.540 1.00 Sg
# 2015 04 07 15 46 30.400000 35.676 49.979  10.0  1.8 0.0 0.0 0.0       351
HAGD 21.420 1.00 Pg
GZV  15.000 1.00 Pg
MHD  10.960 1.00 Pg
QABG  6.380 1.00 Pg
QALM 18.300 1.00 Pg
QOM  22.960 1.00 Pg
RAZ   6.600 1.00 Pg
QABG 11.980 1.00 Sg
# 2015 04 07 16 04 43.000000 35.698 50.003   4.0  2.4 0.0 0.0 0.0       352
GZV  15.000 1.00 Pg
HAGD 22.440 1.00 Pg
HSB  21.100 1.00 Pg
MHD  11.080 1.00 Pg
QABG  6.560 1.00 Pg
QALM 17.400 1.00 Pg
QAM  41.060 1.00 Pn
QOM  23.340 1.00 Pg
RAZ   6.740 1.00 Pg
SFB  41.000 1.00 Pn
VRN  29.520 1.00 Pg
QABG 12.320 1.00 Sg
HSAM 35.420 1.00 Pn
# 2015 04 07 19 33 46.200000 35.801 50.017  10.0  1.7 0.0 0.0 0.0       353
HAGD 23.980 1.00 Pg
QABG  7.820 1.00 Pg
RAZ   8.000 1.00 Pg
QABG 13.140 1.00 Sg
MHD  10.840 1.00 Pg
# 2015 04 08 02 11 32.600000 36.404 53.656   8.0  3.3 0.0 0.0 0.0       354
ANAR 52.940 0.00 Pn
ANJ  18.450 1.00 Pg
GLO   4.080 1.00 Pg
HAGD 64.740 0.00 Pn
HSB  39.320 0.00 Pn
HRS  86.350 0.00 Pn
LAS  21.880 1.00 Pg
MHD  44.420 0.00 Pn
MND  29.640 1.00 Pg
MON  89.870 0.00 Pn
JRKH 83.140 1.00 Pn
PRN  20.980 1.00 Pg
QALM 41.540 1.00 Pn
QABG 55.140 0.00 Pn
RAZ  52.420 0.00 Pn
SBZV 53.160 1.00 Pn
SFB  40.760 0.00 Pn
GZV  48.000 0.00 Pn
KRD  74.780 0.00 Pn
PAY  67.880 0.00 Pn
RAM  74.980 0.00 Pn
SFR  58.890 1.00 Pn
SRB  77.480 0.00 Pn
TEG  84.700 0.00 Pn
TKDS 63.260 1.00 Pn
TNSJ 55.980 1.00 Pn
TPRV 66.880 1.00 Pn
ZEF  59.280 0.00 Pn
ZNJK 65.500 0.00 Pn
CHTH 38.800 1.00 Pn
ASAO 57.300 0.00 Pn
DAMV 29.250 1.00 Pg
SHRO 35.870 1.00 Pn
# 2015 04 08 08 04 33.200000 35.877 53.235  16.0  1.9 0.0 0.0 0.0       355
VRN  28.360 1.00 Pg
SFB  31.120 1.00 Pg
LAS  11.130 1.00 Pg
GLO  15.440 1.00 Pg
ANJ  13.940 1.00 Pg
SFB  55.900 1.00 Sg
# 2015 04 08 17 08 30.900000 35.699 50.014  10.0  2.8 0.0 0.0 0.0       356
BZA  41.400 0.00 Pn
HAGD 22.400 1.00 Pg
HAGD 38.640 1.00 Sg
MHD  11.440 1.00 Pg
QABG  6.680 1.00 Pg
QABG 12.700 1.00 Sg
QOM  23.360 1.00 Pg
QOM  40.060 1.00 Sg
RAZ   7.220 1.00 Pg
# 2015 04 09 03 14 34.100000 35.827 49.067  10.0  1.4 0.0 0.0 0.0       357
HAGD 19.140 1.00 Pg
HALM 23.620 1.00 Pg
QABG  8.340 1.00 Pg
RAZ  16.900 1.00 Pg
RAZ  28.260 1.00 Sg
# 2015 04 09 04 15 21.000000 35.872 49.033  10.0  1.5 0.0 0.0 0.0       358
HAGD 20.040 1.00 Pg
HALM 23.980 1.00 Pg
QABG  9.140 1.00 Pg
RAZ  17.540 1.00 Pg
QABG 17.020 1.00 Sg
