# 2015 05 10 22 08 57.800000 36.744 49.881   5.0  4.6 0.0 0.0 0.0       440
BZA  48.300 0.00 Pn
GLO  53.800 1.00 Pn
GZV   9.500 1.00 Pg
HAGD 36.880 1.00 Pn
HALM 43.040 1.00 Pn
HRS  47.570 1.00 Pn
HSAM 47.220 0.00 Pn
HSB  32.520 0.00 Pg
HSH  39.540 1.00 Pn
ZEF  70.070 0.00 Pn
TPRV 103.680 0.00 Pn
TNSJ 95.860 0.00 Pn
TKDS 103.380 0.00 Pn
TEH  30.080 0.00 Pg
TEG  124.890 0.00 Pn
TBZ  54.850 0.00 Pn
SRB  38.570 1.00 Pn
SHM  51.660 0.00 Pn
SHK1 71.260 0.00 Pn
SFR  99.500 0.00 Pn
SFB  51.720 0.00 Pn
SBZV 95.980 0.00 Pn
SAD  89.990 0.00 Pn
RAM  84.110 0.00 Pn
QSDN 12.240 1.00 Pg
QCNT  9.680 1.00 Pg
PRN  38.640 1.00 Pn
PIR  68.110 0.00 Pn
PAY  111.550 0.00 Pn
NHDN 148.160 0.00 Pn
NGRK 134.880 0.00 Pn
MRD  63.370 0.00 Pn
MHD  24.020 0.00 Pg
MEH  101.230 0.00 Pn
MAHB 55.660 1.00 Pn
LIN  50.320 0.00 Pn
MOG  115.370 0.00 Pn
MND  69.560 0.00 Pn
QALM 13.480 1.00 Pg
AKL  108.460 1.00 Pn
ANAR 75.940 0.00 Pn
ANJ  60.470 0.00 Pn
BAF  106.550 0.00 Pn
CHK  90.650 0.00 Pn
CHMN 139.120 0.00 Pn
DAH  137.940 0.00 Pn
DHL1 72.560 0.00 Pn
DHR  58.240 0.00 Pn
DOB  55.780 0.00 Pn
GAR  75.560 0.00 Pn
JRKH 126.880 0.00 Pn
KCHF 56.340 0.00 Pn
KER  54.620 0.00 Pn
KFM  60.220 0.00 Pn
KHGB 126.200 0.00 Pn
KHNJ 161.240 0.00 Pn
KLH  61.200 0.00 Pn
KLNJ 90.660 0.00 Pn
KOO  131.370 0.00 Pn
KRD  116.660 0.00 Pn
LAS  51.060 0.00 Pn
HAKT 79.600 0.00 Pn
GZV  15.680 1.00 Sg
KHMZ 51.370 0.00 Pn
DAMV 38.620 0.00 Pn
ASAO 39.490 0.00 Pn
THKV 21.880 0.00 Pg
SNGE 43.390 0.00 Pn
ZNJK 18.660 1.00 Pg
CHTH 25.420 0.00 Pg
MRVT 77.490 1.00 Pn
# 2015 05 10 22 27 36.400000 36.797 49.910  10.0  2.0 0.0 0.0 0.0       441
GZV  10.120 1.00 Pg
MHD  24.680 1.00 Pg
QALM 14.100 1.00 Pg
QSDN 12.880 1.00 Pg
QALM 23.800 1.00 Sg
# 2015 05 10 22 49 24.500000 36.789 49.843   8.0  1.9 0.0 0.0 0.0       442
GZV  10.680 1.00 Pg
MHD  24.840 1.00 Pg
QALM 13.840 1.00 Pg
QSDN 12.820 1.00 Pg
QSDN 20.820 1.00 Sg
# 2015 05 10 23 12 09.200000 36.763 49.853   8.0  2.3 0.0 0.0 0.0       443
GZV   9.960 1.00 Pg
MHD  24.000 1.00 Pg
QALM 13.720 1.00 Pg
QCNT 10.000 1.00 Pg
QSDN 12.640 1.00 Pg
QSDN 20.720 1.00 Sg
# 2015 05 11 04 27 46.500000 35.772 53.394   4.6  1.6 0.0 0.0 0.0       444
ANJ  10.990 1.00 Pg
LAS  11.020 1.00 Pg
SHM   2.470 1.00 Pg
GLO  16.840 1.00 Pg
ANJ  19.110 1.00 Sg
# 2015 05 11 09 47 22.800000 34.305 50.632  18.0  1.9 0.0 0.0 0.0       445
KLH  23.730 1.00 Pg
PIR  30.720 1.00 Pg
QAM  16.860 1.00 Pg
QAM  29.460 1.00 Sg
ZEF  34.390 1.00 Pn
# 2015 05 12 01 39 43.400000 34.437 51.377  18.0  1.7 0.0 0.0 0.0       446
KLH  21.140 1.00 Pg
KLH  37.880 1.00 Sg
KRSH 14.760 1.00 Pg
QAM  13.540 1.00 Pg
PIR  33.490 1.00 Pg
ZEF  32.630 1.00 Pg
# 2015 05 12 11 56 33.200000 34.941 50.051  12.0  2.4 0.0 0.0 0.0       447
GZV  27.320 1.00 Pg
HAGD 14.840 1.00 Pg
HSB  21.460 1.00 Pg
MHD  18.000 1.00 Pg
VRN  25.720 1.00 Pg
QOM  16.260 1.00 Pg
QOM  28.100 1.00 Sg
MHD  29.800 1.00 Sg
HAGD 25.680 1.00 Sg
# 2015 05 12 15 28 21.800000 34.935 50.044   9.1  3.7 0.0 0.0 0.0       448
AFRZ 113.480 0.00 Pn
ANAR 57.480 0.00 Pn
ANJ  52.370 0.00 Pn
BAF  87.610 0.00 Pn
BMDN 30.480 1.00 Pg
BZA  34.280 1.00 Pn
CHK  71.360 0.00 Pn
DHR  51.760 0.00 Pn
DOB  35.460 0.00 Pn
GAR  51.780 0.00 Pn
GLO  57.120 0.00 Pn
GZV  28.020 0.00 Pg
HAGD 15.240 1.00 Pg
HALM 28.880 1.00 Pg
HRS  66.120 1.00 Pn
HSAM 26.000 1.00 Pg
HSB  22.160 1.00 Pg
KLH  37.050 1.00 Pn
KLNJ 66.480 0.00 Pn
KOO  117.350 0.00 Pn
KFM  40.940 0.00 Pn
KRSH 35.720 1.00 Pn
LAS  41.870 1.00 Pn
LIN  44.760 0.00 Pn
MHD  17.980 1.00 Pg
KCHF 46.340 0.00 Pn
PRN  40.660 0.00 Pn
QABG 15.020 0.00 Pg
QALM 28.800 0.00 Pg
QAM  30.540 1.00 Pg
QCNT 26.120 1.00 Pg
QOM  16.620 1.00 Pg
QSDN 32.820 1.00 Pg
RAM  59.110 0.00 Pn
RAZ  10.440 1.00 Pg
SAD  67.990 0.00 Pn
SFB  34.180 1.00 Pn
SHK1 46.800 0.00 Pn
SHM  47.250 1.00 Pn
SRB  56.550 1.00 Pn
TEH  26.040 1.00 Pg
TKDS 91.440 0.00 Pn
TNSJ 84.660 0.00 Pn
TPRV 88.740 0.00 Pn
VRN  25.960 1.00 Pg
ZEF  48.440 0.00 Pn
PIR  42.270 1.00 Pn
MHD  30.520 1.00 Sg
CHTH 25.290 1.00 Pg
SNGE 38.400 0.00 Pn
KHMZ 22.770 1.00 Pg
ASAO  8.830 1.00 Pg
GHVR 21.630 1.00 Pg
THKV 22.790 0.00 Pg
# 2015 05 12 17 36 50.500000 34.924 50.029   8.0  2.7 0.0 0.0 0.0       449
BMDN 30.680 1.00 Pg
BZA  34.360 1.00 Pn
DOB  35.920 1.00 Pn
GZV  27.960 1.00 Pg
HAGD 15.280 1.00 Pg
HALM 28.940 1.00 Pg
HSAM 26.080 1.00 Pg
HSB  22.200 1.00 Pg
KLH  37.630 1.00 Pn
KRSH 35.940 1.00 Pn
MHD  18.040 1.00 Pg
LAS  43.020 1.00 Pn
QALM 28.720 0.50 Pg
QAM  30.840 1.00 Pg
QABG 14.760 0.50 Pg
QOM  16.540 1.00 Pg
QSDN 32.580 1.00 Pg
RAZ  10.620 1.00 Pg
RAZ  17.480 1.00 Sg
VRN  26.480 1.00 Pg
# 2015 05 13 10 59 07.500000 36.375 50.637  13.6  1.9 0.0 0.0 0.0       450
GZV   6.860 1.00 Pg
MHD  13.760 1.00 Pg
RAZ  21.540 1.00 Pg
QSDN 22.540 1.00 Pg
RAZ  36.100 1.00 Sg
PRN  25.200 1.00 Pg
# 2015 05 13 11 32 56.100000 35.675 52.886  10.0  1.5 0.0 0.0 0.0       451
LAS   6.690 1.00 Pg
SHM   7.010 1.00 Pg
SFB  27.060 1.00 Pg
ANJ  16.950 1.00 Pg
GLO  22.160 1.00 Pg
# 2015 05 14 09 49 51.600000 34.290 50.649  10.0  1.9 0.0 0.0 0.0       452
VRN  22.040 1.00 Pg
SFB  25.020 1.00 Pg
QOM  12.680 1.00 Pg
QAM  16.780 1.00 Pg
KRSH 24.540 1.00 Pg
KLH  23.700 1.00 Pg
# 2015 05 14 18 46 29.600000 36.124 53.367   9.6  2.3 0.0 0.0 0.0       453
ANJ  15.280 1.00 Pg
GLO  10.820 1.00 Pg
LAS  16.460 1.00 Pg
PRN  16.200 1.00 Pg
SHM   6.600 1.00 Pg
VRN  32.100 1.00 Pg
SHM  12.070 1.00 Sg
# 2015 05 14 19 02 14.800000 36.160 53.366  10.0  1.7 0.0 0.0 0.0       454
ANJ  15.700 1.00 Pg
GLO  10.460 1.00 Pg
LAS  17.430 1.00 Pg
PRN  15.960 1.00 Pg
SHM   7.070 1.00 Pg
# 2015 05 15 04 55 27.200000 34.657 52.865   9.1  2.1 0.0 0.0 0.0       455
ANAR 30.300 1.00 Pg
KLH  32.030 1.00 Pg
KRSH 17.500 1.00 Pg
LAS  14.320 1.00 Pg
QAM  28.820 1.00 Pg
SHM  22.710 1.00 Pg
ZEF  33.430 1.00 Pn
PRN  30.480 1.00 Pg
KRSH 30.720 1.00 Sg
ANJ  22.650 1.00 Pg
# 2015 05 15 05 15 32.900000 34.677 52.847   8.0  1.6 0.0 0.0 0.0       456
ANJ  22.740 1.00 Pg
ANAR 31.020 1.00 Pg
KRSH 17.820 1.00 Pg
KLH  32.600 1.00 Pg
ZEF  33.780 1.00 Pn
KRSH 31.340 1.00 Sg
# 2015 05 15 06 37 02.800000 34.557 52.840  10.0  1.6 0.0 0.0 0.0       457
KLH  30.330 1.00 Pg
KRSH 15.880 1.00 Pg
ZEF  31.880 1.00 Pg
KRSH 28.400 1.00 Sg
ANAR 28.620 1.00 Pg
# 2015 05 15 12 52 27.400000 34.677 52.872   7.5  2.2 0.0 0.0 0.0       458
ANJ  22.970 1.00 Pg
KLH  32.450 1.00 Pg
KRSH 18.020 1.00 Pg
LAS  15.500 0.50 Pg
ZEF  33.490 1.00 Pn
VRN  19.600 1.00 Pg
SHM  22.590 1.00 Pg
QOM  28.200 1.00 Pg
QAM  29.000 1.00 Pg
# 2015 05 15 14 39 14.200000 34.651 52.892   8.0  2.7 0.0 0.0 0.0       459
ANAR 30.280 1.00 Pg
ANJ  21.840 1.00 Pg
GLO  36.340 1.00 Pn
KLH  32.050 1.00 Pg
SHM  23.100 1.00 Pg
VRN  19.600 1.00 Pg
ZEF  33.760 1.00 Pn
LAS  15.370 1.00 Pg
QOM  28.800 1.00 Pg
# 2015 05 15 18 59 38.900000 36.268 50.769  10.0  1.7 0.0 0.0 0.0       460
GZV   9.260 1.00 Pg
QABG 21.900 1.00 Pg
QALM  3.760 1.00 Pg
QSDN 22.280 0.50 Pg
QALM  8.420 1.00 Sg
PRN  24.520 1.00 Pg
# 2015 05 15 21 03 04.100000 34.933 50.096   8.2  3.8 0.0 0.0 0.0       461
ZEF  47.390 0.00 Pn
TEH  25.180 1.00 Pg
SRB  56.380 0.00 Pn
SHM  45.350 1.00 Pn
RAM  59.810 0.00 Pn
QSDN 32.180 1.00 Pg
QCNT 24.760 1.00 Pg
QALM 27.880 1.00 Pg
QABG 14.500 0.00 Pg
PRN  39.860 0.00 Pn
MRD  78.710 0.00 Pn
MHD  16.900 1.00 Pg
MEH  79.760 0.00 Pn
LAS  39.250 0.00 Pn
KOO  115.860 0.00 Pn
KLNJ 65.260 0.00 Pn
KFM  42.800 0.00 Pn
KER  44.420 0.00 Pn
KCHF 45.080 0.00 Pn
HSH  53.850 1.00 Pn
HSB  20.840 1.00 Pg
HSAM 25.800 1.00 Pg
AFRZ 112.340 0.00 Pn
ANAR 55.460 1.00 Pn
ANJ  50.870 1.00 Pn
BAF  85.150 0.00 Pn
BMDN 29.880 1.00 Pg
BZA  34.200 1.00 Pn
DHR  50.680 0.00 Pn
DOB  35.500 0.00 Pn
GAR  51.100 0.00 Pn
GHG  50.220 0.00 Pn
GLO  56.240 0.00 Pn
GZV  27.180 1.00 Pg
HAGD 15.180 1.00 Pg
HALM 29.000 1.00 Pg
HRS  65.730 1.00 Pn
KLH  36.660 1.00 Pn
LIN  45.820 0.00 Pn
PIR  42.340 0.00 Pn
SHK1 46.920 0.00 Pn
ZNJK 36.940 1.00 Pn
SNGE 38.470 1.00 Pn
KHMZ 21.750 1.00 Pg
CHTH 23.910 0.00 Pg
ASAO  7.740 1.00 Pg
GHVR 19.720 1.00 Pg
THKV 21.370 0.00 Pg
# 2015 05 15 23 33 28.900000 36.122 52.268  10.0  1.8 0.0 0.0 0.0       462
GLO  26.180 1.00 Pg
LAS  18.330 1.00 Pg
PRN   3.020 1.00 Pg
QALM 26.080 1.00 Pg
SHM  16.730 1.00 Pg
# 2015 05 16 06 05 01.500000 34.972 53.094  10.0  1.9 0.0 0.0 0.0       463
ANJ  16.170 1.00 Pg
ANAR 34.640 1.00 Pn
KLH  36.650 1.00 Pn
LAS   8.430 1.00 Pg
QOM  32.420 1.00 Pg
SHM  17.010 1.00 Pg
ZEF  38.000 1.00 Pn
# 2015 05 16 07 31 05.600000 35.060 52.968  10.0  1.9 0.0 0.0 0.0       464
ANJ  16.770 1.00 Pg
ANAR 35.820 1.00 Pn
KLH  37.380 1.00 Pn
LAS   6.300 1.00 Pg
SHM  16.240 1.00 Pg
ZEF  38.820 1.00 Pn
# 2015 05 16 22 46 25.500000 36.864 50.549  10.0  2.2 0.0 0.0 0.0       465
GZV  11.720 1.00 Pg
QALM  9.220 1.00 Pg
QSDN 22.200 1.00 Pg
MHD  39.860 1.00 Sg
PRN  29.660 1.00 Pg
QCNT 24.640 1.00 Sg
SRB  43.810 0.50 Pn
MHD  23.360 1.00 Pg
QABG 24.080 0.50 Pg
# 2015 05 17 06 46 30.400000 35.528 53.180  18.0  1.3 0.0 0.0 0.0       466
LAS   5.710 1.00 Pg
SHM   6.600 1.00 Pg
ANJ  12.050 1.00 Pg
SHM  11.870 1.00 Sg
# 2015 05 17 12 31 26.600000 34.351 53.336  16.1  2.9 0.0 0.0 0.0       467
ANAR 23.020 1.00 Pg
ANJ  22.880 1.00 Pg
KLH  33.310 1.00 Pg
KRSH 20.980 1.00 Pg
LAS  22.530 0.00 Pg
QAM  31.260 1.00 Pg
QOM  35.440 1.00 Pn
SHM  27.670 1.00 Pg
ZEF  31.020 1.00 Pg
VRN  28.340 1.00 Pg
TKDS 52.020 1.00 Pn
SHM  47.960 1.00 Sg
# 2015 05 17 13 09 15.100000 36.071 53.779  20.0  2.1 0.0 0.0 0.0       468
ANJ  12.200 1.00 Pg
GLO   9.100 1.00 Pg
LAS  18.270 1.00 Pg
SHM  10.020 1.00 Pg
SHM  17.550 1.00 Sg
# 2015 05 17 14 04 04.600000 35.732 53.022  12.0  1.7 0.0 0.0 0.0       469
SHM   5.090 1.00 Pg
LAS   7.330 1.00 Pg
ANJ  15.000 1.00 Pg
LAS  12.880 1.00 Sg
# 2015 05 17 14 42 42.100000 35.558 53.165  18.0  1.4 0.0 0.0 0.0       470
SHM   6.380 1.00 Pg
LAS   5.900 1.00 Pg
ANJ  12.370 1.00 Pg
# 2015 05 17 15 34 15.700000 35.527 53.225   3.0  1.5 0.0 0.0 0.0       471
ANJ  11.810 1.00 Pg
GLO  22.680 1.00 Pg
LAS   5.490 1.00 Pg
LAS   9.780 1.00 Sg
SHM   5.980 1.00 Pg
# 2015 05 17 20 16 35.000000 35.331 52.252  18.0  2.0 0.0 0.0 0.0       472
SHM  18.630 1.00 Pg
LAS  11.510 1.00 Pg
KRSH 25.680 1.00 Pg
ANJ  25.860 1.00 Pg
# 2015 05 17 20 25 02.100000 35.240 52.316  18.0  2.1 0.0 0.0 0.0       473
SHM  17.420 1.00 Pg
QAM  30.600 1.00 Pg
LAS  11.210 1.00 Pg
KRSH 24.500 1.00 Pg
GLO  34.060 1.00 Pg
ANJ  24.230 1.00 Pg
LAS  19.670 1.00 Sg
# 2015 05 18 01 03 52.700000 34.923 50.078  18.0  2.3 0.0 0.0 0.0       474
BMDN 30.820 1.00 Pg
GZV  28.840 1.00 Pg
HAGD 15.620 1.00 Pg
HALM 29.460 1.00 Pg
HSAM 26.520 1.00 Pg
KLH  37.600 1.00 Pn
MHD  17.440 1.00 Pg
QABG 15.660 1.00 Pg
QAM  30.080 1.00 Pg
# 2015 05 18 10 33 19.000000 36.075 53.773   8.3  2.9 0.0 0.0 0.0       475
ANJ  12.130 1.00 Pg
GLO   9.140 1.00 Pg
LAS  18.380 1.00 Pg
PRN  22.480 1.00 Pg
SHM   9.460 1.00 Pg
SHM  17.460 1.00 Sg
VRN  36.580 1.00 Pn
QALM 43.640 1.00 Pn
ANJ  21.390 1.00 Sg
# 2015 05 18 12 04 50.400000 35.341 50.234   8.0  1.9 0.0 0.0 0.0       476
HAGD 20.280 1.00 Pg
GZV  20.100 1.00 Pg
KRSH 37.620 1.00 Pn
MHD  10.040 1.00 Pg
QABG  9.280 0.50 Pg
QOM  16.300 1.00 Pg
QAM  35.040 1.00 Pn
VRN  24.940 1.00 Pg
QOM  28.500 1.00 Sg
# 2015 05 19 11 27 40.400000 35.862 53.018   5.0  3.4 0.0 0.0 0.0       477
AFRZ 85.240 0.00 Pn
ANAR 47.140 1.00 Pn
ANJ  15.540 1.00 Pg
BAF  74.980 0.00 Pn
AKL  74.870 0.00 Pn
VRN  26.720 1.00 Pg
TPRV 65.540 0.00 Pn
TNSJ 57.040 0.00 Pn
TKDS 65.160 0.00 Pn
TEH  26.300 1.00 Pg
TEG  86.450 0.00 Pn
SRB  75.590 0.00 Pn
SHM   4.580 0.00 Pg
SFR  68.380 0.00 Pn
SFB  31.020 1.00 Pg
SBZV 61.460 1.00 Pn
RAZ  44.980 0.00 Pn
RAM  65.060 0.00 Pn
QOM  34.600 0.00 Pn
QAM  42.760 0.00 Pn
QALM 36.640 1.00 Pn
QABG 47.440 0.00 Pn
PRN  13.100 1.00 Pg
PAY  76.560 0.00 Pn
MYA  89.010 0.00 Pn
QSDN 55.260 0.00 Pn
CHK  61.650 0.00 Pn
DAH  98.810 0.00 Pn
DOB  71.300 0.00 Pn
GLO  17.460 1.00 Pg
HAGD 55.580 0.00 Pn
EMG  75.870 1.00 Pn
GZV  42.640 0.00 Pn
HALM 65.740 0.00 Pn
HRS  83.760 0.00 Pn
HSB  28.560 0.00 Pg
HSAM 65.180 0.00 Pn
KLH  47.710 0.00 Pn
KLNJ 79.120 0.00 Pn
KOO  92.400 0.00 Pn
KRSH 37.200 0.00 Pn
LAS  10.280 1.00 Pg
MEH  73.350 0.00 Pn
MHD  35.900 0.00 Pn
MND  41.660 1.00 Pn
PIR  60.990 0.00 Pn
LAS  16.830 1.00 Sg
PRN  23.120 1.00 Sg
ASAO 46.940 0.00 Pn
GHVR 37.070 1.00 Pn
SHRO 43.210 1.00 Pn
DAMV 17.230 1.00 Pg
THKV 32.130 0.00 Pg
# 2015 05 19 14 13 11.200000 35.586 53.845  10.0  2.0 0.0 0.0 0.0       478
LAS  15.240 1.00 Pg
SFB  33.820 1.00 Pg
SHM  11.010 1.00 Pg
SHM  17.730 1.00 Sg
GLO  31.260 1.00 Sg
# 2015 05 19 14 56 17.000000 36.493 49.796   4.0  1.8 0.0 0.0 0.0       479
QSDN  9.780 1.00 Pg
RAZ  22.260 1.00 Pg
GZV   7.020 1.00 Pg
MHD  21.340 1.00 Pg
QABG 15.240 1.00 Pg
QSDN 17.480 1.00 Sg
# 2015 05 19 21 48 56.400000 36.162 52.892  10.0  1.9 0.0 0.0 0.0       480
GLO  16.440 1.00 Pg
ANJ  20.620 1.00 Pg
LAS  15.520 1.00 Pg
PRN   9.140 1.00 Pg
SHM   9.870 1.00 Pg
PRN  16.280 1.00 Sg
# 2015 05 20 11 10 38.900000 36.086 50.650  10.0  1.7 0.0 0.0 0.0       481
GZV   9.140 1.00 Pg
GZV  16.620 1.00 Sg
MHD   8.140 1.00 Pg
QALM  7.300 1.00 Pg
MHD  14.520 1.00 Sg
# 2015 05 20 13 47 53.500000 35.910 53.098  11.7  1.3 0.0 0.0 0.0       482
ANJ  15.470 1.00 Pg
LAS  10.800 1.00 Pg
SHM   4.500 1.00 Pg
SHM   7.900 1.00 Sg
# 2015 05 21 06 35 04.200000 36.875 50.443  12.0  2.0 0.0 0.0 0.0       483
GZV  11.500 1.00 Pg
QABG 24.040 0.50 Pg
QALM 10.040 1.00 Pg
QSDN 20.840 1.00 Pg
RAZ  28.660 1.00 Pg
QALM 17.020 1.00 Sg
# 2015 05 21 07 57 15.700000 35.046 52.109  16.5  1.7 0.0 0.0 0.0       484
LAS  14.750 1.00 Pg
QOM  16.880 1.00 Pg
RAZ  32.640 1.00 Pn
SFB  13.800 1.00 Pg
SHM  23.600 1.00 Pg
VRN   7.040 1.00 Pg
# 2015 05 21 13 50 49.900000 36.766 50.602  12.0  1.7 0.0 0.0 0.0       485
GZV  10.420 1.00 Pg
QABG 23.080 0.50 Pg
QALM  7.340 1.00 Pg
RAZ  27.500 1.00 Pg
QALM 13.240 1.00 Sg
PRN  49.200 1.00 Sg
# 2015 05 21 15 12 11.900000 35.764 52.131   9.3  2.0 0.0 0.0 0.0       486
HSB  15.300 1.00 Pg
KRSH 32.820 1.00 Pg
PRN   9.800 1.00 Pg
MHD  23.160 1.00 Pg
QALM 26.520 1.00 Pg
QOM  23.900 1.00 Pg
RAZ  34.340 1.00 Pn
SFB  26.620 1.00 Pg
VRN  16.740 1.00 Pg
LAS  15.840 1.00 Pg
GLO  30.060 1.00 Pg
# 2015 05 21 16 11 05.900000 36.324 49.324   8.0  2.6 0.0 0.0 0.0       487
GZV  14.220 1.00 Pg
HSH  35.760 1.00 Pn
RAZ  20.620 1.00 Pg
SRB  36.260 1.00 Pn
RAZ  35.460 1.00 Sg
QSDN  4.740 1.00 Pg
QCNT 11.120 1.00 Pg
QABG 12.460 1.00 Pg
QSDN  8.180 1.00 Sg
# 2015 05 22 10 15 36.100000 34.294 50.567   8.0  1.8 0.0 0.0 0.0       488
KLH  24.800 1.00 Pg
HSB  24.620 1.00 Pg
KRSH 25.700 1.00 Pg
PIR  31.750 1.00 Pg
MHD  26.440 1.00 Pg
QAM  17.420 1.00 Pg
QOM  13.980 1.00 Pg
RAZ  23.860 1.00 Pg
SFB  26.060 1.00 Pg
VRN  22.960 1.00 Pg
ZEF  37.880 1.00 Pn
HAGD 24.740 1.00 Pg
QOM  23.840 1.00 Sg
# 2015 05 22 21 28 22.400000 36.224 52.041  10.0  2.1 0.0 0.0 0.0       489
GLO  28.880 0.50 Pg
LAS  21.810 1.00 Pg
PRN   5.220 1.00 Pg
QALM 22.140 1.00 Pg
SFB  34.020 1.00 Pn
SHM  21.140 1.00 Pg
PRN   9.120 1.00 Sg
# 2015 05 24 00 33 58.000000 36.515 51.632  10.0  2.4 0.0 0.0 0.0       490
ANJ  39.180 1.00 Pn
GLO  33.200 1.00 Pg
GZV  22.720 1.00 Pg
GZV  39.660 1.00 Sg
LAS  30.460 1.00 Pg
PRN  12.060 1.00 Pg
PRN  21.480 1.00 Sg
QALM 14.760 1.00 Pg
RAZ  32.880 1.00 Pg
SHM  29.420 1.00 Pg
# 2015 05 24 05 43 23.500000 36.032 51.683   8.3  3.6 0.0 0.0 0.0       491
VRN  19.880 1.00 Pg
ZEF  52.700 0.00 Pn
TEH   7.700 1.00 Pg
SRB  60.350 0.00 Pn
SHM  25.080 1.00 Pg
SFB  31.560 1.00 Pg
RAZ  29.240 0.00 Pg
RAM  68.250 0.00 Pn
QSDN 38.000 0.00 Pn
QOM  24.220 0.00 Pg
QCNT 26.680 1.00 Pg
QAM  39.880 0.00 Pn
QALM 17.120 1.00 Pg
QABG 30.180 0.00 Pg
PRN  10.420 1.00 Pg
MHD  17.780 1.00 Pg
LAS  23.360 1.00 Pg
KRSH 37.580 0.00 Pn
KLH  46.450 0.00 Pn
HSB  13.100 1.00 Pg
HRS  68.950 0.00 Pn
HAGD 42.860 0.00 Pn
GZV  24.160 1.00 Pg
GLO  33.040 1.00 Pg
ANJ  35.030 1.00 Pn
BAF  83.980 0.00 Pn
BMDN 56.280 0.00 Pn
DHR  71.880 0.00 Pn
DOB  60.320 0.00 Pn
EMG  87.190 0.00 Pn
GHG  73.380 0.00 Pn
HSAM 52.700 0.00 Pn
HSH  59.950 0.00 Pn
KFM  65.580 0.00 Pn
MEH  80.480 0.00 Pn
MND  53.240 1.00 Pn
PIR  57.740 0.00 Pn
TKDS 79.380 0.00 Pn
TPRV 79.940 0.00 Pn
VRN  34.240 1.00 Sg
SHM  43.930 1.00 Sg
QOM  41.720 1.00 Sg
QALM 30.900 1.00 Sg
GHVR 29.940 0.00 Pg
ASAO 36.420 0.00 Pn
MRVT 62.070 0.00 Pn
CHTH  9.550 1.00 Pg
THKV 12.260 1.00 Pg
# 2015 05 24 13 35 59.100000 35.545 53.194   8.0  1.3 0.0 0.0 0.0       492
ANJ  11.870 1.00 Pg
LAS   5.540 1.00 Pg
KRSH 33.480 1.00 Pg
SFB  27.200 1.00 Pg
SHM   5.730 1.00 Pg
SHM  10.430 1.00 Sg
# 2015 05 24 14 25 04.700000 35.535 53.208   5.0  1.4 0.0 0.0 0.0       493
GLO  23.320 1.00 Pg
ANJ  11.910 1.00 Pg
LAS   5.490 1.00 Pg
KRSH 33.580 1.00 Pg
SHM   5.780 1.00 Pg
SFB  27.700 0.50 Pg
SHM  10.120 1.00 Sg
# 2015 05 25 08 27 08.900000 34.492 50.281  10.0  2.1 0.0 0.0 0.0       494
RAZ  18.720 1.00 Pg
QOM  15.040 1.00 Pg
MHD  23.180 1.00 Pg
HSAM 26.620 1.00 Pg
HAGD 20.260 1.00 Pg
QOM  25.180 1.00 Sg
# 2015 05 25 10 49 20.300000 36.048 53.656  10.5  2.2 0.0 0.0 0.0       495
GLO   9.060 1.00 Pg
ANJ  12.380 1.00 Pg
SHM   7.960 1.00 Pg
SHM  14.470 1.00 Sg
LAS  17.250 1.00 Pg
KRSH 41.360 1.00 Pn
GLO  17.620 1.00 Sg
# 2015 05 25 11 41 30.700000 36.650 49.837  10.0  2.4 0.0 0.0 0.0       496
GZV   9.240 1.00 Pg
GZV  15.120 1.00 Sg
MHD  22.600 1.00 Pg
MHD  40.120 1.00 Sg
QABG 17.500 1.00 Pg
QALM 12.760 1.00 Pg
QSDN 11.840 1.00 Pg
RAZ  24.280 1.00 Pg
# 2015 05 26 00 12 37.600000 35.938 53.391  10.0  1.3 0.0 0.0 0.0       497
SHM   4.030 1.00 Pg
PRN  17.440 1.00 Pg
LAS  12.980 1.00 Pg
GLO  13.440 1.00 Pg
ANJ  12.430 1.00 Pg
SHM   7.190 1.00 Sg
# 2015 05 26 07 52 54.300000 34.216 50.657  10.0  1.7 0.0 0.0 0.0       498
VRN  22.780 1.00 Pg
SFB  25.140 1.00 Pg
QAM  15.780 1.00 Pg
KRSH 24.300 1.00 Pg
KLH  22.730 1.00 Pg
# 2015 05 26 10 12 57.900000 36.195 50.580  10.0  1.6 0.0 0.0 0.0       499
MHD  10.580 1.00 Pg
QABG 17.900 1.00 Pg
QALM  5.440 1.00 Pg
QOM  26.500 1.00 Pg
RAZ  19.140 1.00 Pg
# 2015 05 26 10 48 05.500000 35.962 53.373   8.0  3.2 0.0 0.0 0.0       500
ANAR 46.860 1.00 Pn
ANJ  12.470 1.00 Pg
GLO  13.140 1.00 Pg
HSB  33.620 0.00 Pg
KLH  50.760 0.00 Pn
KRSH 39.800 0.00 Pn
LAS  13.450 1.00 Pg
MND  36.420 1.00 Pn
PRN  17.300 1.00 Pg
QABG 52.200 0.00 Pn
QALM 39.720 1.00 Pn
VRN  30.620 1.00 Pg
TPRV 64.240 0.00 Pn
TNSJ 53.200 1.00 Pn
TKDS 61.900 0.00 Pn
SHM   4.340 1.00 Pg
SHM   7.240 1.00 Sg
SFB  33.280 0.00 Pn
SBZV 56.800 1.00 Pn
RAM  68.030 0.00 Pn
QSDN 57.160 0.00 Pn
QOM  38.740 1.00 Pn
QAM  45.560 1.00 Pn
THKV 36.660 0.00 Pn
SHRO 39.030 1.00 Pn
GHVR 40.300 0.00 Pn
ASAO 51.980 0.00 Pn
NASN 53.770 1.00 Pn
YZKH 59.490 1.00 Pn
DAMV 22.530 1.00 Pg
CHTH 33.890 1.00 Pn
ZNJK 61.370 0.00 Pn
# 2015 05 26 10 58 36.300000 35.907 53.427  12.5  2.1 0.0 0.0 0.0       501
ANJ  12.040 1.00 Pg
GLO  13.360 1.00 Pg
LAS  12.850 1.00 Pg
KRSH 37.320 1.00 Pn
PRN  18.140 1.00 Pg
SFB  33.320 1.00 Pn
SHM   3.730 1.00 Pg
SHM   7.270 1.00 Sg
VRN  31.340 1.00 Pg
QALM 39.740 1.00 Pn
# 2015 05 26 11 15 59.400000 36.286 52.770  20.0  1.5 0.0 0.0 0.0       502
GLO  17.020 1.00 Pg
PRN   7.660 1.00 Pg
SHM  13.060 1.00 Pg
SFB  34.080 1.00 Pn
SHM  22.200 1.00 Sg
# 2015 05 26 18 03 49.200000 34.159 51.696  12.0  2.0 0.0 0.0 0.0       503
KLH  16.340 1.00 Pg
KRSH  8.980 1.00 Pg
PIR  30.440 1.00 Pg
QAM   9.840 1.00 Pg
QOM  16.560 1.00 Pg
SFB  10.120 1.00 Pg
VRN  16.700 1.00 Pg
ZEF  25.210 1.00 Pg
# 2015 05 26 20 44 29.700000 36.955 50.352  10.0  2.2 0.0 0.0 0.0       504
GZV  12.600 0.50 Pg
MHD  25.220 1.00 Pg
PRN  32.400 1.00 Pg
QABG 24.100 0.50 Pg
QALM 11.120 1.00 Pg
QSDN 20.520 1.00 Pg
RAZ  30.000 1.00 Pg
GZV  20.640 1.00 Sg
# 2015 05 27 08 26 42.800000 35.881 53.026   9.9  2.2 0.0 0.0 0.0       505
ANJ  16.020 1.00 Pg
GLO  17.180 1.00 Pg
VRN  26.400 1.00 Pg
SHM   4.910 1.00 Pg
SFB  30.940 1.00 Pg
LAS  11.100 1.00 Pg
KRSH 36.860 1.00 Pn
GLO  31.340 1.00 Sg
# 2015 05 28 02 57 03.300000 37.527 49.190  16.4  3.1 0.0 0.0 0.0       506
SRB  23.720 1.00 Pg
SHM  60.640 0.00 Pn
RAZ  37.740 1.00 Pn
QSDN 19.960 1.00 Pg
QCNT 25.740 1.00 Pg
PRN  46.620 1.00 Pn
MHD  37.640 0.00 Pn
HSH  28.810 1.00 Pg
HRS  33.430 1.00 Pn
GZV  27.080 0.00 Pg
GLO  60.380 1.00 Pn
QALM 30.280 1.00 Pg
QABG 30.780 0.00 Pn
# 2015 05 28 06 51 27.100000 35.528 53.226  10.0  1.2 0.0 0.0 0.0       507
ANJ  11.350 1.00 Pg
LAS   5.750 1.00 Pg
SHM   5.920 1.00 Pg
SHM  10.890 1.00 Sg
