# 2011 06 13 07 35 19.900000 35.558 53.197  15.0  1.5 0.0 0.0 0.0       504
SHM   5.220 1.00 Pg
VRN  24.520 1.00 Pg
FIR   6.680 1.00 Pg
ANJ  10.890 1.00 Pg
SHM   9.780 1.00 Sg
LAS   5.440 1.00 Pg
# 2011 06 13 14 06 36.700000 36.229 53.963  15.5  2.7 0.0 0.0 0.0       505
ALA  17.220 1.00 Pg
ANJ  13.950 1.00 Pg
DMV  30.570 1.00 Pg
FIR  20.760 1.00 Pg
GLO   6.080 1.00 Pg
LAS  21.640 1.00 Pg
SHM  12.820 1.00 Pg
ANJ  24.290 1.00 Sg
VRN  38.940 0.00 Pn
# 2011 06 14 00 38 17.700000 35.253 53.727  25.8  1.8 0.0 0.0 0.0       506
ANJ   6.430 1.00 Pg
DMV  25.430 1.00 Pg
FIR  16.290 1.00 Pg
LAS  12.890 1.00 Pg
SHM  12.770 1.00 Pg
SHM  22.130 1.00 Sg
VRN  27.620 1.00 Pg
ANJ  11.410 1.00 Sg
# 2011 06 14 01 06 57.600000 35.561 49.894   7.0  4.0 0.0 0.0 0.0       507
AFJ  24.140 0.00 Pg
ALA  41.780 0.00 Pn
BST  50.660 1.00 Pn
DMV  30.480 1.00 Pg
GLO  52.720 1.00 Pn
HRS  55.610 1.00 Pn
KLH  44.940 0.00 Pn
MHD  11.090 1.00 Pg
PRN  36.680 0.00 Pn
PIR  51.000 0.00 Pn
RAZ   3.190 1.00 Pg
VRN  27.990 0.00 Pg
SHM  45.710 1.00 Pn
ZEF  53.560 0.00 Pn
DMV  54.160 1.00 Sg
FIR  39.120 1.00 Pn
# 2011 06 14 07 29 38.300000 35.581 53.183  26.1  1.0 0.0 0.0 0.0       508
SHM   6.260 1.00 Pg
VRN  24.830 1.00 Pg
LAS   6.470 1.00 Pg
FIR   7.080 1.00 Pg
FIR  14.100 1.00 Sg
ANJ  12.050 1.00 Pg
SHM  11.240 1.00 Sg
# 2011 06 14 08 12 13.000000 35.457 52.690  23.0  1.5 0.0 0.0 0.0       509
VRN  16.930 1.00 Pg
SHM  11.750 1.00 Pg
FIR   4.590 1.00 Pg
DMV  10.790 1.00 Pg
ANJ  18.400 1.00 Pg
FIR   9.610 1.00 Sg
# 2011 06 14 11 51 50.500000 35.579 53.149  36.0  1.3 0.0 0.0 0.0       510
SHM   7.880 1.00 Pg
FIR   8.730 1.00 Pg
ALA  22.960 0.00 Pg
LAS   7.830 1.00 Pg
FIR  15.130 1.00 Sg
# 2011 06 14 16 11 32.800000 34.287 50.672   1.5  2.0 0.0 0.0 0.0       511
DMV  30.010 1.00 Pg
FIR  37.530 1.00 Pn
KLH  21.760 1.00 Pg
MHD  24.540 0.50 Pg
PIR  29.560 1.00 Pg
QAM  14.360 1.00 Pg
RAZ  23.150 1.00 Pg
VRN  19.830 1.00 Pg
ZEF  34.980 1.00 Pn
QAM  25.740 1.00 Sg
KLH  38.460 1.00 Sg
DMV  53.590 1.00 Sg
# 2011 06 14 20 07 52.700000 36.771 53.225  10.1  2.0 0.0 0.0 0.0       512
ANJ  25.930 1.00 Pg
DMV  27.180 1.00 Pg
FIR  21.280 1.00 Pg
GLO  10.190 1.00 Pg
LAS  25.780 1.00 Pg
PRN  16.520 1.00 Pg
SHM  17.280 1.00 Pg
VRN  36.480 1.00 Pn
SHM  30.510 1.00 Sg
PRN  27.700 1.00 Sg
GLO  17.750 1.00 Sg
ALA  13.970 1.00 Pg
# 2011 06 15 07 35 34.700000 35.233 53.229  19.2  1.6 0.0 0.0 0.0       513
SHM  10.940 1.00 Pg
VRN  23.210 1.00 Pg
LAS   5.890 1.00 Pg
FIR   9.870 1.00 Pg
ANJ  11.310 1.00 Pg
SHM  19.280 1.00 Sg
# 2011 06 15 12 28 17.700000 35.757 52.051  18.9  1.9 0.0 0.0 0.0       514
AFJ   6.340 1.00 Pg
DMV   4.760 1.00 Pg
VRN  14.810 1.00 Pg
DMV   8.240 1.00 Sg
# 2011 06 15 13 29 24.300000 36.608 51.129  18.0  1.6 0.0 0.0 0.0       515
VRN  29.930 1.00 Pg
RAZ  28.050 1.00 Pg
DMV  23.090 1.00 Pg
VRN  52.730 1.00 Sg
RAZ  48.450 1.00 Sg
# 2011 06 15 14 24 23.000000 35.325 52.839  11.0  2.1 0.0 0.0 0.0       516
DMV  13.060 1.00 Pg
FIR   6.140 1.00 Pg
VRN  17.550 1.00 Pg
FIR  10.910 1.00 Sg
DMV  22.300 1.00 Sg
# 2011 06 16 06 04 42.000000 35.624 52.259   8.5  2.1 0.0 0.0 0.0       517
AFJ   9.900 1.00 Pg
ALA  12.700 1.00 Pg
ANJ  25.870 1.00 Pg
DMV   3.870 1.00 Pg
FIR   7.560 1.00 Pg
LAS  12.560 1.00 Pg
PRN  12.180 1.00 Pg
SHM  16.900 1.00 Pg
VRN  14.590 1.00 Pg
MHD  24.270 1.00 Pg
DMV   7.510 1.00 Sg
VRN  25.950 1.00 Sg
AFJ  17.800 1.00 Sg
# 2011 06 16 18 59 33.900000 36.369 52.312   6.0  1.3 0.0 0.0 0.0       518
FIR  14.930 1.00 Pg
GLO  22.200 1.00 Pg
PRN   1.500 0.00 Pg
DMV  14.470 1.00 Pg
DMV  25.930 1.00 Sg
SHM  17.360 1.00 Pg
PRN   4.340 1.00 Sg
AFJ  22.210 1.00 Sg
# 2011 06 16 21 29 12.500000 36.324 53.382  10.0  0.9 0.0 0.0 0.0       519
ALA   9.810 1.00 Pg
GLO   7.730 1.00 Pg
SHM   8.970 1.00 Pg
SHM  17.130 1.00 Sg
# 2011 06 17 06 52 01.700000 35.612 53.290  28.0  1.2 0.0 0.0 0.0       520
ANJ  11.000 1.00 Pg
FIR   9.250 1.00 Pg
SHM   5.980 1.00 Pg
SHM  10.480 1.00 Sg
FIR  16.490 1.00 Sg
LAS   7.770 1.00 Pg
# 2011 06 18 06 40 01.100000 35.524 53.220  11.6  1.3 0.0 0.0 0.0       521
SHM   5.270 1.00 Pg
LAS   5.060 1.00 Pg
FIR   7.760 1.00 Pg
ANJ  10.630 1.00 Pg
SHM   9.970 1.00 Sg
# 2011 06 18 08 16 04.900000 35.705 51.426   8.0  1.9 0.0 0.0 0.0       522
VRN  14.410 1.00 Pg
FIR  20.760 1.00 Pg
DMV  10.130 1.00 Pg
ANJ  35.580 1.00 Pn
SHM  50.510 1.00 Sg
FIR  36.480 1.00 Sg
DMV  17.270 1.00 Sg
# 2011 06 18 17 31 02.700000 36.323 49.647  29.4  2.3 0.0 0.0 0.0       523
AFJ  27.820 1.00 Pg
DMV  33.610 1.00 Pn
MHD  17.510 0.50 Pg
RAZ  17.190 1.00 Pg
PRN  33.800 1.00 Pn
BST  39.790 1.00 Pn
HRS  44.260 1.00 Pn
SRB  30.600 0.00 Pn
MHD  33.990 1.00 Sg
RAZ  30.950 1.00 Sg
# 2011 06 19 04 39 52.600000 36.548 53.555   6.7  1.9 0.0 0.0 0.0       524
ANJ  20.240 1.00 Pg
DMV  28.570 1.00 Pg
GLO   4.870 1.00 Pg
KIA   6.060 1.00 Pg
SHM  13.330 1.00 Pg
KIA  11.220 1.00 Sg
SHM  24.990 1.00 Sg
# 2011 06 19 05 08 42.500000 34.823 53.111   2.1  2.4 0.0 0.0 0.0       525
ANJ  16.100 1.00 Pg
DMV  21.260 1.00 Pg
FIR  16.020 1.00 Pg
GLO  31.820 1.00 Pg
KLH  34.280 1.00 Pn
QAM  31.140 1.00 Pg
SHM  18.140 1.00 Pg
VRN  20.130 1.00 Pg
ZEF  35.210 1.00 Pn
FIR  26.800 1.00 Sg
# 2011 06 19 05 32 44.300000 34.814 53.154   3.4  2.4 0.0 0.0 0.0       526
ANJ  15.870 1.00 Pg
DMV  21.200 1.00 Pg
FIR  16.310 1.00 Pg
GLO  31.980 1.00 Pg
KLH  34.070 1.00 Pn
QAM  31.260 1.00 Pg
SHM  17.980 1.00 Pg
ZEF  35.270 1.00 Pn
FIR  27.610 1.00 Sg
SHM  31.460 1.00 Sg
# 2011 06 19 06 41 38.400000 35.572 53.225  22.2  1.3 0.0 0.0 0.0       527
SHM   5.610 1.00 Pg
LAS   6.460 1.00 Pg
FIR   8.320 1.00 Pg
ANJ  11.160 1.00 Pg
SHM  10.360 1.00 Sg
# 2011 06 19 07 44 20.700000 34.336 52.461  16.1  2.1 0.0 0.0 0.0       528
ANJ  22.300 0.00 Pg
KLH  22.650 1.00 Pg
QAM  18.450 1.00 Pg
SHM  27.820 1.00 Pg
VRN  16.190 1.00 Pg
ZEF  26.030 1.00 Pg
DMV  23.590 1.00 Pg
VRN  28.330 1.00 Sg
# 2011 06 19 13 29 16.100000 35.540 53.193  25.6  1.4 0.0 0.0 0.0       529
SHM   6.740 1.00 Pg
LAS   6.340 1.00 Pg
FIR   8.080 1.00 Pg
SHM  11.670 1.00 Sg
# 2011 06 19 15 29 05.100000 35.975 52.318  26.6  2.3 0.0 0.0 0.0       530
ALA   9.370 1.00 Pg
ALA  15.990 1.00 Sg
ANJ  26.150 1.00 Pg
DMV   9.720 1.00 Pg
DMV  17.260 1.00 Sg
FIR   9.520 1.00 Pg
LAS  15.680 1.00 Pg
PRN   6.740 1.00 Pg
SHM  15.220 1.00 Pg
VRN  21.600 0.50 Pg
# 2011 06 20 01 32 58.900000 35.449 53.661   4.4  2.4 0.0 0.0 0.0       531
ANJ   3.450 1.00 Pg
DMV  25.070 1.00 Pg
FIR  14.040 1.00 Pg
GLO  19.530 1.00 Pg
LAS  11.180 1.00 Pg
PRN  25.540 1.00 Pg
SHM   8.520 1.00 Pg
VRN  29.810 1.00 Pg
FIR  23.280 1.00 Sg
# 2011 06 20 05 13 32.900000 35.497 52.963   4.0  1.5 0.0 0.0 0.0       532
ALA  20.270 0.00 Pg
ANJ  14.000 1.00 Pg
DMV  14.090 1.00 Pg
FIR   4.180 1.00 Pg
LAS   2.400 1.00 Pg
SHM   7.220 1.00 Pg
VRN  20.140 1.00 Pg
FIR   7.140 1.00 Sg
SHM  12.910 1.00 Sg
# 2011 06 20 06 07 49.300000 35.523 53.303  21.5  1.3 0.0 0.0 0.0       533
SHM   6.380 1.00 Pg
ANJ   9.710 1.00 Pg
LAS   6.960 1.00 Pg
FIR   9.350 1.00 Pg
SHM  11.220 1.00 Sg
FIR  15.720 1.00 Sg
# 2011 06 20 06 31 19.800000 35.566 53.163  10.5  1.4 0.0 0.0 0.0       534
SHM   5.430 1.00 Pg
LAS   5.130 1.00 Pg
FIR   6.640 1.00 Pg
ANJ  11.180 1.00 Pg
SHM   8.890 1.00 Sg
FIR  11.110 1.00 Sg
# 2011 06 20 14 46 33.700000 35.595 53.070   9.6  1.5 0.0 0.0 0.0       535
ANJ  13.740 1.00 Pg
DMV  16.230 1.00 Pg
FIR   4.900 1.00 Pg
LAS   5.260 1.00 Pg
SHM   5.330 1.00 Pg
SHM  10.610 1.00 Sg
DMV  29.170 1.00 Sg
# 2011 06 21 04 43 53.400000 35.690 52.249  22.2  1.6 0.0 0.0 0.0       536
ANJ  25.400 1.00 Pg
DMV   5.490 1.00 Pg
FIR   8.800 1.00 Pg
SHM  15.480 1.00 Pg
VRN  15.020 1.00 Pg
DMV   9.690 1.00 Sg
FIR  14.520 1.00 Sg
VRN  26.200 1.00 Sg
# 2011 06 21 08 36 42.400000 35.919 53.287  12.3  2.0 0.0 0.0 0.0       537
ALA   7.640 1.00 Pg
ANJ  12.450 1.00 Pg
DMV  19.520 1.00 Pg
FIR   9.120 1.00 Pg
GLO  13.440 1.00 Pg
LAS  11.280 1.00 Pg
PRN  15.230 1.00 Pg
SHM   2.820 1.00 Pg
VRN  27.790 1.00 Pg
FIR  16.660 1.00 Sg
ALA  13.940 1.00 Sg
SHM   5.640 1.00 Sg
# 2011 06 21 12 49 27.200000 35.996 51.324  28.4  1.8 0.0 0.0 0.0       538
VRN  19.650 1.00 Pg
RAZ  23.240 1.00 Pg
MHD  12.290 1.00 Pg
AFJ   7.940 1.00 Pg
VRN  33.710 1.00 Sg
# 2011 06 21 13 58 44.300000 35.494 53.098   4.3  1.7 0.0 0.0 0.0       539
ANJ  12.180 1.00 Pg
DMV  15.640 1.00 Pg
FIR   5.410 1.00 Pg
LAS   1.570 0.50 Pg
SHM   6.300 1.00 Pg
VRN  22.250 1.00 Pg
FIR  10.410 1.00 Sg
# 2011 06 21 16 15 05.800000 34.322 52.321   6.0  2.0 0.0 0.0 0.0       540
DMV  22.460 1.00 Pg
FIR  24.080 1.00 Pg
LAS  22.080 1.00 Pg
VRN  15.190 1.00 Pg
SHM  30.140 1.00 Pg
FIR  42.420 1.00 Sg
VRN  26.530 1.00 Sg
KLH  20.620 1.00 Pg
ZEF  25.860 1.00 Pg
ZEF  44.720 1.00 Sg
# 2011 06 22 10 51 25.300000 35.667 52.694   5.0  1.4 0.0 0.0 0.0       541
AFJ  14.430 1.00 Pg
ALA   7.820 1.00 Pg
DMV   9.450 1.00 Pg
FIR   1.030 1.00 Pg
LAS   6.860 1.00 Pg
SHM   9.580 1.00 Pg
VRN  18.510 1.00 Pg
DMV  17.950 1.00 Sg
# 2011 06 22 15 24 27.200000 35.323 50.576   9.0  1.6 0.0 0.0 0.0       542
AFJ  20.070 1.00 Pg
DMV  22.810 1.00 Pg
RAZ  10.770 1.00 Pg
DMV  40.650 1.00 Sg
VRN  19.200 1.00 Pg
AFJ  35.950 1.00 Sg
# 2011 06 24 02 58 45.000000 34.558 53.751  29.1  2.0 0.0 0.0 0.0       543
VRN  31.530 1.00 Pg
QAM  37.750 1.00 Pn
DMV  31.860 1.00 Pg
FIR  25.210 1.00 Pg
# 2011 06 24 05 48 11.900000 35.476 52.930  11.0  1.4 0.0 0.0 0.0       544
FIR   4.700 1.00 Pg
LAS   2.700 1.00 Pg
SHM   8.240 1.00 Pg
FIR   7.780 1.00 Sg
LAS   4.940 1.00 Sg
# 2011 06 24 09 06 53.100000 36.850 53.881  24.8  2.0 0.0 0.0 0.0       545
ANJ  25.200 1.00 Pg
FIR  26.080 1.00 Pg
SHM  20.520 1.00 Pg
SHM  36.520 1.00 Sg
FIR  47.640 1.00 Sg
ALA  21.580 1.00 Pg
GLO   7.350 1.00 Pg
GLO  13.770 1.00 Sg
# 2011 06 24 16 26 19.600000 35.323 52.403  20.0  1.5 0.0 0.0 0.0       546
DMV   7.500 1.00 Pg
LAS   9.190 1.00 Pg
VRN  11.730 1.00 Pg
VRN  21.170 1.00 Sg
DMV  14.180 1.00 Sg
# 2011 06 25 06 35 25.600000 35.578 53.183  29.6  1.0 0.0 0.0 0.0       547
ALA  11.720 1.00 Pg
ANJ  12.420 1.00 Pg
FIR   8.450 1.00 Pg
LAS   6.710 1.00 Pg
SHM   6.600 1.00 Pg
SHM  11.810 1.00 Sg
FIR  14.570 1.00 Sg
# 2011 06 25 20 01 00.400000 34.763 53.789   3.0  1.9 0.0 0.0 0.0       548
DMV  29.800 1.00 Pg
GLO  31.850 1.00 Pg
SHM  19.610 1.00 Pg
VRN  30.390 1.00 Pg
ANJ  12.580 1.00 Pg
DMV  51.770 1.00 Sg
FIR  21.700 1.00 Pg
# 2011 06 26 07 27 59.300000 35.544 53.190   5.3  1.2 0.0 0.0 0.0       549
ALA  11.200 1.00 Pg
ANJ  11.000 1.00 Pg
FIR   6.750 1.00 Pg
LAS   4.540 1.00 Pg
SHM   5.070 1.00 Pg
SHM   8.830 1.00 Sg
FIR  11.990 1.00 Sg
# 2011 06 26 11 51 13.700000 35.511 53.259  18.4  1.4 0.0 0.0 0.0       550
FIR   8.550 1.00 Pg
LAS   6.030 1.00 Pg
SHM   6.310 1.00 Pg
SHM  11.010 1.00 Sg
FIR  14.710 1.00 Sg
# 2011 06 26 20 12 02.500000 35.925 53.205  11.2  1.4 0.0 0.0 0.0       551
SHM   2.900 1.00 Pg
LAS  10.970 1.00 Pg
GLO  14.290 1.00 Pg
FIR   8.320 1.00 Pg
DMV  18.090 1.00 Pg
ANJ  13.430 1.00 Pg
ALA   6.780 1.00 Pg
SHM   5.880 1.00 Sg
FIR  15.420 1.00 Sg
ALA  11.880 1.00 Sg
# 2011 06 27 00 13 57.700000 35.251 52.232  21.0  1.1 0.0 0.0 0.0       552
DMV   7.580 1.00 Pg
FIR  11.270 1.00 Pg
VRN   9.240 1.00 Pg
VRN  16.480 1.00 Sg
FIR  19.070 1.00 Sg
# 2011 06 27 14 30 00.600000 35.670 51.894   2.0  2.0 0.0 0.0 0.0       553
AFJ   5.170 1.00 Pg
ALA  16.680 1.00 Pg
ANJ  31.010 1.00 Pg
DMV   2.800 1.00 Pg
FIR  13.670 1.00 Pg
KIA  28.800 1.00 Pg
RAZ  29.930 1.00 Pg
SHM  21.910 1.00 Pg
VRN  13.320 1.00 Pg
VRN  23.560 1.00 Sg
FIR  24.060 1.00 Sg
DMV   5.700 1.00 Sg
# 2011 06 27 22 06 58.700000 36.159 53.787   3.9  2.1 0.0 0.0 0.0       554
ANJ  12.570 1.00 Pg
DMV  28.160 1.00 Pg
FIR  17.730 1.00 Pg
LAS  19.040 1.00 Pg
SHM   9.310 1.00 Pg
VRN  36.550 0.50 Pn
SHM  16.510 1.00 Sg
FIR  31.130 1.00 Sg
# 2011 06 28 10 04 09.600000 35.539 53.210  10.2  1.5 0.0 0.0 0.0       555
ANJ  10.730 1.00 Pg
LAS   5.060 1.00 Pg
SHM   5.110 1.00 Pg
VRN  24.120 1.00 Pg
SHM   9.510 1.00 Sg
# 2011 06 28 12 09 06.100000 35.408 52.854  25.6  1.4 0.0 0.0 0.0       556
VRN  18.730 1.00 Pg
LAS   4.790 1.00 Pg
FIR   6.360 1.00 Pg
FIR  11.020 1.00 Sg
# 2011 06 29 09 30 57.800000 35.525 52.247   4.0  2.2 0.0 0.0 0.0       557
DMV   3.520 1.00 Pg
FIR   7.540 1.00 Pg
GLO  29.170 1.00 Pg
KLH  38.830 1.00 Pn
QAM  32.750 1.00 Pn
RAZ  33.080 1.00 Pn
VRN  12.520 1.00 Pg
ZEF  44.000 1.00 Pn
# 2011 06 29 12 40 27.900000 35.709 51.776  10.9  1.6 0.0 0.0 0.0       558
DMV   5.430 1.00 Pg
VRN  13.840 1.00 Pg
AFJ   3.940 1.00 Pg
DMV   9.410 1.00 Sg
# 2011 06 29 14 04 26.400000 35.612 51.637  10.5  1.9 0.0 0.0 0.0       559
AFJ   5.760 1.00 Pg
DMV   6.370 1.00 Pg
FIR  17.440 1.00 Pg
LAS  21.530 1.00 Pg
RAZ  26.620 1.00 Pg
SHM  25.940 1.00 Pg
VRN  12.310 1.00 Pg
SHM  44.830 1.00 Sg
# 2011 06 29 15 28 16.300000 35.660 51.824   0.8  2.0 0.0 0.0 0.0       560
AFJ   3.830 1.00 Pg
DMV   2.650 1.00 Pg
FIR  13.140 1.00 Pg
GLO  34.080 0.00 Pn
RAZ  28.750 1.00 Pg
VRN  12.600 1.00 Pg
ANJ  31.050 1.00 Pg
SHM  21.970 1.00 Pg
DMV   5.970 1.00 Sg
ALA  16.850 1.00 Pg
# 2011 07 01 14 07 26.000000 36.359 52.404   5.7  2.1 0.0 0.0 0.0       561
ALA   7.270 1.00 Pg
AFJ  14.050 1.00 Pg
DMV  14.890 1.00 Pg
FIR  13.560 1.00 Pg
LAS  20.680 1.00 Pg
PRN   2.330 1.00 Pg
RAZ  39.870 1.00 Pn
PRN   4.830 1.00 Sg
DMV  25.830 1.00 Sg
# 2011 07 02 07 43 39.700000 35.558 53.253  26.4  0.8 0.0 0.0 0.0       562
FIR   8.780 1.00 Pg
LAS   7.150 1.00 Pg
SHM   6.660 1.00 Pg
SHM  11.260 1.00 Sg
FIR  15.400 1.00 Sg
# 2011 07 02 10 04 41.900000 36.205 52.886  16.5  2.4 0.0 0.0 0.0       563
VRN  27.080 1.00 Pg
SHM   9.490 1.00 Pg
PRN   7.870 1.00 Pg
LAS  15.900 1.00 Pg
GLO  15.290 1.00 Pg
FIR  10.090 1.00 Pg
DMV  16.830 1.00 Pg
ANJ  19.720 1.00 Pg
ALA   4.250 1.00 Pg
SHM  17.080 1.00 Sg
PRN  15.210 1.00 Sg
# 2011 07 02 13 33 34.300000 35.625 51.946  17.0  1.9 0.0 0.0 0.0       564
AFJ   6.250 1.00 Pg
DMV   3.430 1.00 Pg
DMV   6.130 1.00 Sg
VRN  12.150 1.00 Pg
VRN  20.910 1.00 Sg
# 2011 07 03 05 26 36.400000 34.968 52.525  10.0  1.5 0.0 0.0 0.0       565
DMV  13.070 1.00 Pg
FIR  12.470 1.00 Pg
LAS  10.360 1.00 Pg
VRN  11.550 1.00 Pg
DMV  23.070 1.00 Sg
VRN  20.990 1.00 Sg
# 2011 07 03 12 17 12.700000 36.286 52.482  10.1  1.9 0.0 0.0 0.0       566
ALA   5.630 1.00 Pg
ANJ  25.730 1.00 Pg
DMV  14.330 1.00 Pg
FIR  12.530 1.00 Pg
GLO  20.840 1.00 Pg
LAS  20.440 0.50 Pg
PRN   2.190 1.00 Pg
SHM  14.530 1.00 Pg
FIR  21.490 1.00 Sg
DMV  25.370 1.00 Sg
ALA  10.590 1.00 Sg
PRN   5.410 1.00 Sg
SHM  25.740 1.00 Sg
# 2011 07 03 17 18 57.400000 35.841 53.416   9.7  1.7 0.0 0.0 0.0       567
ANJ  10.260 1.00 Pg
DMV  20.670 1.00 Pg
FIR  10.180 1.00 Pg
GLO  17.980 0.00 Pg
LAS  11.690 1.00 Pg
SHM   3.030 1.00 Pg
FIR  17.780 1.00 Sg
ANJ  17.080 1.00 Sg
# 2011 07 03 17 19 30.200000 35.685 53.334   2.8  3.6 0.0 0.0 0.0       568
AFJ  23.830 1.00 Pg
ALA  10.470 1.00 Pg
ANJ   8.690 1.00 Pg
DMV  19.120 1.00 Pg
FIR   8.840 1.00 Pg
GLO  15.590 1.00 Pg
GAR  56.530 0.00 Pn
KLH  45.080 1.00 Pn
LAS   9.000 1.00 Pg
MHD  36.700 1.00 Pn
PIR  59.360 0.00 Pn
PRN  17.230 1.00 Pg
QAM  40.960 1.00 Pn
RAM  61.420 1.00 Pn
RAZ  45.120 1.00 Pn
SAD  58.770 1.00 Pn
SHM   1.960 1.00 Pg
VRN  27.220 1.00 Pg
SHM   4.380 1.00 Sg
PRN  30.330 1.00 Sg
GLO  29.050 1.00 Sg
ALA  18.510 1.00 Sg
EMG  70.920 1.00 Pn
KRD  77.000 1.00 Pn
MEH  66.950 1.00 Pn
SFR  62.030 1.00 Pn
# 2011 07 03 17 30 31.800000 35.722 53.324  10.9  2.4 0.0 0.0 0.0       569
ALA  10.070 1.00 Pg
ANJ   9.550 1.00 Pg
DMV  19.000 1.00 Pg
FIR   8.690 1.00 Pg
GLO  16.180 1.00 Pg
LAS   8.770 1.00 Pg
MHD  37.780 0.50 Pn
PRN  17.180 1.00 Pg
SHM   2.580 1.00 Pg
VRN  27.090 1.00 Pg
SHM   4.980 1.00 Sg
PRN  29.140 1.00 Sg
ALA  18.110 1.00 Sg
# 2011 07 03 17 49 42.600000 35.818 53.377  17.0  1.6 0.0 0.0 0.0       570
ANJ  10.530 1.00 Pg
SHM   3.490 1.00 Pg
LAS  10.870 1.00 Pg
FIR  10.000 1.00 Pg
DMV  20.290 1.00 Pg
FIR  17.820 1.00 Sg
LAS  17.870 1.00 Sg
# 2011 07 03 18 12 50.100000 35.827 53.411  13.8  1.8 0.0 0.0 0.0       571
ANJ  10.280 1.00 Pg
DMV  21.000 1.00 Pg
FIR  10.210 1.00 Pg
LAS  10.620 1.00 Pg
SHM   3.390 1.00 Pg
SHM   5.630 1.00 Sg
FIR  18.490 1.00 Sg
# 2011 07 03 18 31 35.100000 35.780 53.397  16.7  1.6 0.0 0.0 0.0       572
ANJ  10.190 1.00 Pg
LAS   9.860 1.00 Pg
SHM   3.470 1.00 Pg
FIR   9.770 1.00 Pg
DMV  20.570 1.00 Pg
SHM   6.230 1.00 Sg
DMV  36.050 1.00 Sg
# 2011 07 03 19 01 09.200000 35.731 53.383   7.3  1.6 0.0 0.0 0.0       573
ANJ   9.080 1.00 Pg
DMV  20.220 1.00 Pg
FIR   8.850 1.00 Pg
GLO  17.810 0.50 Pg
LAS   9.450 1.00 Pg
SHM   2.110 0.50 Pg
SHM   4.470 1.00 Sg
GLO  26.670 1.00 Sg
# 2011 07 03 19 01 25.500000 35.694 53.347   0.7  3.3 0.0 0.0 0.0       574
AFJ  24.150 1.00 Pg
AKL  67.830 1.00 Pn
ALA   9.750 1.00 Pg
ANJ   9.060 1.00 Pg
DMV  19.200 1.00 Pg
EMG  72.480 0.00 Pn
FIR   8.830 1.00 Pg
GLO  15.990 1.00 Pg
LAS   9.570 0.50 Pg
MEH  68.110 1.00 Pn
MHD  37.890 1.00 Pn
PRN  17.590 1.00 Pg
RAZ  45.450 1.00 Pn
SAD  59.100 1.00 Pn
SFR  62.360 1.00 Pn
SHM   2.190 1.00 Pg
VRN  27.440 1.00 Pg
GAR  59.100 0.00 Pn
KLH  46.770 0.50 Pn
PIR  59.830 0.00 Pn
RAM  63.200 0.50 Pn
SHM   4.670 1.00 Sg
PRN  30.720 1.00 Sg
ALA  18.030 1.00 Sg
# 2011 07 03 19 20 34.000000 35.710 53.391   3.3  1.5 0.0 0.0 0.0       575
ANJ   9.220 1.00 Pg
DMV  20.200 1.00 Pg
FIR   9.340 1.00 Pg
SHM   2.160 1.00 Pg
ANJ  15.240 1.00 Sg
SHM   4.620 1.00 Sg
# 2011 07 03 19 21 21.600000 35.843 53.410  11.8  1.9 0.0 0.0 0.0       576
ANJ  10.330 1.00 Pg
FIR  10.400 1.00 Pg
LAS  10.790 1.00 Pg
SHM   3.190 1.00 Pg
SHM   5.220 1.00 Sg
FIR  18.400 1.00 Sg
# 2011 07 03 19 21 43.800000 35.775 53.417   8.3  2.0 0.0 0.0 0.0       577
FIR   9.760 1.00 Pg
DMV  20.600 1.00 Pg
SHM   2.680 1.00 Pg
LAS  10.520 1.00 Pg
VRN  28.330 1.00 Pg
SHM   4.800 1.00 Sg
ANJ  10.240 1.00 Pg
ANJ  15.500 1.00 Sg
FIR  17.620 1.00 Sg
# 2011 07 03 19 23 23.800000 35.805 53.409  11.5  1.6 0.0 0.0 0.0       578
ANJ   9.860 1.00 Pg
DMV  20.930 1.00 Pg
FIR  10.080 1.00 Pg
LAS  10.420 1.00 Pg
SHM   2.970 1.00 Pg
SHM   5.170 1.00 Sg
FIR  17.860 1.00 Sg
# 2011 07 03 19 25 23.500000 35.799 53.401  18.0  0.9 0.0 0.0 0.0       579
FIR  10.100 1.00 Pg
SHM   3.910 1.00 Pg
SHM   6.250 1.00 Sg
FIR  18.090 1.00 Sg
DMV  21.230 1.00 Pg
# 2011 07 03 19 29 03.900000 35.874 53.379  20.9  1.2 0.0 0.0 0.0       580
ANJ  11.600 1.00 Pg
FIR  10.910 1.00 Pg
DMV  20.340 1.00 Pg
SHM   4.660 1.00 Pg
SHM   7.000 1.00 Sg
LAS  10.950 1.00 Pg
FIR  19.190 1.00 Sg
# 2011 07 03 19 29 47.500000 35.811 53.387  16.1  2.0 0.0 0.0 0.0       581
ANJ  10.550 1.00 Pg
DMV  20.540 1.00 Pg
FIR   9.850 1.00 Pg
LAS  10.080 1.00 Pg
SHM   3.570 1.00 Pg
SHM   5.730 1.00 Sg
FIR  18.150 1.00 Sg
# 2011 07 03 19 31 37.500000 35.821 53.371  16.3  1.8 0.0 0.0 0.0       582
ANJ  10.440 1.00 Pg
DMV  20.650 1.00 Pg
FIR   9.750 1.00 Pg
LAS  10.880 1.00 Pg
SHM   3.480 1.00 Pg
SHM   5.860 1.00 Sg
FIR  17.210 1.00 Sg
# 2011 07 03 20 10 22.100000 35.622 53.354   5.0  1.8 0.0 0.0 0.0       583
ALA  13.130 0.50 Pg
ANJ   8.420 1.00 Pg
DMV  19.760 1.00 Pg
FIR   8.590 1.00 Pg
GLO  18.610 0.50 Pg
VRN  27.770 1.00 Pg
SHM   3.650 1.00 Pg
LAS   9.430 0.00 Pg
GLO  30.270 1.00 Sg
PRN  17.770 1.00 Pg
# 2011 07 03 20 11 48.500000 35.709 53.377   1.1  1.5 0.0 0.0 0.0       584
ANJ   8.660 1.00 Pg
DMV  19.460 1.00 Pg
FIR   8.630 1.00 Pg
GLO  16.170 1.00 Pg
LAS   8.940 1.00 Pg
SHM   1.650 0.50 Pg
SHM   3.970 1.00 Sg
FIR  16.670 1.00 Sg
ANJ  15.880 1.00 Sg
# 2011 07 03 21 28 25.800000 35.891 53.392  16.5  1.7 0.0 0.0 0.0       585
SHM   4.040 1.00 Pg
LAS  11.760 1.00 Pg
GLO  18.850 0.00 Pg
FIR  10.370 1.00 Pg
DMV  21.020 1.00 Pg
ANJ  11.050 1.00 Pg
FIR  18.670 1.00 Sg
SHM   6.460 1.00 Sg
# 2011 07 03 22 20 44.100000 35.796 53.367  15.7  1.5 0.0 0.0 0.0       586
ANJ  10.320 1.00 Pg
FIR   9.380 1.00 Pg
LAS  10.110 1.00 Pg
SHM   3.320 1.00 Pg
SHM   5.530 1.00 Sg
FIR  17.080 1.00 Sg
DMV  20.390 1.00 Pg
# 2011 07 03 22 23 30.500000 35.766 53.374  15.9  0.8 0.0 0.0 0.0       587
ANJ  10.060 1.00 Pg
FIR   9.740 1.00 Pg
SHM   3.550 1.00 Pg
SHM   5.790 1.00 Sg
FIR  17.160 1.00 Sg
# 2011 07 03 22 32 09.700000 36.232 53.024  19.9  1.1 0.0 0.0 0.0       588
ALA   5.180 1.00 Pg
FIR  11.920 1.00 Pg
GLO  13.620 1.00 Pg
SHM   8.660 1.00 Pg
SHM  16.190 1.00 Sg
FIR  21.100 1.00 Sg
ALA   9.680 1.00 Sg
