# 2011 03 02 11 51 45.300000 35.570 52.253  19.3  1.7 0.0 0.0 0.0       171
DMV   4.800 1.00 Pg
FIR   8.900 1.00 Pg
LAS  11.680 1.00 Pg
VRN  13.850 1.00 Pg
DMV   8.900 1.00 Sg
# 2011 03 02 15 23 28.400000 36.241 49.344   5.0  1.9 0.0 0.0 0.0       172
RAZ  17.280 1.00 Pg
IL5  25.380 1.00 Pg
DMV  38.600 1.00 Pn
IL5  44.740 1.00 Sg
RAZ  30.300 1.00 Sg
# 2011 03 03 06 16 56.900000 35.158 52.318  12.4  2.1 0.0 0.0 0.0       173
ANJ  23.760 1.00 Pg
DMV   8.170 1.00 Pg
FIR  10.710 1.00 Pg
KLH  32.960 1.00 Pn
LAS  10.800 1.00 Pg
VRN   8.950 1.00 Pg
VRN  16.910 1.00 Sg
ZEF  38.420 0.50 Pn
DMV  15.710 1.00 Sg
FIR  19.830 1.00 Sg
RAZ  33.300 1.00 Pn
# 2011 03 03 07 04 00.200000 36.520 52.795  26.0  2.0 0.0 0.0 0.0       174
ALA   8.710 1.00 Pg
FIR  16.460 1.00 Pg
GLO  16.140 1.00 Pg
KIA  14.470 1.00 Pg
LAS  21.400 1.00 Pg
PRN   9.290 1.00 Pg
PRN  16.550 1.00 Sg
ALA  15.970 1.00 Sg
# 2011 03 03 07 04 51.900000 35.182 52.295  27.1  2.0 0.0 0.0 0.0       175
ANJ  24.850 1.00 Pg
DMV   8.890 1.00 Pg
DMV  16.410 1.00 Sg
IL5  44.730 1.00 Sg
LAS  11.600 1.00 Pg
VRN   9.750 1.00 Pg
VRN  17.570 1.00 Sg
# 2011 03 03 09 31 06.400000 35.972 53.214   5.0  2.0 0.0 0.0 0.0       176
ALA   6.220 1.00 Pg
ANJ  13.580 1.00 Pg
FIR   9.060 1.00 Pg
GLO  12.520 1.00 Pg
KIA   8.770 1.00 Pg
LAS  11.350 1.00 Pg
VRN  28.880 1.00 Pg
PRN  13.860 1.00 Pg
FIR  15.490 1.00 Sg
# 2011 03 03 13 00 22.500000 35.243 50.076   7.9  1.9 0.0 0.0 0.0       177
DMV  29.470 1.00 Pg
IL5   7.730 1.00 Pg
MHD  11.700 1.00 Pg
RAZ   3.840 1.00 Pg
VRN  25.470 1.00 Pg
RAZ   7.080 1.00 Sg
IL5  13.310 1.00 Sg
# 2011 03 03 14 48 55.300000 35.384 50.126   6.0  1.9 0.0 0.0 0.0       178
DMV  28.800 1.00 Pg
IL5   7.090 1.00 Pg
KLH  39.890 1.00 Pn
RAZ   3.140 1.00 Pg
VRN  24.570 1.00 Pg
IL5  12.990 1.00 Sg
# 2011 03 03 18 54 42.400000 35.798 51.644   8.1  1.7 0.0 0.0 0.0       179
DMV   7.020 1.00 Pg
FIR  16.790 1.00 Pg
VRN  14.820 1.00 Pg
RAZ  26.510 1.00 Pg
LAS  22.700 1.00 Pg
DMV  12.200 1.00 Sg
# 2011 03 03 23 39 01.600000 37.750 49.132  18.2  3.1 0.0 0.0 0.0       180
BST  30.050 1.00 Pg
GLO  59.150 1.00 Pn
PRN  46.640 1.00 Pn
SHB  44.280 1.00 Pn
BST  55.530 1.00 Sg
# 2011 03 04 02 35 21.000000 36.571 49.582   4.3  2.7 0.0 0.0 0.0       181
DMV  38.310 1.00 Pn
IL5  28.020 1.00 Pg
MHD  22.020 1.00 Pg
PRN  37.550 1.00 Pn
MHD  38.960 1.00 Sg
VRN  40.130 0.50 Pn
BST  40.540 1.00 Pn
SHB  64.090 0.00 Pn
IL5  49.640 1.00 Sg
# 2011 03 04 13 10 53.400000 35.017 50.530  15.3  2.3 0.0 0.0 0.0       182
DMV  24.350 1.00 Pg
ANJ  44.590 1.00 Pn
IL5   4.310 1.00 Pg
MHD  12.600 1.00 Pg
LAS  35.210 0.00 Pn
KLH  30.230 0.50 Pn
RAZ  11.880 1.00 Pg
VRN  18.030 1.00 Pg
IL5   7.770 1.00 Sg
DMV  42.560 1.00 Sg
# 2011 03 05 06 03 07.400000 36.111 53.361  24.1  1.9 0.0 0.0 0.0       183
ALA   8.970 1.00 Pg
ANJ  14.710 1.00 Pg
DMV  21.980 1.00 Pg
FIR  13.020 1.00 Pg
GLO  10.370 1.00 Pg
KIA   6.130 1.00 Pg
LAS  15.090 1.00 Pg
PRN  15.830 1.00 Pg
ALA  15.650 1.00 Sg
FIR  22.840 1.00 Sg
GLO  19.150 1.00 Sg
# 2011 03 06 07 28 59.300000 34.769 53.038   5.0  2.0 0.0 0.0 0.0       184
VRN  19.720 1.00 Pg
KIA  28.060 1.00 Pg
GLO  34.290 0.00 Pn
FIR  15.930 1.00 Pg
FIR  27.960 1.00 Sg
ANJ  17.810 1.00 Pg
ALA  24.780 1.00 Pg
# 2011 03 06 16 25 58.000000 37.068 49.929   4.1  2.8 0.0 0.0 0.0       185
BST  41.340 1.00 Pn
DMV  38.730 1.00 Pn
FIR  43.890 1.00 Pn
HRS  41.940 1.00 Pn
IL5  33.740 1.00 Pn
MHD  26.710 1.00 Pg
RAZ  29.230 1.00 Pg
SRB  33.690 1.00 Pn
VRN  42.070 1.00 Pn
RAZ  52.000 1.00 Sg
# 2011 03 06 21 10 52.000000 37.217 50.085  10.0  2.7 0.0 0.0 0.0       186
RAZ  30.730 1.00 Pn
MHD  28.720 1.00 Pg
VRN  45.130 0.00 Pn
BST  41.980 1.00 Pn
# 2011 03 06 23 10 49.300000 35.609 53.375  24.0  2.0 0.0 0.0 0.0       187
ANJ   9.360 1.00 Pg
FIR  10.120 1.00 Pg
VRN  26.910 1.00 Pg
FIR  17.520 1.00 Sg
# 2011 03 06 23 57 42.100000 35.332 50.885  17.1  1.6 0.0 0.0 0.0       188
IL5   5.620 1.00 Pg
MHD   7.750 1.00 Pg
RAZ  14.570 1.00 Pg
VRN  14.200 1.00 Pg
IL5  10.190 1.00 Sg
# 2011 03 07 08 43 10.700000 35.527 53.230   5.0  1.5 0.0 0.0 0.0       189
ALA  11.920 1.00 Pg
FIR   6.890 1.00 Pg
LAS   5.050 1.00 Pg
FIR  13.110 1.00 Sg
ANJ  10.270 1.00 Pg
# 2011 03 07 15 37 50.200000 36.262 52.723  20.5  1.9 0.0 0.0 0.0       190
ALA   4.830 1.00 Pg
ANJ  22.930 1.00 Pg
DMV  16.370 1.00 Pg
DMV  28.270 1.00 Sg
FIR  11.720 1.00 Pg
FIR  20.780 1.00 Sg
GLO  17.390 1.00 Pg
LAS  17.530 1.00 Pg
PRN   6.440 1.00 Pg
PRN  11.780 1.00 Sg
VRN  27.600 1.00 Pg
# 2011 03 08 09 09 53.100000 35.649 51.510  16.6  1.4 0.0 0.0 0.0       191
VRN  12.490 1.00 Pg
FIR  18.450 1.00 Pg
RAZ  23.890 1.00 Pg
RAZ  41.250 1.00 Sg
# 2011 03 08 10 12 56.700000 35.648 51.833   5.4  1.8 0.0 0.0 0.0       192
ANJ  30.620 1.00 Pg
DMV   2.140 0.50 Pg
IL5  19.290 1.00 Pg
RAZ  28.300 1.00 Pg
VRN  12.160 1.00 Pg
FIR  23.690 1.00 Sg
ANJ  53.740 1.00 Sg
FIR  13.230 1.00 Pg
RAZ  49.870 1.00 Sg
DMV   5.760 1.00 Sg
# 2011 03 08 12 23 16.500000 35.409 52.762   9.0  0.8 0.0 0.0 0.0       193
FIR   5.090 1.00 Pg
DMV  12.020 1.00 Pg
LAS   3.920 1.00 Pg
DMV  21.440 1.00 Sg
ANJ  18.320 1.00 Pg
# 2011 03 08 16 00 23.900000 34.978 52.753  18.0  1.8 0.0 0.0 0.0       194
ANJ  19.570 1.00 Pg
DMV  15.370 1.00 Pg
FIR  11.870 1.00 Pg
LAS   8.830 1.00 Pg
DMV  27.030 1.00 Sg
# 2011 03 09 07 03 18.200000 34.768 53.812   5.0  1.8 0.0 0.0 0.0       195
ANJ  12.300 1.00 Pg
DMV  30.250 1.00 Pg
FIR  21.750 1.00 Pg
GLO  31.350 1.00 Pg
VRN  30.600 1.00 Pg
FIR  38.560 1.00 Sg
ANJ  22.080 1.00 Sg
# 2011 03 09 07 36 13.800000 35.490 53.246   5.0  1.5 0.0 0.0 0.0       196
ANJ  10.310 1.00 Pg
FIR   6.830 0.50 Pg
LAS   4.720 1.00 Pg
VRN  24.380 1.00 Pg
GLO  22.880 0.00 Pg
ALA  12.590 1.00 Pg
FIR  13.250 1.00 Sg
ALA  22.290 1.00 Sg
KIA  13.720 1.00 Pg
# 2011 03 09 12 10 59.700000 35.510 52.285   6.0  1.8 0.0 0.0 0.0       197
ANJ  25.600 1.00 Pg
DMV   3.400 1.00 Pg
FIR   7.470 1.00 Pg
LAS  10.240 1.00 Pg
VRN  12.390 1.00 Pg
KIA  25.070 1.00 Pg
DMV   7.740 1.00 Sg
# 2011 03 09 14 51 06.600000 36.442 53.167   9.8  1.6 0.0 0.0 0.0       198
VRN  31.990 1.00 Pn
GLO  10.160 1.00 Pg
FIR  16.000 1.00 Pg
DMV  21.890 1.00 Pg
ANJ  20.350 1.00 Pg
DMV  39.930 1.00 Sg
# 2011 03 09 16 44 13.200000 35.534 51.727  11.2  2.0 0.0 0.0 0.0       199
ANJ  30.930 1.00 Pg
DMV   5.180 1.00 Pg
FIR  15.320 1.00 Pg
DMV   8.800 1.00 Sg
LAS  18.550 1.00 Pg
VRN   9.880 1.00 Pg
# 2011 03 09 19 12 53.900000 35.687 50.931   4.0  2.0 0.0 0.0 0.0       200
DMV  17.960 1.00 Pg
IL5  10.950 1.00 Pg
MHD   4.030 1.00 Pg
MHD   7.630 1.00 Sg
IL5  19.010 1.00 Sg
VRN  18.520 1.00 Pg
VRN  32.580 1.00 Sg
FIR  28.010 1.00 Pg
# 2011 03 10 01 27 11.900000 35.571 52.638  17.2  1.4 0.0 0.0 0.0       201
VRN  17.150 1.00 Pg
LAS   6.650 1.00 Pg
FIR   3.800 1.00 Pg
DMV   9.510 1.00 Pg
FIR   6.640 1.00 Sg
# 2011 03 10 03 42 46.300000 36.630 53.697  11.8  2.3 0.0 0.0 0.0       202
ALA  15.960 1.00 Pg
ANJ  22.580 0.50 Pg
DMV  30.570 1.00 Pg
FIR  22.150 1.00 Pg
GLO   3.750 1.00 Pg
KIA   7.800 1.00 Pg
PRN  20.600 1.00 Pg
VRN  38.780 0.50 Pn
LAS  24.910 1.00 Pg
ALA  28.280 1.00 Sg
GLO   6.800 1.00 Sg
KIA  13.820 1.00 Sg
PRN  37.040 1.00 Sg
# 2011 03 10 04 06 33.100000 35.958 53.469   3.4  1.5 0.0 0.0 0.0       203
VRN  30.660 1.00 Pg
KIA   4.920 1.00 Pg
GLO  12.680 0.50 Pg
FIR  11.670 1.00 Pg
DMV  22.240 1.00 Pg
ANJ  11.210 1.00 Pg
ALA   9.650 1.00 Pg
ALA  17.510 1.00 Sg
FIR  20.660 1.00 Sg
KIA   9.890 1.00 Sg
# 2011 03 10 10 24 13.800000 35.768 52.827  10.0  1.2 0.0 0.0 0.0       204
ALA   5.790 1.00 Pg
ANJ  16.900 1.00 Pg
FIR   1.980 0.50 Pg
VRN  22.280 1.00 Pg
LAS   7.730 1.00 Pg
DMV  12.270 1.00 Pg
FIR   4.860 1.00 Sg
ALA  10.420 1.00 Sg
KIA  25.970 1.00 Sg
# 2011 03 10 15 44 06.000000 36.732 51.039   5.7  2.3 0.0 0.0 0.0       205
FIR  31.110 1.00 Pg
GLO  38.080 1.00 Pn
PRN  22.750 1.00 Pg
RAZ  28.800 1.00 Pg
VRN  32.020 1.00 Pn
FIR  55.070 1.00 Sg
# 2011 03 10 20 08 15.200000 34.422 52.093  12.1  2.0 0.0 0.0 0.0       206
FIR  24.320 1.00 Pg
KLH  21.030 1.00 Pg
QAM  15.370 1.00 Pg
VRN  11.690 1.00 Pg
ZEF  27.480 1.00 Pg
KLH  36.970 1.00 Sg
VRN  20.510 1.00 Sg
QAM  27.330 1.00 Sg
# 2011 03 10 20 29 00.400000 35.834 52.162   3.8  1.4 0.0 0.0 0.0       207
DMV   4.360 1.00 Pg
FIR   8.730 1.00 Pg
PRN   7.410 1.00 Pg
RAZ  32.790 1.00 Pn
VRN  16.680 1.00 Pg
DMV   9.000 1.00 Sg
FIR  16.290 1.00 Sg
LAS  25.080 1.00 Sg
PRN  14.150 1.00 Sg
VRN  28.720 1.00 Sg
# 2011 03 11 16 38 26.000000 37.480 50.324   4.5  3.2 0.0 0.0 0.0       208
ALA  39.880 1.00 Pn
DMV  39.640 1.00 Pn
IL5  38.130 1.00 Pn
MHD  32.060 1.00 Pn
PRN  34.000 1.00 Pn
RAZ  35.000 1.00 Pn
VRN  44.940 1.00 Pn
FIR  44.700 1.00 Pn
# 2011 03 12 13 06 33.800000 35.520 49.629   5.0  3.0 0.0 0.0 0.0       209
IL5  14.310 1.00 Pg
MHD  15.390 1.00 Pg
QAM  40.440 0.00 Pn
RAZ   4.160 1.00 Pg
VRN  32.400 0.50 Pg
DMV  34.920 1.00 Pn
SNGE 33.260 0.50 Pn
ZNJK 28.600 0.00 Pg
THKV 21.320 0.50 Pg
ASAO 18.730 0.50 Pg
RAZ   8.560 1.00 Sg
IL5  26.310 1.00 Sg
# 2011 03 12 14 27 50.800000 35.606 51.560  12.0  1.5 0.0 0.0 0.0       210
DMV   7.540 1.00 Pg
FIR  18.240 1.00 Pg
VRN  11.930 1.00 Pg
DMV  13.820 1.00 Sg
FIR  32.120 1.00 Sg
RAZ  25.080 1.00 Pg
# 2011 03 12 15 05 10.600000 35.700 51.724   3.4  1.6 0.0 0.0 0.0       211
DMV   4.600 1.00 Pg
FIR  15.420 1.00 Pg
VRN  12.720 1.00 Pg
RAZ  27.730 1.00 Pg
IL5  19.040 1.00 Pg
DMV   9.120 1.00 Sg
# 2011 03 13 01 30 40.600000 35.721 52.470   9.7  2.3 0.0 0.0 0.0       212
ALA   8.190 1.00 Pg
ANJ  21.920 1.00 Pg
DMV   6.720 1.00 Pg
FIR   4.470 1.00 Pg
GLO  25.140 1.00 Pg
IL5  28.550 1.00 Pg
LAS   9.860 1.00 Pg
MHD  26.100 1.00 Pg
PRN  10.070 1.00 Pg
RAZ  35.790 1.00 Pn
VRN  17.270 1.00 Pg
DMV  12.680 1.00 Sg
# 2011 03 13 04 46 32.700000 36.510 52.581  21.4  2.0 0.0 0.0 0.0       213
ALA   9.300 1.00 Pg
ANJ  26.990 1.00 Pg
DMV  19.030 1.00 Pg
FIR  16.110 1.00 Pg
GLO  19.310 1.00 Pg
LAS  21.510 1.00 Pg
PRN   7.090 1.00 Pg
ALA  16.180 1.00 Sg
DMV  32.810 1.00 Sg
# 2011 03 13 11 17 12.000000 35.892 53.218   8.4  2.3 0.0 0.0 0.0       214
ALA   6.890 1.00 Pg
ANJ  12.710 1.00 Pg
DMV  18.270 1.00 Pg
FIR   8.090 1.00 Pg
GLO  14.490 1.00 Pg
LAS   9.990 1.00 Pg
PRN  14.230 1.00 Pg
VRN  27.430 1.00 Pg
PRN  24.800 1.00 Sg
FIR  14.840 1.00 Sg
ALA  12.450 1.00 Sg
# 2011 03 13 13 26 03.900000 35.386 50.001   8.7  2.4 0.0 0.0 0.0       215
DMV  29.650 1.00 Pg
DMV  52.920 1.00 Sg
FIR  39.930 0.00 Pn
IL5   7.950 0.00 Pg
MHD  11.380 1.00 Pg
VRN  26.180 1.00 Pg
ALA  39.700 0.00 Pn
MHD  19.500 1.00 Sg
VRN  45.940 1.00 Sg
# 2011 03 14 14 46 38.000000 35.124 50.827  18.0  1.8 0.0 0.0 0.0       216
DMV  19.160 1.00 Pg
IL3   8.020 1.00 Pg
RAZ  14.290 1.00 Pg
VRN  14.150 1.00 Pg
RAZ  25.270 1.00 Sg
# 2011 03 14 20 36 11.300000 36.089 53.354  26.5  1.9 0.0 0.0 0.0       217
ALA   8.980 1.00 Pg
DMV  22.060 1.00 Pg
GLO  11.230 1.00 Pg
PRN  15.310 1.00 Pg
PRN  27.430 1.00 Sg
# 2011 03 15 07 12 38.400000 34.145 50.741   3.6  2.1 0.0 0.0 0.0       218
DMV  31.580 1.00 Pg
FIR  37.810 1.00 Pn
RAZ  25.610 1.00 Pg
VRN  20.940 1.00 Pg
VRN  36.940 1.00 Sg
KLH  19.060 1.00 Pg
PIR  26.700 1.00 Pg
QAM  12.160 1.00 Pg
ZEF  32.550 1.00 Pn
QAM  21.840 1.00 Sg
KLH  33.920 1.00 Sg
# 2011 03 15 11 21 08.400000 35.579 53.317   8.9  1.6 0.0 0.0 0.0       219
FIR   8.620 1.00 Pg
VRN  26.180 1.00 Pg
LAS   6.670 1.00 Pg
LAS  11.510 1.00 Sg
# 2011 03 15 12 21 58.100000 35.514 51.081  12.8  1.3 0.0 0.0 0.0       220
VRN  13.590 1.00 Pg
IL3  -0.840 0.00 Pg
DMV  14.200 1.00 Pg
FIR  25.200 1.00 Pg
MHD   6.670 1.00 Pg
MHD  12.790 1.00 Sg
# 2011 03 15 14 12 17.500000 36.826 50.456  12.7  3.8 0.0 0.0 0.0       221
ALA  33.430 1.00 Pn
BST  47.010 1.00 Pn
DMV  31.230 1.00 Pg
GLO  42.360 0.50 Pn
MHD  20.490 1.00 Pg
PRN  27.540 1.00 Pg
RAZ  26.110 1.00 Pg
SRB  39.830 1.00 Pn
VRN  35.220 1.00 Pn
FIR  37.000 1.00 Pn
RAZ  46.440 1.00 Sg
MHD  36.270 1.00 Sg
LAS  40.970 1.00 Pn
DMV  55.610 1.00 Sg
# 2011 03 15 18 59 22.700000 35.856 53.244   5.0  1.5 0.0 0.0 0.0       222
LAS   9.510 1.00 Pg
GLO  14.630 1.00 Pg
FIR   8.240 1.00 Pg
DMV  18.910 1.00 Pg
ANJ  11.980 1.00 Pg
ALA  13.040 1.00 Sg
# 2011 03 16 06 14 15.200000 35.893 53.262   8.9  1.7 0.0 0.0 0.0       223
ALA   7.060 1.00 Pg
ANJ  12.240 1.00 Pg
FIR   8.500 1.00 Pg
GLO  14.270 1.00 Pg
LAS  10.590 1.00 Pg
VRN  27.800 1.00 Pg
ALA  13.600 1.00 Sg
FIR  15.900 1.00 Sg
DMV  18.980 1.00 Pg
# 2011 03 16 18 43 01.700000 35.305 52.370  14.1  1.9 0.0 0.0 0.0       224
ANJ  22.690 1.00 Pg
DMV   7.160 1.00 Pg
FIR   8.400 1.00 Pg
LAS   9.090 1.00 Pg
QAM  30.100 1.00 Pg
VRN  11.160 1.00 Pg
DMV  13.380 1.00 Sg
FIR  15.200 1.00 Sg
LAS  16.570 1.00 Sg
QAM  53.680 1.00 Sg
VRN  19.780 1.00 Sg
# 2011 03 17 07 12 10.500000 35.552 53.300  10.7  1.4 0.0 0.0 0.0       225
FIR   8.480 1.00 Pg
LAS   6.270 1.00 Pg
VRN  25.650 1.00 Pg
FIR  14.680 1.00 Sg
# 2011 03 17 09 28 28.100000 36.267 50.650   5.0  2.3 0.0 0.0 0.0       226
MHD   9.960 1.00 Pg
RAZ  18.530 1.00 Pg
VRN  28.560 1.00 Pg
RAZ  32.810 1.00 Sg
# 2011 03 17 09 48 47.300000 35.494 53.217  12.0  1.5 0.0 0.0 0.0       227
ALA  13.140 1.00 Pg
ANJ  10.630 1.00 Pg
FIR   7.170 0.50 Pg
LAS   4.980 1.00 Pg
VRN  24.550 1.00 Pg
ALA  22.660 1.00 Sg
FIR  13.390 1.00 Sg
GLO  21.310 1.00 Pg
# 2011 03 17 14 50 48.000000 35.458 49.987   5.0  2.0 0.0 0.0 0.0       228
DMV  29.460 1.00 Pg
FIR  38.690 1.00 Pn
RAZ   1.760 1.00 Pg
MHD  10.830 1.00 Pg
DMV  52.200 1.00 Sg
# 2011 03 17 23 27 39.100000 35.708 49.016  18.4  2.8 0.0 0.0 0.0       229
RAZ  14.270 1.00 Pg
MHD  24.050 1.00 Pg
LIN  31.280 1.00 Pn
BST  41.420 1.00 Pn
BZA  26.480 1.00 Pg
DHR  38.670 1.00 Pn
DMV  42.130 0.00 Pn
FIR  50.860 0.00 Pn
VRN  41.570 0.00 Pn
RAZ  26.170 1.00 Sg
# 2011 03 18 00 26 42.700000 36.116 50.294   6.4  1.8 0.0 0.0 0.0       230
VRN  29.040 1.00 Pg
RAZ  13.970 1.00 Pg
MHD   9.600 1.00 Pg
RAZ  24.190 1.00 Sg
# 2011 03 18 01 21 35.400000 34.435 50.729  13.9  1.7 0.0 0.0 0.0       231
DMV  27.610 1.00 Pg
RAZ  21.130 1.00 Pg
VRN  18.000 1.00 Pg
VRN  31.260 1.00 Sg
# 2011 03 18 09 30 39.100000 35.381 49.469   5.0  2.4 0.0 0.0 0.0       232
RAZ   6.590 1.00 Pg
MHD  18.530 1.00 Pg
VRN  32.970 1.00 Pn
RAZ  11.990 1.00 Sg
# 2011 03 18 11 04 22.800000 36.103 53.765   5.0  1.4 0.0 0.0 0.0       233
ALA  13.860 1.00 Pg
ANJ  11.550 1.00 Pg
FIR  16.980 1.00 Pg
GLO   8.020 1.00 Pg
KIA   1.840 0.50 Pg
KIA   3.860 1.00 Sg
ALA  24.750 1.00 Sg
# 2011 03 18 11 07 09.800000 34.682 52.677  11.2  1.5 0.0 0.0 0.0       234
ALA  25.770 1.00 Pg
ANJ  23.210 1.00 Pg
FIR  16.990 1.00 Pg
VRN  15.560 1.00 Pg
VRN  26.360 1.00 Sg
FIR  30.390 1.00 Sg
# 2011 03 18 18 58 42.200000 36.144 50.292  10.8  1.6 0.0 0.0 0.0       235
VRN  29.210 1.00 Pg
RAZ  14.590 1.00 Pg
MHD  10.080 1.00 Pg
DMV  26.940 1.00 Pg
RAZ  24.830 1.00 Sg
MHD  17.500 1.00 Sg
# 2011 03 18 22 58 37.900000 35.408 52.415  12.0  1.8 0.0 0.0 0.0       236
ANJ  22.600 1.00 Pg
DMV   6.940 1.00 Pg
FIR   7.410 1.00 Pg
LAS   9.240 1.00 Pg
QAM  32.320 0.50 Pn
VRN  13.030 1.00 Pg
DMV  12.970 1.00 Sg
KLH  38.090 0.50 Pn
VRN  23.090 1.00 Sg
# 2011 03 19 09 43 04.300000 35.639 51.499  19.7  1.7 0.0 0.0 0.0       237
FIR  19.180 1.00 Pg
RAZ  24.070 1.00 Pg
VRN  12.840 1.00 Pg
FIR  33.360 1.00 Sg
# 2011 03 19 11 17 28.300000 35.703 53.800   8.6  1.8 0.0 0.0 0.0       238
ANJ   4.700 1.00 Pg
FIR  15.430 1.00 Pg
VRN  31.770 1.00 Pn
LAS  14.120 1.00 Pg
ANJ   8.640 1.00 Sg
# 2011 03 19 12 19 28.500000 35.633 51.559  12.0  1.4 0.0 0.0 0.0       239
DMV   7.790 1.00 Pg
FIR  18.750 1.00 Pg
VRN  12.390 1.00 Pg
DMV  13.410 1.00 Sg
FIR  32.610 1.00 Sg
# 2011 03 19 16 42 37.500000 36.396 49.878   5.0  2.1 0.0 0.0 0.0       240
ALA  40.240 1.00 Pn
DMV  33.470 1.00 Pn
FIR  42.320 0.50 Pn
MHD  17.020 1.00 Pg
PRN  33.810 1.00 Pn
RAZ  17.660 1.00 Pg
VRN  35.480 1.00 Pn
# 2011 03 22 12 11 28.800000 36.016 51.725   7.0  2.0 0.0 0.0 0.0       241
ALA  17.580 1.00 Pg
ALA  30.320 1.00 Sg
DMV  10.700 1.00 Pg
MHD  18.860 1.00 Pg
PRN  11.080 1.00 Pg
RAZ  30.360 1.00 Pg
VRN  20.430 1.00 Pg
VRN  34.890 1.00 Sg
DMV  17.460 1.00 Sg
# 2011 03 22 12 21 43.800000 36.029 51.744   5.2  1.9 0.0 0.0 0.0       242
ALA  15.300 1.00 Pg
DMV   8.710 1.00 Pg
GLO  31.220 1.00 Pg
KIA  28.690 1.00 Pg
MHD  16.790 1.00 Pg
PRN   8.900 1.00 Pg
PRN  17.000 1.00 Sg
VRN  18.370 1.00 Pg
VRN  32.680 1.00 Sg
ALA  28.040 1.00 Sg
ANJ  32.610 1.00 Pn
DMV  16.090 1.00 Sg
FIR  16.040 1.00 Pg
MHD  29.970 1.00 Sg
# 2011 03 23 08 10 18.800000 35.076 53.902   5.0  1.9 0.0 0.0 0.0       243
ANJ   7.020 1.00 Pg
DMV  29.100 1.00 Pg
GLO  27.240 1.00 Pg
LAS  14.550 0.50 Pg
VRN  31.480 1.00 Pg
DMV  50.960 1.00 Sg
VRN  54.980 1.00 Sg
ANJ  11.930 1.00 Sg
# 2011 03 24 08 41 51.500000 35.147 51.106  20.3  2.2 0.0 0.0 0.0       244
IL3   7.290 1.00 Pg
MHD  12.550 1.00 Pg
RAZ  18.760 1.00 Pg
VRN  10.550 1.00 Pg
MHD  21.750 1.00 Sg
# 2011 03 24 10 12 33.300000 35.177 51.127   5.0  2.9 0.0 0.0 0.0       245
ALA  29.800 1.00 Pg
DMV  15.260 1.00 Pg
MHD  11.330 1.00 Pg
MHD  20.310 1.00 Sg
PIR  43.300 0.50 Pn
PRN  25.840 1.00 Pg
RAZ  17.540 1.00 Pg
VRN   9.280 1.00 Pg
ZEF  41.600 1.00 Pn
GLO  44.660 0.50 Pn
FIR  25.240 1.00 Pg
# 2011 03 24 15 13 25.000000 35.086 51.078   8.0  1.6 0.0 0.0 0.0       246
DMV  16.430 1.00 Pg
MHD  12.000 1.00 Pg
VRN  10.180 1.00 Pg
MHD  21.940 1.00 Sg
# 2011 03 24 16 59 23.300000 35.190 51.933  29.4  1.1 0.0 0.0 0.0       247
DMV   9.030 1.00 Pg
FIR  15.730 1.00 Pg
VRN   6.930 1.00 Pg
VRN  12.030 1.00 Sg
# 2011 03 25 04 48 22.700000 35.990 53.297  25.3  0.9 0.0 0.0 0.0       248
ALA   8.450 1.00 Pg
ANJ  13.520 1.00 Pg
KIA   8.340 1.00 Pg
LAS  13.030 1.00 Pg
ALA  14.870 1.00 Sg
# 2011 03 25 06 45 15.800000 35.187 51.141  17.3  1.5 0.0 0.0 0.0       249
MHD  12.160 1.00 Pg
RAZ  19.010 1.00 Pg
VRN  10.160 1.00 Pg
RAZ  33.050 1.00 Sg
# 2011 03 25 22 11 53.200000 35.176 51.148  33.2  1.1 0.0 0.0 0.0       250
MHD  12.560 1.00 Pg
MHD  22.310 1.00 Sg
RAZ  19.480 1.00 Pg
VRN  10.830 1.00 Pg
QAM  45.640 1.00 Sg
# 2011 03 25 22 22 39.700000 35.123 51.102   9.9  1.9 0.0 0.0 0.0       251
DMV  15.860 1.00 Pg
DMV  27.700 1.00 Sg
FIR  26.870 1.00 Pg
KLH  32.010 1.00 Pn
MHD  12.020 1.00 Pg
QAM  24.980 1.00 Pg
RAZ  18.400 1.00 Pg
VRN   9.950 1.00 Pg
MHD  20.820 1.00 Sg
# 2011 03 26 02 20 22.000000 35.759 52.885  12.0  1.4 0.0 0.0 0.0       252
ALA   6.440 1.00 Pg
FIR   3.240 1.00 Pg
LAS   7.500 1.00 Pg
PRN  12.980 1.00 Pg
VRN  22.640 1.00 Pg
PRN  21.460 1.00 Sg
# 2011 03 26 08 23 10.000000 35.323 50.166   7.0  2.3 0.0 0.0 0.0       253
DMV  28.110 1.00 Pg
RAZ   4.010 1.00 Pg
VRN  24.300 1.00 Pg
PRN  34.340 1.00 Pn
MHD   9.790 1.00 Pg
FIR  36.710 1.00 Pn
MHD  17.010 1.00 Sg
# 2011 03 26 16 23 48.300000 35.143 51.125  19.8  2.0 0.0 0.0 0.0       254
DMV  15.930 1.00 Pg
MHD  12.240 1.00 Pg
RAZ  18.520 1.00 Pg
VRN   9.830 1.00 Pg
RAZ  32.240 1.00 Sg
# 2011 03 27 17 20 37.200000 35.784 52.664   5.0  1.2 0.0 0.0 0.0       255
DMV  10.070 1.00 Pg
FIR   3.100 1.00 Pg
VRN  19.890 1.00 Pg
DMV  17.360 1.00 Sg
# 2011 03 28 00 32 44.400000 34.778 51.785   8.6  2.3 0.0 0.0 0.0       256
ZEF  33.900 1.00 Pn
RAZ  28.960 1.00 Pg
PIR  40.490 0.00 Pn
MHD  23.620 1.00 Pg
KLH  26.510 1.00 Pg
FIR  21.210 1.00 Pg
DMV  14.630 1.00 Pg
# 2011 03 28 03 41 24.300000 36.342 52.212   8.1  1.8 0.0 0.0 0.0       257
ALA   9.720 1.00 Pg
DMV  14.080 1.00 Pg
FIR  15.040 1.00 Pg
GLO  24.650 1.00 Pg
KIA  22.070 1.00 Pg
LAS  20.610 1.00 Pg
PRN   2.790 1.00 Pg
VRN  25.420 1.00 Pg
DMV  24.400 1.00 Sg
ANJ  29.620 1.00 Pg
# 2011 03 28 10 06 22.300000 35.529 49.401  10.0  2.6 0.0 0.0 0.0       258
VRN  34.200 1.00 Pn
RAZ   7.800 1.00 Pg
RAZ  14.460 1.00 Sg
MHD  18.530 1.00 Pg
MHD  32.910 1.00 Sg
# 2011 03 28 16 41 32.700000 36.425 52.013   2.0  1.5 0.0 0.0 0.0       259
ALA  12.900 1.00 Pg
DMV  15.310 1.00 Pg
PRN   5.570 1.00 Pg
PRN   9.720 1.00 Sg
ALA  22.670 1.00 Sg
DMV  26.150 1.00 Sg
# 2011 03 28 17 04 33.300000 36.381 52.114  10.0  2.1 0.0 0.0 0.0       260
ALA  12.500 1.00 Pg
DMV  14.210 1.00 Pg
FIR  16.660 1.00 Pg
GLO  27.860 0.00 Pg
MHD  24.310 1.00 Pg
LAS  22.190 1.00 Pg
PRN   4.370 1.00 Pg
RAZ  35.030 1.00 Pn
VRN  25.490 1.00 Pg
DMV  25.310 1.00 Sg
PRN   8.470 1.00 Sg
