# 2011 03 28 17 14 01.500000 36.323 52.091  10.0  1.7 0.0 0.0 0.0       261
ALA  11.550 1.00 Pg
DMV  13.230 1.00 Pg
FIR  15.670 1.00 Pg
GLO  26.180 1.00 Pg
PRN   4.280 1.00 Pg
RAZ  34.300 1.00 Pn
VRN  24.630 1.00 Pg
PRN   8.600 1.00 Sg
# 2011 03 28 17 59 25.600000 35.676 49.931   0.5  2.1 0.0 0.0 0.0       262
DMV  30.780 1.00 Pg
MHD  10.920 1.00 Pg
RAZ   4.960 1.00 Pg
VRN  29.680 1.00 Pg
RAZ   8.560 1.00 Sg
# 2011 03 28 21 04 15.900000 35.245 52.391   5.8  1.4 0.0 0.0 0.0       263
DMV   7.450 1.00 Pg
FIR   8.450 1.00 Pg
LAS   9.090 1.00 Pg
VRN  11.040 1.00 Pg
FIR  16.010 1.00 Sg
DMV  14.490 1.00 Sg
QAM  30.100 1.00 Pg
# 2011 03 29 05 40 22.800000 35.644 51.962   5.0  2.3 0.0 0.0 0.0       264
DMV   2.010 1.00 Pg
FIR  11.360 1.00 Pg
MHD  19.070 1.00 Pg
VRN  12.200 1.00 Pg
FIR  20.480 1.00 Sg
# 2011 03 29 09 52 28.000000 35.112 51.106  15.1  2.1 0.0 0.0 0.0       265
DMV  16.120 1.00 Pg
FIR  26.150 1.00 Pg
MHD  12.070 1.00 Pg
RAZ  18.530 1.00 Pg
QAM  24.800 1.00 Pg
VRN   9.990 1.00 Pg
RAZ  31.810 1.00 Sg
MHD  21.740 1.00 Sg
# 2011 03 29 23 31 55.800000 35.759 52.074  12.0  1.2 0.0 0.0 0.0       266
ALA  13.290 1.00 Pg
ANJ  26.860 1.00 Pg
DMV   4.250 1.00 Pg
FIR  10.940 1.00 Pg
PRN  10.160 1.00 Pg
VRN  15.610 1.00 Pg
PRN  18.140 1.00 Sg
DMV   7.710 1.00 Sg
FIR  19.460 1.00 Sg
# 2011 03 29 23 35 14.200000 35.755 52.095   2.0  1.7 0.0 0.0 0.0       267
ALA  13.390 1.00 Pg
ANJ  28.310 1.00 Pg
DMV   4.380 1.00 Pg
FIR  10.720 1.00 Pg
GLO  30.750 1.00 Pg
PRN  10.650 1.00 Pg
QAM  35.840 1.00 Pn
RAZ  32.260 1.00 Pg
VRN  15.900 1.00 Pg
FIR  19.320 1.00 Sg
ALA  22.490 1.00 Sg
# 2011 03 29 23 50 56.700000 35.770 52.071   2.0  1.9 0.0 0.0 0.0       268
ALA  13.500 1.00 Pg
ANJ  28.240 1.00 Pg
DMV   4.780 1.00 Pg
FIR  11.220 1.00 Pg
GLO  31.000 0.50 Pg
LAS  16.290 1.00 Pg
PRN  10.630 1.00 Pg
MHD  21.750 1.00 Pg
QAM  36.270 1.00 Pn
RAZ  32.550 1.00 Pg
VRN  16.160 1.00 Pg
PRN  18.290 1.00 Sg
FIR  19.730 1.00 Sg
KLH  42.460 1.00 Pn
# 2011 03 29 23 54 21.200000 35.715 52.134  12.0  1.2 0.0 0.0 0.0       269
DMV   3.490 1.00 Pg
FIR  10.570 1.00 Pg
VRN  14.950 1.00 Pg
DMV   7.110 1.00 Sg
FIR  17.250 1.00 Sg
# 2011 03 30 00 03 12.500000 35.720 52.111   8.3  1.2 0.0 0.0 0.0       270
DMV   4.860 1.00 Pg
FIR  11.750 1.00 Pg
VRN  16.210 1.00 Pg
VRN  28.010 1.00 Sg
DMV   8.460 1.00 Sg
# 2011 03 30 00 06 33.100000 35.796 52.038   9.7  1.2 0.0 0.0 0.0       271
DMV   4.840 1.00 Pg
VRN  16.000 1.00 Pg
PRN  10.080 1.00 Pg
FIR  11.870 1.00 Pg
DMV   8.410 1.00 Sg
VRN  28.120 1.00 Sg
# 2011 03 30 00 23 36.300000 35.786 52.050  12.0  1.1 0.0 0.0 0.0       272
DMV   4.750 1.00 Pg
FIR  11.640 1.00 Pg
VRN  16.030 1.00 Pg
VRN  27.730 1.00 Sg
DMV   8.310 1.00 Sg
# 2011 03 30 03 42 58.500000 35.955 52.864  12.6  1.1 0.0 0.0 0.0       273
ALA   1.910 0.50 Pg
ANJ  17.830 1.00 Pg
DMV  13.850 1.00 Pg
FIR   5.950 1.00 Pg
GLO  17.510 1.00 Pg
KIA  12.820 1.00 Pg
LAS  11.240 1.00 Pg
FIR  11.170 1.00 Sg
PRN  16.770 1.00 Sg
# 2011 03 30 17 31 29.900000 35.735 52.094   7.0  2.0 0.0 0.0 0.0       274
VRN  15.700 1.00 Pg
PRN  10.730 1.00 Pg
MHD  21.710 1.00 Pg
LAS  15.250 1.00 Pg
FIR  10.490 1.00 Pg
DMV   3.630 1.00 Pg
PRN  18.580 1.00 Sg
# 2011 03 31 07 38 15.000000 34.844 52.566   2.7  1.9 0.0 0.0 0.0       275
ANJ  22.730 1.00 Pg
FIR  14.060 1.00 Pg
GLO  35.810 0.50 Pn
LAS  11.970 1.00 Pg
KIA  31.320 0.50 Pg
VRN  12.440 1.00 Pg
VRN  22.420 1.00 Sg
RAZ  37.690 1.00 Pn
FIR  25.300 1.00 Sg
# 2011 03 31 08 26 52.400000 35.370 52.203  16.5  1.9 0.0 0.0 0.0       276
ANJ  25.340 1.00 Pg
DMV   5.150 1.00 Pg
FIR   9.860 1.00 Pg
LAS  11.700 1.00 Pg
VRN   9.870 1.00 Pg
VRN  17.830 1.00 Sg
DMV   9.830 1.00 Sg
# 2011 03 31 17 16 23.200000 35.743 52.798  12.0  1.5 0.0 0.0 0.0       277
ALA   5.810 0.50 Pg
ANJ  17.870 1.00 Pg
DMV  12.310 1.00 Pg
FIR   2.110 0.50 Pg
LAS   7.760 1.00 Pg
PRN  12.420 1.00 Pg
VRN  22.150 1.00 Pg
DMV  21.270 1.00 Sg
PRN  20.460 1.00 Sg
ALA  11.790 1.00 Sg
# 2011 03 31 17 59 13.600000 35.350 52.236   8.1  1.5 0.0 0.0 0.0       278
ANJ  25.130 1.00 Pg
DMV   4.720 1.00 Pg
FIR   9.460 1.00 Pg
LAS  11.260 1.00 Pg
VRN   9.440 1.00 Pg
VRN  17.440 1.00 Sg
RAZ  33.070 1.00 Pn
DMV   9.480 1.00 Sg
# 2011 04 01 01 03 57.800000 34.159 52.109   9.4  2.0 0.0 0.0 0.0       279
ANJ  34.620 1.00 Pn
DMV  25.160 1.00 Pg
FIR  27.730 1.00 Pg
KLH  16.890 1.00 Pg
LAS  25.150 1.00 Pg
MHD  33.100 1.00 Pn
QAM  12.100 1.00 Pg
RAZ  36.720 1.00 Pn
VRN  16.150 1.00 Pg
ZEF  22.910 1.00 Pg
QAM  21.600 1.00 Sg
VRN  28.470 1.00 Sg
ZEF  40.210 1.00 Sg
KLH  29.710 1.00 Sg
# 2011 04 01 02 40 59.400000 35.796 50.999   5.0  2.5 0.0 0.0 0.0       280
AFJ   9.480 0.50 Pg
ANJ  41.220 0.00 Pn
DMV  15.460 1.00 Pg
FIR  25.470 0.50 Pg
LAS  29.590 1.00 Pg
MHD   4.690 1.00 Pg
PRN  21.280 1.00 Pg
QAM  36.080 1.00 Pn
RAZ  16.630 1.00 Pg
VRN  17.830 1.00 Pg
GLO  40.500 1.00 Pn
DMV  26.960 1.00 Sg
MHD   9.630 1.00 Sg
FIR  44.150 1.00 Sg
ZEF  49.940 1.00 Pn
RAZ  29.770 1.00 Sg
PRN  36.780 1.00 Sg
# 2011 04 01 03 56 58.000000 37.025 53.999   4.6  1.4 0.0 0.0 0.0       281
ANJ  28.630 1.00 Pg
GLO   9.540 1.00 Pg
KIA  15.810 1.00 Pg
KIA  27.450 1.00 Sg
GLO  16.200 1.00 Sg
FIR  30.400 1.00 Pg
# 2011 04 01 18 50 50.500000 35.132 52.141  18.0  1.2 0.0 0.0 0.0       282
DMV   8.240 1.00 Pg
LAS  13.480 1.00 Pg
VRN   6.830 1.00 Pg
VRN  13.030 1.00 Sg
FIR  13.340 1.00 Pg
DMV  15.580 1.00 Sg
# 2011 04 01 20 33 47.100000 36.408 51.898   4.0  1.5 0.0 0.0 0.0       283
ALA  14.530 1.00 Pg
DMV  14.790 1.00 Pg
PRN   6.950 1.00 Pg
VRN  25.370 1.00 Pg
RAZ  33.780 1.00 Pn
PRN  12.250 1.00 Sg
FIR  18.520 1.00 Pg
DMV  26.650 1.00 Sg
AFJ   9.540 1.00 Pg
ALA  25.590 1.00 Sg
# 2011 04 01 20 38 06.400000 36.176 50.280   2.1  1.8 0.0 0.0 0.0       284
DMV  28.340 1.00 Pg
MHD   9.910 1.00 Pg
RAZ  15.370 1.00 Pg
VRN  30.430 1.00 Pg
RAZ  25.450 1.00 Sg
VRN  52.190 1.00 Sg
DMV  48.300 1.00 Sg
# 2011 04 01 21 26 13.300000 35.879 50.989  16.4  1.7 0.0 0.0 0.0       285
AFJ  10.850 1.00 Pg
DMV  16.940 1.00 Pg
MHD   6.040 1.00 Pg
RAZ  18.080 1.00 Pg
VRN  19.130 1.00 Pg
RAZ  31.160 1.00 Sg
MHD  11.500 1.00 Sg
# 2011 04 01 22 52 18.700000 37.341 53.764  22.6  2.5 0.0 0.0 0.0       286
ALA  25.310 1.00 Pg
ANJ  30.590 1.00 Pn
DMV  36.450 1.00 Pn
FIR  31.120 1.00 Pn
GLO  15.680 1.00 Pg
LAS  33.930 1.00 Pn
PRN  26.490 1.00 Pg
# 2011 04 02 04 00 17.000000 36.224 52.615  19.2  1.1 0.0 0.0 0.0       287
PRN   5.260 1.00 Pg
KIA  15.970 1.00 Pg
FIR  11.230 1.00 Pg
ALA   4.910 1.00 Pg
ALA   9.090 1.00 Sg
# 2011 04 02 04 06 42.400000 35.994 53.296   5.0  1.1 0.0 0.0 0.0       288
ALA   7.500 1.00 Pg
ANJ  13.090 1.00 Pg
FIR   9.590 1.00 Pg
KIA   6.760 1.00 Pg
LAS  12.560 1.00 Pg
GLO  12.330 1.00 Pg
FIR  17.930 1.00 Sg
# 2011 04 02 10 43 02.200000 36.050 53.624   9.2  1.1 0.0 0.0 0.0       289
ALA  12.040 1.00 Pg
ANJ  11.460 1.00 Pg
KIA   3.500 1.00 Pg
ALA  20.880 1.00 Sg
# 2011 04 04 07 00 12.800000 36.078 50.326   2.9  2.5 0.0 0.0 0.0       290
RAZ  13.270 1.00 Pg
VRN  28.650 1.00 Pg
FIR  36.960 0.50 Pn
AFJ  20.730 1.00 Pg
RAZ  23.450 1.00 Sg
# 2011 04 04 19 55 50.200000 35.456 52.472  15.4  1.4 0.0 0.0 0.0       291
DMV   7.860 1.00 Pg
ANJ  22.240 1.00 Pg
FIR   6.280 1.00 Pg
LAS   8.020 1.00 Pg
VRN  14.330 1.00 Pg
VRN  25.390 1.00 Sg
FIR  11.440 1.00 Sg
# 2011 04 04 23 38 59.900000 36.643 53.267  14.9  1.8 0.0 0.0 0.0       292
ANJ  23.190 1.00 Pg
DMV  26.080 1.00 Pg
FIR  19.670 1.00 Pg
PRN  15.440 1.00 Pg
FIR  34.030 1.00 Sg
# 2011 04 06 12 12 27.100000 35.469 51.989   3.5  3.8 0.0 0.0 0.0       293
AFJ   7.910 1.00 Pg
ALA  16.290 1.00 Pg
ANJ  27.810 0.50 Pg
BAF  74.310 1.00 Pn
CHK  60.800 0.50 Pn
DMV   1.720 1.00 Pg
FIR  11.150 1.00 Pg
ZEF  42.400 1.00 Pn
VRN   9.540 1.00 Pg
RAZ  28.940 0.50 Pg
QAM  30.490 1.00 Pg
PRN  14.970 1.00 Pg
PIR  47.800 1.00 Pn
MHD  19.270 1.00 Pg
LAS  14.540 1.00 Pg
KLH  36.660 1.00 Pn
KIA  28.320 1.00 Pg
HRS  77.320 0.00 Pn
GLO  33.000 1.00 Pn
MHD  34.530 1.00 Sg
RAM  58.440 0.50 Pn
RAZ  52.590 1.00 Sg
QAM  54.870 1.00 Sg
FIR  20.590 1.00 Sg
DMV   3.840 1.00 Sg
BST  70.490 1.00 Pn
AFJ  15.390 1.00 Sg
# 2011 04 06 14 24 02.600000 35.520 51.967  14.1  1.8 0.0 0.0 0.0       294
AFJ   7.820 1.00 Pg
ANJ  27.560 1.00 Pg
DMV   2.740 1.00 Pg
DMV   5.220 1.00 Sg
FIR  12.670 1.00 Pg
VRN  10.440 1.00 Pg
# 2011 04 06 20 02 12.900000 35.326 52.228  23.1  1.4 0.0 0.0 0.0       295
ANJ  24.600 1.00 Pg
DMV   6.240 1.00 Pg
FIR   9.990 1.00 Pg
LAS  11.080 1.00 Pg
VRN  10.190 1.00 Pg
VRN  18.070 1.00 Sg
LAS  20.180 1.00 Sg
FIR  18.650 1.00 Sg
DMV  12.140 1.00 Sg
# 2011 04 07 09 08 06.700000 34.480 51.318   5.8  3.6 0.0 0.0 0.0       296
AFJ  24.850 0.50 Pg
ALA  35.570 1.00 Pn
ANJ  38.970 1.00 Pn
DMV  22.060 1.00 Pg
FIR  29.070 1.00 Pg
GAR  38.070 0.50 Pn
GLO  48.690 0.50 Pn
KIA  45.810 0.50 Pn
KLH  20.890 1.00 Pg
LAS  28.400 1.00 Pg
MHD  23.170 1.00 Pg
PIR  32.470 1.00 Pn
QAM  13.230 1.00 Pg
RAM  48.780 0.50 Pn
RAZ  25.880 1.00 Pg
VRN  11.420 1.00 Pg
ZEF  31.200 1.00 Pg
ZEF  55.580 1.00 Sg
VRN  19.740 1.00 Sg
RAZ  46.200 1.00 Sg
MHD  40.970 1.00 Sg
KLH  37.070 1.00 Sg
# 2011 04 07 14 39 01.000000 35.838 49.118   5.0  2.9 0.0 0.0 0.0       297
DMV  39.820 1.00 Pn
GHG  42.700 1.00 Pn
HRS  47.380 1.00 Pn
MHD  22.700 1.00 Pg
RAZ  13.000 1.00 Pg
SRB  39.440 1.00 Pn
BST  42.540 1.00 Pn
AFJ  36.350 1.00 Pn
RAZ  24.760 1.00 Sg
# 2011 04 09 09 09 02.900000 35.569 51.591  10.0  1.8 0.0 0.0 0.0       298
AFJ   5.540 1.00 Pg
DMV   7.160 1.00 Pg
VRN  10.380 1.00 Pg
MHD  14.360 1.00 Pg
MHD  23.800 1.00 Sg
# 2011 04 09 21 04 51.600000 36.109 53.224   9.5  1.9 0.0 0.0 0.0       299
ALA   5.600 1.00 Pg
ANJ  14.960 1.00 Pg
FIR  10.610 1.00 Pg
GLO  10.800 1.00 Pg
LAS  13.700 1.00 Pg
PRN  13.010 1.00 Pg
VRN  29.150 1.00 Pg
ALA  11.080 1.00 Sg
FIR  19.250 1.00 Sg
GLO  20.800 1.00 Sg
LAS  23.980 1.00 Sg
PRN  23.150 1.00 Sg
VRN  52.230 1.00 Sg
# 2011 04 10 01 58 25.200000 35.555 51.925  17.0  1.3 0.0 0.0 0.0       300
VRN  10.840 1.00 Pg
FIR  12.670 1.00 Pg
DMV   3.650 1.00 Pg
DMV   6.110 1.00 Sg
ALA  18.160 1.00 Pg
AFJ   9.550 1.00 Pg
# 2011 04 10 13 17 37.000000 35.538 53.412  12.5  2.0 0.0 0.0 0.0       301
ANJ   7.320 1.00 Pg
LAS   7.800 1.00 Pg
VRN  26.680 1.00 Pg
PRN  21.810 0.50 Pg
GLO  18.080 1.00 Pg
GLO  32.390 1.00 Sg
DMV  20.250 1.00 Pg
ANJ  14.090 1.00 Sg
# 2011 04 10 14 34 33.000000 35.460 51.965   1.0  2.8 0.0 0.0 0.0       302
AFJ   7.950 1.00 Pg
ALA  17.500 1.00 Pg
ANJ  28.580 1.00 Pg
DMV   1.850 1.00 Pg
FIR  11.470 1.00 Pg
GLO  33.280 1.00 Pn
LAS  14.520 1.00 Pg
MHD  19.310 1.00 Pg
PRN  15.910 1.00 Pg
QAM  31.030 1.00 Pg
VRN   9.560 1.00 Pg
DMV   3.830 1.00 Sg
FIR  20.910 1.00 Sg
# 2011 04 10 14 52 53.100000 36.100 51.098  18.0  1.4 0.0 0.0 0.0       303
MHD  10.780 1.00 Pg
RAZ  21.140 1.00 Pg
VRN  21.990 1.00 Pg
RAZ  37.080 1.00 Sg
# 2011 04 10 20 27 49.300000 35.478 51.973   4.5  2.7 0.0 0.0 0.0       304
AFJ   8.140 1.00 Pg
ALA  17.710 0.50 Pg
DMV   1.660 1.00 Pg
ANJ  29.030 1.00 Pg
FIR  11.470 1.00 Pg
GLO  34.650 0.00 Pn
KLH  37.630 1.00 Pn
LAS  14.790 1.00 Pg
MHD  19.270 1.00 Pg
PIR  50.800 0.00 Pn
PRN  15.090 1.00 Pg
QAM  30.750 1.00 Pg
RAZ  29.480 1.00 Pg
RAM  58.820 0.50 Pn
VRN   9.530 1.00 Pg
ZEF  44.880 0.00 Pn
DMV   4.020 1.00 Sg
FIR  21.050 1.00 Sg
MHD  34.470 1.00 Sg
# 2011 04 11 00 08 46.900000 34.486 50.826   4.0  4.0 0.0 0.0 0.0       305
DMV  25.930 1.00 Pg
FIR  33.880 1.00 Pn
GAR  41.040 0.00 Pn
KLH  23.460 1.00 Pg
MHD  21.420 1.00 Pg
PIR  32.530 1.00 Pg
QAM  15.690 1.00 Pg
RAM  48.580 1.00 Pn
RAZ  21.730 1.00 Pg
ZEF  35.150 1.00 Pn
VRN  16.540 1.00 Pg
VRN  29.260 1.00 Sg
QAM  27.910 1.00 Sg
PIR  55.810 1.00 Sg
MHD  37.800 1.00 Sg
KLH  41.050 1.00 Sg
DMV  46.350 1.00 Sg
AFJ  48.270 1.00 Sg
AFJ  27.200 1.00 Pg
# 2011 04 11 00 16 51.300000 34.486 50.831  18.0  2.1 0.0 0.0 0.0       306
DMV  25.970 1.00 Pg
KLH  23.780 1.00 Pg
MHD  21.540 1.00 Pg
PIR  33.000 1.00 Pg
QAM  15.910 1.00 Pg
VRN  16.430 1.00 Pg
RAZ  21.870 1.00 Pg
VRN  29.150 1.00 Sg
# 2011 04 12 01 39 54.200000 35.019 53.972   9.1  2.1 0.0 0.0 0.0       307
VRN  31.440 1.00 Pn
PRN  31.950 1.00 Pn
LAS  17.270 1.00 Pg
FIR  20.800 1.00 Pg
DMV  29.450 1.00 Pg
ANJ   8.330 1.00 Pg
ALA  25.060 1.00 Pg
FIR  36.700 1.00 Sg
# 2011 04 12 12 27 02.200000 35.960 50.900  12.6  1.8 0.0 0.0 0.0       308
DMV  18.180 1.00 Pg
MHD   6.300 1.00 Pg
RAZ  17.530 1.00 Pg
VRN  21.080 1.00 Pg
MHD  11.120 1.00 Sg
VRN  36.880 1.00 Sg
RAZ  30.450 1.00 Sg
# 2011 04 12 15 01 12.000000 35.555 53.158   5.0  1.3 0.0 0.0 0.0       309
ANJ  11.350 1.00 Pg
DMV  16.920 1.00 Pg
FIR   5.590 1.00 Pg
LAS   4.330 1.00 Pg
FIR  11.050 1.00 Sg
# 2011 04 13 02 21 29.900000 34.996 53.826   6.0  3.1 0.0 0.0 0.0       310
AFJ  33.120 1.00 Pn
ANJ   7.880 1.00 Pg
CHK  45.240 1.00 Pn
DMV  27.900 1.00 Pg
FIR  19.730 1.00 Pg
ZEF  39.980 1.00 Pn
VRN  29.110 0.50 Pg
RAM  53.970 1.00 Pn
PRN  30.700 1.00 Pg
LAS  14.960 1.00 Pg
KLH  40.660 1.00 Pn
GLO  28.610 1.00 Pg
DMV  49.560 1.00 Sg
# 2011 04 13 16 46 53.700000 34.792 53.247   3.9  2.2 0.0 0.0 0.0       311
ANJ  15.460 1.00 Pg
DMV  22.750 1.00 Pg
FIR  16.710 1.00 Pg
GLO  32.330 1.00 Pg
KLH  34.580 1.00 Pn
QAM  31.940 1.00 Pn
ZEF  34.840 1.00 Pn
FIR  29.230 1.00 Sg
LAS  11.680 1.00 Pg
# 2011 04 14 21 55 10.100000 35.958 53.357  19.3  1.8 0.0 0.0 0.0       312
ALA   8.510 1.00 Pg
ANJ  12.010 1.00 Pg
DMV  21.330 1.00 Pg
FIR  10.990 1.00 Pg
GLO  12.370 1.00 Pg
LAS  12.730 1.00 Pg
PRN  15.370 1.00 Pg
ALA  15.080 1.00 Sg
FIR  19.710 1.00 Sg
GLO  22.180 1.00 Sg
PRN  28.430 1.00 Sg
# 2011 04 14 23 37 44.900000 35.281 50.688   6.8  1.6 0.0 0.0 0.0       313
DMV  20.200 1.00 Pg
FIR  30.790 1.00 Pg
MHD   7.150 1.00 Pg
RAZ  11.450 1.00 Pg
VRN  16.600 1.00 Pg
MHD  13.030 1.00 Sg
QAM  29.180 1.00 Pg
RAZ  20.010 1.00 Sg
DMV  35.540 1.00 Sg
# 2011 04 15 22 11 24.400000 35.311 53.347  14.0  1.2 0.0 0.0 0.0       314
ANJ   9.470 1.00 Pg
VRN  24.960 1.00 Pg
FIR  11.370 1.00 Pg
ANJ  16.690 1.00 Sg
VRN  43.560 1.00 Sg
# 2011 04 16 07 13 42.300000 35.578 53.249   5.5  1.4 0.0 0.0 0.0       315
VRN  24.860 1.00 Pg
LAS   5.280 1.00 Pg
FIR   7.540 1.00 Pg
ANJ  10.140 1.00 Pg
LAS  10.080 1.00 Sg
# 2011 04 17 08 58 25.100000 36.758 53.397  30.1  1.4 0.0 0.0 0.0       316
GLO   9.390 1.00 Pg
KIA  11.920 1.00 Pg
ALA  15.630 1.00 Pg
ALA  27.270 1.00 Sg
GLO  16.170 1.00 Sg
# 2011 04 17 15 14 07.900000 35.392 53.849  14.8  1.8 0.0 0.0 0.0       317
ANJ   3.170 1.00 Pg
VRN  30.580 1.00 Pg
LAS  12.890 1.00 Pg
GLO  20.530 1.00 Pg
DMV  26.260 1.00 Pg
GLO  34.720 1.00 Sg
VRN  56.020 1.00 Sg
# 2011 04 18 16 52 30.200000 35.175 51.968   6.0  1.9 0.0 0.0 0.0       318
ALA  20.310 1.00 Pg
DMV   6.870 1.00 Pg
FIR  14.030 1.00 Pg
GLO  34.900 1.00 Pn
LAS  14.980 1.00 Pg
MHD  20.720 1.00 Pg
VRN   5.340 1.00 Pg
DMV  13.510 1.00 Sg
# 2011 04 18 17 51 50.300000 35.211 49.396   4.0  2.5 0.0 0.0 0.0       319
BZA  24.250 0.00 Pg
DHR  41.940 1.00 Pn
DMV  37.650 1.00 Pn
MHD  19.730 1.00 Pg
RAZ   8.930 1.00 Pg
VRN  11.920 0.00 Pn
BZA  45.430 1.00 Sg
# 2011 04 18 17 59 22.700000 35.632 49.427   3.3  2.5 0.0 0.0 0.0       320
BZA  23.530 0.00 Pg
DHR  43.360 1.00 Pn
DMV  36.790 1.00 Pn
MHD  18.180 1.00 Pg
RAZ   8.330 1.00 Pg
VRN  34.790 1.00 Pn
# 2011 04 19 09 57 38.000000 35.545 53.229  12.4  1.6 0.0 0.0 0.0       321
ANJ  10.620 1.00 Pg
FIR   7.250 1.00 Pg
LAS   5.350 1.00 Pg
VRN  24.810 1.00 Pg
FIR  13.490 1.00 Sg
LAS   9.630 1.00 Sg
# 2011 04 19 12 09 15.300000 35.563 52.245  12.3  1.2 0.0 0.0 0.0       322
VRN  12.950 1.00 Pg
FIR   8.020 1.00 Pg
DMV   4.030 1.00 Pg
FIR  13.860 1.00 Sg
# 2011 04 19 14 43 26.400000 36.055 50.605  14.9  1.4 0.0 0.0 0.0       323
MHD   6.770 1.00 Pg
RAZ  15.340 1.00 Pg
VRN  25.170 1.00 Pg
RAZ  27.400 1.00 Sg
MHD  12.610 1.00 Sg
AFJ  17.180 1.00 Pg
# 2011 04 19 17 50 18.100000 35.986 53.339   6.7  2.0 0.0 0.0 0.0       324
ALA   7.920 1.00 Pg
AFJ  23.400 1.00 Pg
ANJ  12.600 1.00 Pg
DMV  20.080 1.00 Pg
FIR  10.270 1.00 Pg
GLO  12.020 1.00 Pg
LAS  12.510 1.00 Pg
PRN  15.370 1.00 Pg
VRN  29.540 1.00 Pg
ZEF  55.710 0.00 Pn
ALA  14.330 1.00 Sg
FIR  18.930 1.00 Sg
# 2011 04 20 01 19 05.500000 35.846 52.485  18.0  1.7 0.0 0.0 0.0       325
DMV   8.810 1.00 Pg
FIR   6.170 1.00 Pg
LAS  11.910 1.00 Pg
DMV  15.430 1.00 Sg
FIR  10.810 1.00 Sg
# 2011 04 20 06 01 48.000000 35.882 53.237  12.0  2.9 0.0 0.0 0.0       326
AFJ  22.760 0.50 Pg
ALA   8.210 1.00 Pg
ANJ  12.900 1.00 Pg
DMV  19.270 1.00 Pg
FIR   9.010 1.00 Pg
GLO  15.250 1.00 Pg
KIA   9.340 1.00 Pg
KLH  48.910 0.00 Pn
LAS  10.940 1.00 Pg
PRN  15.640 1.00 Pg
RAZ  48.620 0.00 Pn
ZEF  55.420 0.00 Pn
QAM  43.690 0.00 Pn
KIA  16.240 1.00 Sg
FIR  15.470 1.00 Sg
DMV  34.370 1.00 Sg
ALA  13.870 1.00 Sg
PRN  25.820 1.00 Sg
# 2011 04 20 06 03 10.700000 35.890 53.254   9.0  2.4 0.0 0.0 0.0       327
ALA   8.360 1.00 Pg
ANJ  13.130 1.00 Pg
DMV  19.910 1.00 Pg
FIR   9.430 1.00 Pg
GLO  15.160 1.00 Pg
KIA   9.440 1.00 Pg
LAS  11.730 1.00 Pg
PRN  15.900 1.00 Pg
ALA  14.480 1.00 Sg
DMV  35.030 1.00 Sg
FIR  16.530 1.00 Sg
KIA  16.460 1.00 Sg
# 2011 04 20 06 07 07.200000 36.083 52.858  12.1  1.9 0.0 0.0 0.0       328
ANJ  18.850 1.00 Pg
DMV  15.040 1.00 Pg
FIR   8.270 1.00 Pg
LAS  13.070 1.00 Pg
ALA   2.090 1.00 Pg
KIA  12.800 1.00 Pg
PRN   8.160 1.00 Pg
PRN  15.030 1.00 Sg
FIR  15.050 1.00 Sg
DMV  26.380 1.00 Sg
ALA   4.410 1.00 Sg
# 2011 04 20 12 34 40.800000 35.741 52.015   5.0  2.1 0.0 0.0 0.0       329
ANJ  29.080 1.00 Pg
DMV   3.470 1.00 Pg
MHD  21.990 1.00 Pg
VRN  15.370 1.00 Pg
VRN  27.220 1.00 Sg
RAZ  30.620 1.00 Pg
DMV   6.150 1.00 Sg
# 2011 04 20 15 09 47.200000 35.373 52.550  13.4  1.7 0.0 0.0 0.0       330
ANJ  20.450 1.00 Pg
DMV   8.760 1.00 Pg
FIR   6.100 1.00 Pg
LAS   6.400 1.00 Pg
VRN  14.290 1.00 Pg
FIR  11.080 1.00 Sg
# 2011 04 21 02 11 31.600000 35.806 50.819   6.7  1.8 0.0 0.0 0.0       331
AFJ  13.120 1.00 Pg
DMV  18.430 1.00 Pg
FIR  28.550 1.00 Pg
MHD   3.080 1.00 Pg
RAZ  15.150 1.00 Pg
MHD   5.880 1.00 Sg
# 2011 04 22 02 34 20.100000 35.506 51.764  12.6  1.3 0.0 0.0 0.0       332
DMV   4.760 1.00 Pg
FIR  14.880 1.00 Pg
VRN   9.450 1.00 Pg
VRN  16.310 1.00 Sg
DMV   8.350 1.00 Sg
# 2011 04 22 03 46 03.200000 35.435 52.430  23.4  1.7 0.0 0.0 0.0       333
ANJ  22.720 1.00 Pg
DMV   7.720 1.00 Pg
FIR   7.520 1.00 Pg
LAS   9.240 1.00 Pg
VRN  13.890 1.00 Pg
VRN  24.160 1.00 Sg
FIR  13.180 1.00 Sg
DMV  14.020 1.00 Sg
# 2011 04 22 03 50 55.400000 35.428 52.433  22.4  1.6 0.0 0.0 0.0       334
ANJ  22.630 1.00 Pg
DMV   7.430 1.00 Pg
FIR   7.120 1.00 Pg
LAS   8.630 1.00 Pg
VRN  13.350 1.00 Pg
VRN  23.610 1.00 Sg
DMV  13.570 1.00 Sg
# 2011 04 22 04 05 44.000000 35.669 51.902   5.0  2.2 0.0 0.0 0.0       335
AFJ   4.450 1.00 Pg
ALA  15.020 1.00 Pg
ANJ  30.210 1.00 Pg
DMV   1.930 1.00 Pg
FIR  12.880 1.00 Pg
GLO  31.910 1.00 Pg
KLH  40.210 1.00 Pn
RAZ  28.870 1.00 Pg
VRN  12.350 1.00 Pg
ZEF  47.710 0.00 Pn
VRN  21.650 1.00 Sg
DMV   4.750 1.00 Sg
RAZ  51.100 1.00 Sg
# 2011 04 22 04 10 21.700000 34.784 51.857   8.7  1.9 0.0 0.0 0.0       336
ANJ  32.220 1.00 Pn
DMV  14.390 1.00 Pg
FIR  19.830 1.00 Pg
RAZ  29.590 1.00 Pg
KLH  26.430 1.00 Pg
ZEF  33.770 1.00 Pn
VRN   4.950 1.00 Pg
MHD  24.330 1.00 Pg
KLH  46.270 1.00 Sg
# 2011 04 23 01 40 31.200000 35.145 52.009  33.5  1.2 0.0 0.0 0.0       337
DMV   9.680 1.00 Pg
VRN   7.140 1.00 Pg
FIR  15.510 1.00 Pg
VRN  13.080 1.00 Sg
FIR  26.250 1.00 Sg
# 2011 04 23 05 12 29.800000 36.381 52.883  35.8  1.9 0.0 0.0 0.0       338
ALA   5.000 0.00 Pg
ANJ  23.040 1.00 Pg
DMV  20.110 1.00 Pg
FIR  14.520 1.00 Pg
LAS  19.100 1.00 Pg
PRN  10.070 1.00 Pg
DMV  34.610 1.00 Sg
PRN  17.850 1.00 Sg
# 2011 04 23 13 18 03.500000 36.417 51.804  10.3  2.6 0.0 0.0 0.0       339
AFJ  10.110 1.00 Pg
ALA  15.360 1.00 Pg
ANJ  34.010 1.00 Pn
DMV  15.490 1.00 Pg
FIR  20.160 1.00 Pg
GLO  29.240 1.00 Pg
KIA  26.750 1.00 Pg
LAS  25.490 1.00 Pg
MHD  21.300 1.00 Pg
PRN   7.220 0.50 Pg
RAZ  32.040 1.00 Pn
VRN  25.560 1.00 Pg
PRN  15.340 1.00 Sg
# 2011 04 24 13 24 57.300000 35.615 53.028   8.7  1.4 0.0 0.0 0.0       340
ALA   9.860 1.00 Pg
DMV  15.940 1.00 Pg
FIR   4.760 1.00 Pg
LAS   5.000 1.00 Pg
SHM   5.490 1.00 Pg
VRN  23.700 1.00 Pg
ALA  17.320 1.00 Sg
FIR   8.480 1.00 Sg
SHM  10.710 1.00 Sg
