# 2011 04 24 14 45 38.900000 37.265 53.968  20.2  2.3 0.0 0.0 0.0       341
FIR  32.150 1.00 Pn
ANJ  29.960 1.00 Pg
ALA  25.620 1.00 Pg
GLO  14.360 1.00 Pg
GLO  24.790 1.00 Sg
# 2011 04 24 15 08 32.300000 35.671 51.758  11.0  1.5 0.0 0.0 0.0       342
DMV   3.920 1.00 Pg
VRN  12.320 1.00 Pg
RAZ  26.140 1.00 Pg
MHD  16.240 1.00 Pg
DMV   8.680 1.00 Sg
AFJ   4.740 1.00 Pg
# 2011 04 24 15 52 21.400000 37.445 53.936   6.5  2.8 0.0 0.0 0.0       343
ANJ  33.650 1.00 Pn
DMV  40.350 1.00 Pn
FIR  35.330 1.00 Pn
LAS  37.770 0.50 Pn
ALA  28.920 1.00 Pg
GLO  17.080 1.00 Pg
GLO  29.760 1.00 Sg
ALA  50.830 1.00 Sg
# 2011 04 25 02 16 39.700000 35.814 51.931   4.3  1.8 0.0 0.0 0.0       344
AFJ   3.080 1.00 Pg
DMV   4.190 1.00 Pg
FIR  12.900 1.00 Pg
VRN  14.940 1.00 Pg
AFJ   6.420 1.00 Sg
DMV   8.110 1.00 Sg
VRN  26.340 1.00 Sg
# 2011 04 25 02 23 31.900000 35.741 51.836  18.2  1.4 0.0 0.0 0.0       345
AFJ   4.340 1.00 Pg
DMV   5.310 1.00 Pg
FIR  13.980 1.00 Pg
AFJ   7.620 1.00 Sg
DMV   9.210 1.00 Sg
FIR  24.160 1.00 Sg
# 2011 04 25 18 47 18.400000 36.130 53.806  10.6  1.3 0.0 0.0 0.0       346
FIR  17.480 1.00 Pg
GLO   7.070 1.00 Pg
ANJ  12.230 1.00 Pg
DMV  27.740 1.00 Pg
FIR  31.060 1.00 Sg
# 2011 04 26 01 59 31.000000 35.879 53.207  12.0  2.1 0.0 0.0 0.0       347
AFJ  22.480 1.00 Pg
ALA   8.060 1.00 Pg
ANJ  13.080 1.00 Pg
DMV  18.880 1.00 Pg
FIR   8.660 1.00 Pg
GLO  15.650 1.00 Pg
LAS  10.920 1.00 Pg
PRN  14.450 1.00 Pg
VRN  27.990 0.50 Pg
ALA  13.360 1.00 Sg
FIR  15.330 1.00 Sg
DMV  33.180 1.00 Sg
# 2011 04 27 08 42 33.300000 34.163 50.627   5.0  1.9 0.0 0.0 0.0       348
VRN  21.850 1.00 Pg
ZEF  33.190 1.00 Pn
RAZ  25.650 1.00 Pg
PIR  28.410 1.00 Pg
KLH  20.170 1.00 Pg
DMV  32.030 1.00 Pn
VRN  38.830 1.00 Sg
# 2011 04 27 16 32 25.400000 34.469 53.604  19.8  2.7 0.0 0.0 0.0       349
ANJ  18.670 1.00 Pg
DMV  29.190 1.00 Pg
FIR  24.290 1.00 Pg
LAS  19.970 1.00 Pg
ZEF  31.470 1.00 Pn
VRN  27.470 1.00 Pg
RAM  48.620 0.00 Pn
FIR  42.770 1.00 Sg
# 2011 04 27 18 05 58.700000 35.761 52.841   8.0  1.5 0.0 0.0 0.0       350
ALA   6.330 1.00 Pg
ALA  11.510 1.00 Sg
DMV  13.150 1.00 Pg
FIR   3.070 1.00 Pg
VRN  23.030 1.00 Pg
PRN  21.320 1.00 Sg
# 2011 04 27 20 07 25.300000 34.417 53.552   6.5  2.1 0.0 0.0 0.0       351
ANJ  19.410 1.00 Pg
DMV  29.850 1.00 Pg
FIR  25.060 1.00 Pg
FIR  43.220 1.00 Sg
KLH  34.250 1.00 Pn
LAS  20.130 1.00 Pg
ZEF  32.320 1.00 Pn
# 2011 04 28 04 21 35.300000 36.449 50.552   5.3  2.9 0.0 0.0 0.0       352
AFJ  20.070 1.00 Pg
ALA  32.690 1.00 Pn
ANJ  49.240 0.00 Pn
BST  50.010 1.00 Pn
DMV  26.630 1.00 Pg
FIR  35.720 0.00 Pn
GLO  43.650 1.00 Pn
HRS  52.900 1.00 Pn
KIA  42.350 1.00 Pn
MHD  13.750 1.00 Pg
PRN  25.640 0.00 Pg
RAZ  20.480 1.00 Pg
SHM  40.940 0.00 Pn
SRB  44.130 1.00 Pn
VRN  30.340 1.00 Pg
MHD  24.690 1.00 Sg
# 2011 04 28 06 33 52.700000 35.592 53.278  20.7  1.5 0.0 0.0 0.0       353
ANJ  10.440 1.00 Pg
FIR   8.760 1.00 Pg
LAS   6.970 1.00 Pg
SHM   5.150 1.00 Pg
SHM   9.450 1.00 Sg
FIR  14.980 1.00 Sg
# 2011 04 28 06 35 34.900000 35.446 53.481  23.9  1.5 0.0 0.0 0.0       354
LAS   9.220 1.00 Pg
SHM   9.010 1.00 Pg
ANJ   7.480 1.00 Pg
FIR  11.400 1.00 Pg
SHM  14.170 1.00 Sg
# 2011 04 28 07 12 11.200000 34.449 53.540  12.3  2.4 0.0 0.0 0.0       355
ANJ  18.740 1.00 Pg
FIR  24.250 1.00 Pg
GLO  39.240 0.00 Pn
KIA  33.260 0.00 Pg
KLH  34.140 1.00 Pn
SHM  24.780 1.00 Pg
VRN  27.330 1.00 Pg
ZEF  31.790 1.00 Pn
SHM  43.180 1.00 Sg
KIA  55.420 1.00 Sg
# 2011 04 28 13 16 28.200000 35.599 53.008  27.7  1.2 0.0 0.0 0.0       356
FIR   7.890 1.00 Pg
LAS   7.480 1.00 Pg
SHM   8.680 1.00 Pg
ANJ  16.330 1.00 Pg
FIR  12.780 1.00 Sg
# 2011 04 28 13 27 53.400000 35.681 53.429   8.9  1.7 0.0 0.0 0.0       357
ANJ  10.110 1.00 Pg
SHM   5.510 1.00 Pg
VRN  30.090 1.00 Pg
LAS  10.560 1.00 Pg
FIR  12.550 1.00 Pg
DMV  23.740 1.00 Pg
SHM   8.620 1.00 Sg
# 2011 04 28 17 50 34.500000 34.386 53.623  14.9  2.4 0.0 0.0 0.0       358
ALA  31.740 0.50 Pn
ANJ  19.920 1.00 Pg
DMV  30.370 1.00 Pg
KLH  35.300 0.50 Pn
LAS  21.030 1.00 Pg
RAM  51.380 0.00 Pn
VRN  28.700 1.00 Pg
ZEF  33.050 0.50 Pn
FIR  25.860 1.00 Pg
GLO  40.050 0.00 Pn
LAS  35.650 1.00 Sg
# 2011 04 29 16 47 36.500000 35.759 52.111   8.0  2.1 0.0 0.0 0.0       359
AFJ   6.900 1.00 Pg
ALA  13.180 1.00 Pg
AFJ  12.160 1.00 Sg
ALA  22.880 1.00 Sg
ANJ  27.880 1.00 Pg
DMV   4.140 1.00 Pg
DMV   7.400 1.00 Sg
FIR  10.520 1.00 Pg
FIR  17.860 1.00 Sg
LAS  15.560 1.00 Pg
MHD  22.310 1.00 Pg
SHM  18.680 1.00 Pg
RAZ  32.140 1.00 Pn
VRN  16.210 1.00 Pg
VRN  27.970 1.00 Sg
MHD  38.550 1.00 Sg
# 2011 04 29 18 45 40.600000 35.503 49.405   9.0  2.8 0.0 0.0 0.0       360
AFJ  32.880 1.00 Pn
DMV  36.640 1.00 Pn
FIR  44.960 1.00 Pn
KLH  48.130 0.00 Pn
LAS  47.020 1.00 Pn
MHD  17.710 0.50 Pg
RAZ   6.900 1.00 Pg
SRB  43.390 1.00 Pn
BST  47.020 1.00 Pn
VRN  33.700 1.00 Pn
RAZ  13.840 1.00 Sg
MHD  32.750 1.00 Sg
# 2011 04 30 06 39 07.300000 35.548 53.226  14.0  1.5 0.0 0.0 0.0       361
ANJ  10.910 1.00 Pg
FIR   7.390 1.00 Pg
LAS   5.410 1.00 Pg
SHM   5.170 1.00 Pg
SHM   9.540 1.00 Sg
VRN  24.570 1.00 Pg
FIR  13.710 1.00 Sg
# 2011 04 30 07 18 41.300000 35.972 51.620   6.0  2.7 0.0 0.0 0.0       362
AFJ   2.030 1.00 Pg
ANJ  34.070 1.00 Pn
DMV   9.230 1.00 Pg
GLO  27.790 0.00 Pn
KLH  44.910 0.00 Pn
MHD  14.280 1.00 Pg
PRN  10.270 0.50 Pg
RAZ  25.620 0.00 Pg
VRN  17.890 1.00 Pg
ZEF  51.150 0.50 Pn
FIR  17.320 1.00 Pg
KIA  30.350 1.00 Pg
MHD  26.320 1.00 Sg
PRN  20.070 1.00 Sg
AFJ   5.090 1.00 Sg
ALA  17.780 1.00 Pg
DMV  16.530 1.00 Sg
# 2011 04 30 16 24 35.900000 35.236 52.168   4.6  1.7 0.0 0.0 0.0       363
DMV   5.840 1.00 Pg
FIR  11.440 1.00 Pg
LAS  12.520 1.00 Pg
RAZ  32.450 1.00 Pn
SHM  18.950 1.00 Pg
VRN   8.010 1.00 Pg
DMV  11.940 1.00 Sg
# 2011 04 30 17 20 33.700000 36.025 50.880   7.6  1.6 0.0 0.0 0.0       364
AFJ  12.730 1.00 Pg
DMV  18.760 1.00 Pg
MHD   6.970 1.00 Pg
RAZ  17.990 1.00 Pg
MHD  12.250 1.00 Sg
# 2011 04 30 21 37 45.200000 35.704 52.136   6.0  1.8 0.0 0.0 0.0       365
ALA  12.210 1.00 Pg
AFJ   6.430 1.00 Pg
DMV   2.630 1.00 Pg
ANJ  26.530 1.00 Pg
FIR   8.840 1.00 Pg
LAS  13.720 1.00 Pg
MHD  21.540 1.00 Pg
PRN  10.010 1.00 Pg
RAZ  32.580 1.00 Pn
SHM  17.660 1.00 Pg
VRN  14.580 1.00 Pg
ALA  20.820 1.00 Sg
DMV   5.650 1.00 Sg
PRN  18.150 1.00 Sg
# 2011 04 30 23 06 10.600000 35.486 53.192  17.9  1.3 0.0 0.0 0.0       366
ANJ  11.130 1.00 Pg
FIR   7.640 1.00 Pg
LAS   5.060 1.00 Pg
VRN  23.500 1.00 Pg
FIR  13.520 1.00 Sg
# 2011 04 30 23 12 07.200000 35.962 53.332   4.5  1.2 0.0 0.0 0.0       367
ALA   8.240 1.00 Pg
ANJ  12.610 1.00 Pg
FIR  10.100 1.00 Pg
LAS  19.370 0.00 Pg
SHM   2.790 1.00 Pg
SHM   5.630 1.00 Sg
FIR  18.080 1.00 Sg
# 2011 04 30 23 19 40.700000 35.807 51.912   5.9  1.2 0.0 0.0 0.0       368
AFJ   3.460 1.00 Pg
DMV   4.170 1.00 Pg
FIR  12.880 1.00 Pg
VRN  15.000 1.00 Pg
DMV   8.370 1.00 Sg
# 2011 05 01 06 00 10.600000 36.467 51.750   3.7  2.0 0.0 0.0 0.0       369
AFJ  10.870 1.00 Pg
DMV  16.570 1.00 Pg
GLO  30.260 1.00 Pg
PRN   9.240 1.00 Pg
RAZ  32.850 1.00 Pn
VRN  26.640 1.00 Pg
PRN  16.800 1.00 Sg
DMV  29.130 1.00 Sg
AFJ  18.950 1.00 Sg
# 2011 05 01 07 22 48.500000 36.052 53.300  20.7  2.9 0.0 0.0 0.0       370
VRN  28.680 1.00 Pg
SHM   5.750 1.00 Pg
PRN  14.740 1.00 Pg
LAS  13.790 1.00 Pg
GLO  11.870 1.00 Pg
FIR  11.510 1.00 Pg
DMV  20.090 1.00 Pg
ANJ  14.260 1.00 Pg
ALA   8.190 1.00 Pg
AFJ  23.080 1.00 Pg
ALA  14.410 1.00 Sg
# 2011 05 01 09 55 20.600000 34.363 50.958   7.2  2.2 0.0 0.0 0.0       371
ZEF  32.510 1.00 Pn
VRN  16.000 1.00 Pg
RAZ  24.070 1.00 Pg
QAM  12.840 1.00 Pg
PIR  30.670 1.00 Pg
KLH  20.820 1.00 Pg
VRN  28.620 1.00 Sg
QAM  22.480 1.00 Sg
KLH  36.180 1.00 Sg
DMV  26.420 1.00 Pg
# 2011 05 01 14 19 24.200000 35.639 53.196   5.0  1.1 0.0 0.0 0.0       372
ANJ  11.320 1.00 Pg
DMV  17.490 1.00 Pg
LAS   5.730 1.00 Pg
SHM   2.890 1.00 Pg
SHM   6.430 1.00 Sg
# 2011 05 02 01 44 56.100000 36.565 49.811   5.0  2.3 0.0 0.0 0.0       373
MHD  19.500 1.00 Pg
PRN  35.450 1.00 Pn
DMV  35.370 1.00 Pn
AFJ  29.930 1.00 Pg
VRN  38.030 1.00 Pn
MHD  35.180 1.00 Sg
# 2011 05 02 05 04 55.000000 35.447 52.574  16.8  1.3 0.0 0.0 0.0       374
DMV   8.670 1.00 Pg
FIR   5.210 1.00 Pg
VRN  15.600 1.00 Pg
DMV  15.530 1.00 Sg
FIR   9.490 1.00 Sg
VRN  26.040 1.00 Sg
# 2011 05 03 01 19 15.900000 36.079 53.269  31.2  1.2 0.0 0.0 0.0       375
SHM   7.320 1.00 Pg
FIR  12.150 1.00 Pg
ALA   8.640 1.00 Pg
FIR  21.090 1.00 Sg
# 2011 05 03 06 21 00.500000 35.553 53.206  11.6  0.9 0.0 0.0 0.0       376
ANJ  10.830 1.00 Pg
LAS   5.170 1.00 Pg
SHM   4.900 1.00 Pg
SHM   9.180 1.00 Sg
FIR   7.350 1.00 Pg
# 2011 05 03 11 44 00.500000 35.474 53.195  13.1  1.2 0.0 0.0 0.0       377
ANJ  10.670 1.00 Pg
FIR   7.320 1.00 Pg
DMV  17.920 1.00 Pg
LAS   4.760 1.00 Pg
SHM   6.040 1.00 Pg
SHM  12.040 1.00 Sg
FIR  12.700 1.00 Sg
# 2011 05 03 15 47 30.100000 34.786 50.649  10.0  1.8 0.0 0.0 0.0       378
DMV  25.800 1.00 Pg
FIR  35.330 0.00 Pn
RAZ  15.650 1.00 Pg
VRN  18.790 1.00 Pg
RAZ  26.710 1.00 Sg
# 2011 05 03 23 14 53.700000 35.991 50.351   1.1  2.2 0.0 0.0 0.0       379
AFJ  19.810 1.00 Pg
ALA  35.110 1.00 Pn
DMV  25.270 1.00 Pg
FIR  35.020 1.00 Pn
MHD   7.550 1.00 Pg
RAZ  12.350 1.00 Pg
VRN  27.420 1.00 Pg
# 2011 05 04 13 56 55.800000 35.516 52.185   7.8  2.0 0.0 0.0 0.0       380
AFJ  10.110 1.00 Pg
ALA  13.690 1.00 Pg
ANJ  26.310 1.00 Pg
DMV   3.020 1.00 Pg
FIR   8.460 1.00 Pg
FIR  16.990 1.00 Sg
PRN  13.880 1.00 Pg
SHM  16.900 1.00 Pg
VRN  12.290 1.00 Pg
# 2011 05 04 17 43 38.000000 37.249 53.978   6.9  2.8 0.0 0.0 0.0       381
VRN  51.910 0.00 Pn
SHM  27.790 1.00 Pg
PRN  29.260 1.00 Pg
LAS  35.310 1.00 Pn
GLO  13.650 1.00 Pg
FIR  32.960 1.00 Pn
DMV  38.960 1.00 Pn
ANJ  31.090 1.00 Pg
ALA  26.430 1.00 Pg
GLO  23.600 1.00 Sg
# 2011 05 04 19 45 00.200000 34.374 52.564  10.0  1.6 0.0 0.0 0.0       382
ZEF  26.960 1.00 Pg
ZEF  46.380 1.00 Sg
VRN  16.570 1.00 Pg
FIR  22.750 1.00 Pg
DMV  23.320 1.00 Pg
# 2011 05 05 08 40 51.500000 35.738 51.727   5.6  1.9 0.0 0.0 0.0       383
AFJ   2.420 1.00 Pg
DMV   5.060 1.00 Pg
FIR  15.400 1.00 Pg
IL3  11.700 1.00 Pg
SHM  24.350 1.00 Pg
RAZ  17.460 0.00 Pg
VRN   9.510 0.00 Pg
SHM  39.950 1.00 Sg
# 2011 05 05 14 38 09.300000 35.648 51.885  18.0  1.9 0.0 0.0 0.0       384
VRN  13.980 1.00 Pg
DMV   3.740 1.00 Pg
FIR  14.860 1.00 Pg
DMV   7.260 1.00 Sg
# 2011 05 06 00 49 19.700000 36.124 53.316   5.0  2.9 0.0 0.0 0.0       385
AFJ  23.700 1.00 Pg
ANJ  14.740 1.00 Pg
DMV  20.880 1.00 Pg
FIR  11.560 1.00 Pg
LAS  14.140 1.00 Pg
SHM   5.430 1.00 Pg
ZEF  53.670 0.00 Pn
RAM  68.120 0.50 Pn
CHK  63.070 0.50 Pn
BAF  74.240 0.50 Pn
VRN  30.980 1.00 Pg
MHD  39.360 0.50 Pn
FIR  21.100 1.00 Sg
# 2011 05 06 01 43 37.200000 35.955 52.209  23.1  1.2 0.0 0.0 0.0       386
FIR  10.600 1.00 Pg
LAS  15.590 1.00 Pg
DMV   8.370 1.00 Pg
FIR  18.380 1.00 Sg
# 2011 05 06 06 00 04.400000 35.786 51.934   4.6  1.5 0.0 0.0 0.0       387
AFJ   3.840 1.00 Pg
DMV   3.700 1.00 Pg
FIR  11.750 1.00 Pg
VRN  14.820 1.00 Pg
DMV   7.520 1.00 Sg
FIR  21.670 1.00 Sg
SHM  20.180 1.00 Pg
# 2011 05 07 08 23 44.600000 36.341 53.775  10.0  2.1 0.0 0.0 0.0       388
ALA  14.640 1.00 Pg
ALA  26.560 1.00 Sg
ANJ  16.030 1.00 Pg
FIR  19.330 1.00 Pg
GLO   3.630 1.00 Pg
KIA   2.560 1.00 Pg
PRN  21.400 1.00 Pg
FIR  33.750 1.00 Sg
# 2011 05 08 04 03 02.900000 34.535 52.449   6.7  3.1 0.0 0.0 0.0       389
AFJ  25.570 1.00 Pg
ALA  30.200 0.50 Pg
ANJ  27.400 1.00 Pg
DMV  19.540 1.00 Pg
FIR  20.430 1.00 Pg
GAR  38.190 0.50 Pn
KIA  35.850 0.50 Pn
KLH  24.850 1.00 Pg
ZEF  29.240 1.00 Pg
VRN  13.190 1.00 Pg
SHM  26.260 1.00 Pg
RAZ  38.530 1.00 Pn
QAM  20.440 1.00 Pg
QAM  36.040 1.00 Sg
PRN  32.130 0.50 Pg
PIR  40.020 0.50 Pn
MHD  31.970 1.00 Pn
LAS  18.180 1.00 Pg
# 2011 05 08 12 07 23.700000 35.400 50.120   1.0  2.5 0.0 0.0 0.0       390
VRN  24.150 1.00 Pg
SHM  43.030 1.00 Pn
ZEF  49.890 1.00 Pn
RAZ   2.830 1.00 Pg
MHD   9.610 1.00 Pg
KLH  41.000 1.00 Pn
DMV  27.830 0.50 Pg
MHD  16.880 1.00 Sg
# 2011 05 08 17 02 54.600000 35.162 53.522  18.0  1.4 0.0 0.0 0.0       391
ANJ   9.120 1.00 Pg
ANJ  15.280 1.00 Sg
FIR  15.700 1.00 Pg
FIR  26.020 1.00 Sg
SHM  13.340 1.00 Pg
SHM  22.520 1.00 Sg
VRN  46.810 1.00 Sg
# 2011 05 08 22 15 32.300000 34.513 52.458   7.2  2.7 0.0 0.0 0.0       392
ALA  29.960 0.50 Pg
ANJ  27.370 1.00 Pg
DMV  19.580 1.00 Pg
FIR  20.480 1.00 Pg
GLO  41.680 0.00 Pn
KLH  25.050 1.00 Pg
LAS  17.880 1.00 Pg
MHD  32.310 1.00 Pn
PRN  30.870 1.00 Pg
RAZ  37.680 1.00 Pn
SHM  26.720 1.00 Pg
ZEF  29.400 1.00 Pg
DMV  35.280 1.00 Sg
# 2011 05 09 01 25 23.300000 35.448 52.600   7.0  1.4 0.0 0.0 0.0       393
ALA  12.050 1.00 Pg
DMV   8.590 1.00 Pg
FIR   3.800 1.00 Pg
LAS   5.570 1.00 Pg
SHM  12.060 1.00 Pg
VRN  15.490 1.00 Pg
FIR   7.980 1.00 Sg
# 2011 05 09 02 35 31.300000 35.912 53.365  23.1  1.6 0.0 0.0 0.0       394
ALA   9.850 1.00 Pg
ANJ  12.340 1.00 Pg
DMV  20.560 1.00 Pg
FIR  11.090 1.00 Pg
GLO  13.180 1.00 Pg
SHM   4.070 1.00 Pg
FIR  19.170 1.00 Sg
# 2011 05 09 04 51 55.300000 35.371 52.776   3.4  1.3 0.0 0.0 0.0       395
SHM  10.630 1.00 Pg
LAS   2.580 1.00 Pg
FIR   4.300 1.00 Pg
DMV  11.090 1.00 Pg
ANJ  17.530 1.00 Pg
FIR   8.940 1.00 Sg
DMV  20.530 1.00 Sg
# 2011 05 09 06 08 42.700000 36.078 53.249  21.0  1.5 0.0 0.0 0.0       396
VRN  28.290 1.00 Pg
SHM   6.060 1.00 Pg
KIA   7.450 1.00 Pg
KIA  13.710 1.00 Sg
GLO  11.960 1.00 Pg
FIR  10.930 1.00 Pg
ANJ  14.610 1.00 Pg
SHM  11.200 1.00 Sg
VRN  51.630 1.00 Sg
# 2011 05 09 06 59 31.700000 35.597 53.280  21.6  0.7 0.0 0.0 0.0       397
SHM   5.120 1.00 Pg
ANJ  10.510 1.00 Pg
FIR   8.880 1.00 Pg
LAS  12.530 1.00 Sg
LAS   6.960 1.00 Pg
SHM   9.520 1.00 Sg
FIR  15.100 1.00 Sg
# 2011 05 09 08 43 08.700000 35.732 52.640   3.5  1.8 0.0 0.0 0.0       398
VRN  19.070 1.00 Pg
SHM   9.080 1.00 Pg
LAS   8.450 1.00 Pg
FIR   2.240 1.00 Pg
DMV   9.180 1.00 Pg
ANJ  18.750 1.00 Pg
ALA   6.780 1.00 Pg
ALA  12.040 1.00 Sg
SHM  16.980 1.00 Sg
# 2011 05 09 20 50 28.000000 34.540 50.771  12.6  2.0 0.0 0.0 0.0       399
DMV  26.390 1.00 Pg
KLH  25.350 1.00 Pg
MHD  20.740 1.00 Pg
PIR  33.750 0.50 Pn
QAM  17.190 1.00 Pg
RAZ  20.190 1.00 Pg
VRN  17.400 1.00 Pg
RAZ  34.530 1.00 Sg
QAM  30.270 1.00 Sg
KLH  43.210 1.00 Sg
DMV  45.310 1.00 Sg
# 2011 05 10 03 34 59.600000 35.979 53.531  14.6  2.5 0.0 0.0 0.0       400
AFJ  26.630 1.00 Pg
ALA  11.570 1.00 Pg
ANJ  11.440 1.00 Pg
DMV  23.240 1.00 Pg
FIR  13.040 1.00 Pg
GLO  12.360 0.00 Pg
KIA   5.090 1.00 Pg
KIA   9.500 1.00 Sg
LAS  13.890 1.00 Pg
SHM   4.610 1.00 Pg
SHM   9.590 1.00 Sg
VRN  32.280 1.00 Pg
# 2011 05 10 03 41 41.700000 36.786 53.545  20.3  2.6 0.0 0.0 0.0       401
VRN  37.260 1.00 Pn
SHM  17.580 1.00 Pg
KIA  11.250 1.00 Pg
LAS  25.840 1.00 Pg
GLO   8.180 1.00 Pg
FIR  22.710 1.00 Pg
DMV  29.220 1.00 Pg
ANJ  23.880 1.00 Pg
ALA  16.900 1.00 Pg
AFJ  29.700 1.00 Pg
SHM  31.980 1.00 Sg
ALA  30.010 1.00 Sg
# 2011 05 10 12 43 50.100000 35.452 53.069   6.6  1.1 0.0 0.0 0.0       402
SHM   7.140 1.00 Pg
LAS   2.410 1.00 Pg
FIR   6.260 1.00 Pg
ANJ  12.580 1.00 Pg
ALA  11.730 1.00 Pg
SHM  12.640 1.00 Sg
# 2011 05 10 14 04 11.000000 35.249 50.111   3.1  1.9 0.0 0.0 0.0       403
VRN  25.570 1.00 Pg
RAZ   4.020 1.00 Pg
MHD  11.150 1.00 Pg
DMV  29.440 1.00 Pg
DMV  50.080 1.00 Sg
# 2011 05 11 11 29 22.300000 34.031 51.217   8.3  1.5 0.0 0.0 0.0       404
KLH  14.150 1.00 Pg
QAM   5.890 1.00 Pg
ZEF  26.860 1.00 Pg
QAM  10.670 1.00 Sg
KLH  24.110 1.00 Sg
# 2011 05 11 12 03 21.900000 35.524 53.243  14.7  1.1 0.0 0.0 0.0       405
ALA  13.000 1.00 Pg
ANJ  10.860 1.00 Pg
FIR   8.200 1.00 Pg
SHM   5.860 1.00 Pg
SHM  10.940 1.00 Sg
LAS   6.110 1.00 Pg
FIR  14.720 1.00 Sg
# 2011 05 11 16 01 52.100000 35.991 50.891  12.7  1.3 0.0 0.0 0.0       406
AFJ  12.470 1.00 Pg
DMV  18.570 1.00 Pg
MHD   6.680 1.00 Pg
RAZ  17.950 1.00 Pg
VRN  21.760 1.00 Pg
MHD  11.920 1.00 Sg
RAZ  30.710 1.00 Sg
# 2011 05 11 16 04 38.000000 35.986 50.895  13.5  1.9 0.0 0.0 0.0       407
AFJ  12.450 1.00 Pg
DMV  18.450 1.00 Pg
MHD   6.670 1.00 Pg
RAZ  17.760 1.00 Pg
VRN  21.650 1.00 Pg
MHD  11.830 1.00 Sg
DMV  31.810 1.00 Sg
# 2011 05 11 20 52 33.800000 35.724 52.254   6.0  1.3 0.0 0.0 0.0       408
AFJ   9.300 1.00 Pg
DMV   4.950 1.00 Pg
FIR   8.640 1.00 Pg
FIR  14.540 1.00 Sg
DMV   8.590 1.00 Sg
# 2011 05 11 21 00 28.600000 34.161 53.013  11.8  2.2 0.0 0.0 0.0       409
AFJ  34.350 1.00 Pn
ZEF  24.990 1.00 Pg
VRN  24.230 1.00 Pg
SHM  29.750 1.00 Pg
QAM  24.310 1.00 Pg
QAM  42.940 1.00 Sg
LAS  22.310 1.00 Pg
KLH  26.130 1.00 Pg
FIR  26.400 1.00 Pg
DMV  28.740 1.00 Pg
ANJ  26.570 1.00 Pg
ZEF  43.670 1.00 Sg
# 2011 05 12 06 25 06.100000 35.547 53.229  12.6  0.9 0.0 0.0 0.0       410
SHM   4.950 1.00 Pg
LAS   5.240 1.00 Pg
FIR   7.220 1.00 Pg
ANJ  10.780 1.00 Pg
SHM   9.310 1.00 Sg
FIR  13.600 1.00 Sg
VRN  24.680 1.00 Pg
# 2011 05 12 16 55 32.900000 34.748 52.620   6.9  2.9 0.0 0.0 0.0       411
ALA  24.320 1.00 Pg
DMV  17.070 1.00 Pg
FIR  15.840 1.00 Pg
GAR  42.590 0.00 Pn
GLO  36.120 0.00 Pn
KLH  29.650 1.00 Pg
MHD  31.460 1.00 Pn
PIR  43.870 0.00 Pn
PRN  27.370 1.00 Pg
QAM  24.520 1.00 Pg
RAM  49.620 0.00 Pn
RAZ  38.780 1.00 Pn
VRN  13.330 1.00 Pg
ZEF  32.830 1.00 Pn
DMV  30.790 1.00 Sg
KLH  52.350 1.00 Sg
LAS  12.980 1.00 Pg
SHM  21.020 1.00 Pg
ANJ  22.900 1.00 Pg
# 2011 05 12 21 42 34.400000 35.899 53.251   4.9  1.1 0.0 0.0 0.0       412
SHM   1.570 1.00 Pg
VRN  27.910 1.00 Pg
FIR   8.370 1.00 Pg
DMV  18.720 1.00 Pg
ANJ  12.350 1.00 Pg
FIR  14.970 1.00 Sg
LAS  19.060 1.00 Sg
ALA  13.040 1.00 Sg
GLO  24.370 1.00 Sg
PRN  25.400 1.00 Sg
# 2011 05 13 22 36 06.700000 34.468 51.304  18.0  1.8 0.0 0.0 0.0       413
DMV  23.350 1.00 Pg
KLH  21.040 1.00 Pg
MHD  23.850 1.00 Pg
QAM  13.440 1.00 Pg
VRN  11.900 1.00 Pg
VRN  20.100 1.00 Sg
# 2011 05 14 17 10 16.200000 35.677 51.872   7.8  1.9 0.0 0.0 0.0       414
AFJ   4.860 1.00 Pg
DMV   3.530 1.00 Pg
FIR  14.110 1.00 Pg
RAZ  29.020 1.00 Pg
SHM  23.100 1.00 Pg
VRN  13.670 1.00 Pg
DMV   6.850 1.00 Sg
# 2011 05 15 11 14 44.800000 34.289 52.324   4.3  3.0 0.0 0.0 0.0       415
KLH  20.450 1.00 Pg
GAR  34.340 0.50 Pn
ZEF  25.120 1.00 Pg
ZEF  43.740 1.00 Sg
VRN  15.270 1.00 Pg
VRN  26.950 1.00 Sg
SHM  30.150 1.00 Pg
RAZ  38.270 1.00 Pn
PRN  34.460 1.00 Pn
PIR  35.260 1.00 Pn
MHD  32.960 1.00 Pn
LAS  22.270 1.00 Pg
KLH  35.860 1.00 Sg
KIA  39.180 0.50 Pn
FIR  24.780 1.00 Pg
DMV  22.990 1.00 Pg
DMV  40.810 1.00 Sg
ANJ  30.830 1.00 Pg
ALA  33.110 1.00 Pn
# 2011 05 15 11 22 35.700000 35.837 51.681  12.0  2.5 0.0 0.0 0.0       416
ALA  17.900 1.00 Pg
ANJ  33.950 0.00 Pn
DMV   7.150 1.00 Pg
FIR  17.020 1.00 Pg
KIA  31.540 0.00 Pg
MHD  15.960 1.00 Pg
LAS  21.330 1.00 Pg
PRN  12.800 1.00 Pg
RAZ  26.970 1.00 Pg
SHM  24.580 1.00 Pg
VRN  15.880 1.00 Pg
RAZ  46.950 1.00 Sg
MHD  28.020 1.00 Sg
VRN  27.700 1.00 Sg
PRN  22.160 1.00 Sg
# 2011 05 15 16 22 35.000000 34.851 53.246   1.9  1.8 0.0 0.0 0.0       417
ANJ  14.220 1.00 Pg
DMV  21.970 1.00 Pg
FIR  16.090 1.00 Pg
GLO  32.780 0.00 Pg
KLH  35.870 1.00 Pn
LAS  10.080 1.00 Pg
SHM  17.670 1.00 Pg
VRN  21.900 1.00 Pg
ZEF  35.870 1.00 Pn
VRN  38.920 1.00 Sg
ANJ  26.060 1.00 Sg
LAS  17.700 1.00 Sg
DMV  38.850 1.00 Sg
FIR  28.030 1.00 Sg
# 2011 05 15 20 41 42.000000 36.097 53.465   5.0  1.5 0.0 0.0 0.0       418
VRN  32.430 1.00 Pg
SHM   5.840 1.00 Pg
GLO   9.710 1.00 Pg
FIR  12.960 1.00 Pg
DMV  22.710 1.00 Pg
ANJ  13.840 1.00 Pg
ALA   9.040 1.00 Pg
SHM  11.480 1.00 Sg
FIR  23.800 1.00 Sg
ALA  17.360 1.00 Sg
PRN  16.460 1.00 Pg
# 2011 05 16 12 00 41.600000 35.435 53.064  10.2  1.2 0.0 0.0 0.0       419
ANJ  12.920 1.00 Pg
FIR   5.930 1.00 Pg
LAS   2.830 1.00 Pg
SHM   7.110 1.00 Pg
VRN  22.660 1.00 Pg
SHM  13.370 1.00 Sg
ALA  21.840 1.00 Sg
# 2011 05 17 10 19 49.200000 36.904 50.866  12.0  2.5 0.0 0.0 0.0       420
AFJ  22.250 1.00 Pg
DMV  28.710 1.00 Pg
MHD  22.460 1.00 Pg
PRN  24.210 1.00 Pg
RAZ  29.540 1.00 Pg
RAZ  52.400 1.00 Sg
PRN  42.610 1.00 Sg
ALA  31.310 1.00 Pg
ALA  55.440 1.00 Sg
# 2011 05 17 12 31 39.900000 35.550 53.211  20.1  0.8 0.0 0.0 0.0       421
SHM   5.970 1.00 Pg
LAS   5.980 1.00 Pg
ANJ  11.010 1.00 Pg
SHM  10.370 1.00 Sg
