# 2011 05 18 07 14 11.600000 35.507 53.116  18.2  1.2 0.0 0.0 0.0       422
LAS   9.510 0.00 Pg
SHM   7.680 1.00 Pg
FIR   6.530 1.00 Pg
ANJ  12.640 1.00 Pg
SHM  12.100 1.00 Sg
FIR  12.610 1.00 Sg
# 2011 05 18 11 25 41.400000 35.987 50.932  17.7  1.8 0.0 0.0 0.0       423
MHD   7.000 1.00 Pg
RAZ  18.260 1.00 Pg
VRN  21.750 1.00 Pg
MHD  12.860 1.00 Sg
VRN  37.050 1.00 Sg
# 2011 05 18 11 58 31.600000 35.480 52.932   1.5  1.4 0.0 0.0 0.0       424
ANJ  14.230 1.00 Pg
FIR   3.820 1.00 Pg
LAS   2.020 1.00 Pg
SHM   7.780 1.00 Pg
VRN  20.070 1.00 Pg
SHM  14.020 1.00 Sg
FIR   6.920 1.00 Sg
# 2011 05 18 18 42 02.300000 35.603 52.584   5.0  2.8 0.0 0.0 0.0       425
AFJ  14.170 1.00 Pg
ALA  15.390 0.00 Pg
ANJ  19.280 1.00 Pg
DMV   8.110 1.00 Pg
FIR   9.750 0.00 Pg
GLO  32.420 0.00 Pg
LAS   5.650 0.00 Pg
MHD  28.060 1.00 Pg
PRN  16.720 0.00 Pg
QAM  36.940 0.50 Pn
RAZ  38.220 0.50 Pn
SHM  10.860 1.00 Pg
VRN  17.440 1.00 Pg
VRN  28.520 1.00 Sg
SHM  18.940 1.00 Sg
MHD  48.040 1.00 Sg
# 2011 05 18 22 52 58.800000 35.797 52.283   8.3  0.5 0.0 0.0 0.0       426
ALA   9.490 1.00 Pg
DMV   5.730 1.00 Pg
FIR   7.710 1.00 Pg
DMV   9.910 1.00 Sg
FIR  13.300 1.00 Sg
# 2011 05 19 00 21 02.200000 36.018 50.893   3.2  2.0 0.0 0.0 0.0       427
AFJ  12.500 1.00 Pg
ALA  29.460 1.00 Pg
DMV  18.300 1.00 Pg
FIR  27.970 1.00 Pg
MHD   6.890 1.00 Pg
PRN  23.340 1.00 Pg
QAM  38.920 1.00 Pn
RAZ  18.080 1.00 Pg
VRN  21.650 1.00 Pg
MHD  11.930 1.00 Sg
DMV  32.380 1.00 Sg
# 2011 05 19 01 45 38.100000 35.586 51.614  35.7  1.3 0.0 0.0 0.0       428
AFJ   8.000 1.00 Pg
DMV   8.680 1.00 Pg
VRN  12.230 1.00 Pg
VRN  21.230 1.00 Sg
# 2011 05 19 14 42 04.300000 35.712 52.173  27.5  1.3 0.0 0.0 0.0       429
DMV   5.860 1.00 Pg
FIR   9.900 1.00 Pg
VRN  15.170 1.00 Pg
FIR  17.140 1.00 Sg
# 2011 05 19 22 52 08.400000 36.008 52.187   9.0  1.7 0.0 0.0 0.0       430
AFJ   7.730 1.00 Pg
ALA   9.560 1.00 Pg
DMV   8.400 1.00 Pg
FIR  10.670 1.00 Pg
PRN   5.050 1.00 Pg
PRN   8.810 1.00 Sg
# 2011 05 20 19 20 31.800000 36.058 53.450   4.7  1.9 0.0 0.0 0.0       431
ALA   9.600 1.00 Pg
ANJ  12.900 1.00 Pg
DMV  22.870 1.00 Pg
FIR  12.170 1.00 Pg
GLO   9.070 1.00 Pg
GLO  17.470 1.00 Sg
LAS  14.990 0.50 Pg
PRN  17.330 0.50 Pg
VRN  31.180 1.00 Pg
# 2011 05 21 15 42 54.700000 35.067 53.806   4.8  2.1 0.0 0.0 0.0       432
VRN  28.880 0.50 Pg
LAS  14.830 0.50 Pg
GLO  26.990 1.00 Pg
FIR  18.630 1.00 Pg
DMV  26.830 0.50 Pg
ANJ   7.260 1.00 Pg
ALA  23.590 1.00 Pg
AFJ  32.870 1.00 Pn
ZEF  41.290 1.00 Pn
ANJ  13.000 1.00 Sg
# 2011 05 22 06 50 56.000000 35.552 53.185  19.6  0.8 0.0 0.0 0.0       433
ANJ  11.480 1.00 Pg
FIR   7.610 1.00 Pg
LAS   5.700 1.00 Pg
SHM   5.790 1.00 Pg
SHM  10.510 1.00 Sg
# 2011 05 22 15 49 54.600000 34.894 52.874   5.0  2.0 0.0 0.0 0.0       434
ALA  21.010 1.00 Pg
ANJ  17.760 1.00 Pg
DMV  17.470 1.00 Pg
FIR  12.960 1.00 Pg
GLO  31.870 1.00 Pg
LAS   9.420 1.00 Pg
SHM  17.450 1.00 Pg
VRN  16.670 1.00 Pg
ZEF  35.600 1.00 Pn
SHM  30.510 1.00 Sg
FIR  23.940 1.00 Sg
# 2011 05 22 17 11 55.300000 34.958 52.806   5.0  2.6 0.0 0.0 0.0       435
ALA  19.590 1.00 Pg
ANJ  18.910 1.00 Pg
GLO  31.330 1.00 Pg
KLH  33.520 1.00 Pn
LAS   7.960 1.00 Pg
PIR  46.380 0.50 Pn
PRN  23.750 1.00 Pg
QAM  28.020 0.00 Pg
RAM  56.080 0.00 Pn
SHM  15.870 1.00 Pg
ZEF  36.490 1.00 Pn
SHM  29.090 1.00 Sg
PRN  42.310 1.00 Sg
ALA  35.380 1.00 Sg
QAM  50.760 1.00 Sg
# 2011 05 23 09 49 45.800000 36.044 53.785   5.3  2.6 0.0 0.0 0.0       436
ALA  13.850 1.00 Pg
ANJ  10.760 1.00 Pg
DMV  26.910 1.00 Pg
FIR  16.340 1.00 Pg
GLO   8.550 1.00 Pg
KIA   3.110 1.00 Pg
LAS  17.630 1.00 Pg
PRN  21.080 1.00 Pg
SHM   8.770 1.00 Pg
VRN  34.240 1.00 Pn
KIA   6.530 1.00 Sg
FIR  28.920 1.00 Sg
ALA  25.410 1.00 Sg
# 2011 05 23 12 22 04.000000 35.491 53.089  14.7  1.3 0.0 0.0 0.0       437
ANJ  12.470 1.00 Pg
LAS   3.820 1.00 Pg
SHM   7.080 1.00 Pg
SHM  12.020 1.00 Sg
LAS   6.800 1.00 Sg
# 2011 05 23 13 12 21.900000 36.134 53.830  18.2  1.1 0.0 0.0 0.0       438
ANJ  12.520 1.00 Pg
KIA   4.130 1.00 Pg
SHM  10.590 1.00 Pg
SHM  18.130 1.00 Sg
KIA   7.310 1.00 Sg
# 2011 05 23 17 27 50.500000 34.881 53.487   5.8  2.1 0.0 0.0 0.0       439
ALA  23.320 1.00 Pg
ANJ  12.170 1.00 Pg
DMV  25.310 1.00 Pg
DMV  43.110 1.00 Sg
FIR  17.290 1.00 Pg
GLO  30.480 1.00 Pg
LAS  12.220 1.00 Pg
VRN  26.450 1.00 Pg
PRN  51.310 1.00 Sg
VRN  45.710 1.00 Sg
# 2011 05 23 19 02 06.400000 35.058 53.496  34.0  1.4 0.0 0.0 0.0       440
ALA  21.880 1.00 Pg
ANJ  11.490 1.00 Pg
LAS  11.690 1.00 Pg
ANJ  19.920 1.00 Sg
# 2011 05 24 01 15 38.200000 36.022 51.965  17.0  1.1 0.0 0.0 0.0       441
AFJ   5.960 1.00 Pg
ALA  13.260 1.00 Pg
DMV   8.400 1.00 Pg
FIR  13.730 1.00 Pg
PRN   7.110 1.00 Pg
DMV  15.100 1.00 Sg
# 2011 05 24 01 18 12.300000 36.015 51.956  11.5  1.7 0.0 0.0 0.0       442
PRN   6.970 1.00 Pg
FIR  13.570 1.00 Pg
DMV   8.060 1.00 Pg
ALA  13.020 1.00 Pg
AFJ   5.240 1.00 Pg
DMV  14.360 1.00 Sg
# 2011 05 24 01 39 07.100000 36.002 51.970  10.2  1.5 0.0 0.0 0.0       443
PRN   7.290 1.00 Pg
FIR  13.810 1.00 Pg
DMV   7.720 1.00 Pg
ALA  11.960 1.00 Pg
AFJ   5.100 1.00 Pg
DMV  13.760 1.00 Sg
# 2011 05 24 01 40 09.800000 35.994 51.965  14.7  1.2 0.0 0.0 0.0       444
PRN   7.630 1.00 Pg
DMV   8.080 1.00 Pg
ALA  12.530 1.00 Pg
AFJ   5.300 1.00 Pg
DMV  13.980 1.00 Sg
AFJ   9.080 1.00 Sg
# 2011 05 24 01 52 20.800000 36.008 51.948  19.0  1.8 0.0 0.0 0.0       445
AFJ   5.690 1.00 Pg
ALA  12.840 1.00 Pg
DMV   8.430 1.00 Pg
FIR  14.180 1.00 Pg
PRN   7.850 1.00 Pg
DMV  14.850 1.00 Sg
# 2011 05 24 07 25 06.600000 35.544 53.218  20.5  1.1 0.0 0.0 0.0       446
ALA  12.000 1.00 Pg
ANJ  11.290 1.00 Pg
FIR   7.680 1.00 Pg
LAS   5.780 1.00 Pg
SHM   5.960 1.00 Pg
SHM  10.480 1.00 Sg
FIR  14.280 1.00 Sg
# 2011 05 25 07 35 44.700000 35.311 52.834  31.7  1.9 0.0 0.0 0.0       447
SHM  12.980 1.00 Pg
VRN  18.510 1.00 Pg
ANJ  16.500 1.00 Pg
FIR   7.670 1.00 Pg
LAS   6.260 1.00 Pg
VRN  31.030 1.00 Sg
# 2011 05 25 08 35 07.100000 35.714 51.423  12.3  2.0 0.0 0.0 0.0       448
FIR  19.400 1.00 Pg
VRN  13.200 1.00 Pg
SHM  27.480 1.00 Pg
VRN  24.660 1.00 Sg
FIR  33.440 1.00 Sg
SHM  47.990 1.00 Sg
AFJ   5.680 1.00 Pg
AFJ   9.860 1.00 Sg
# 2011 05 26 07 40 22.600000 35.666 51.456   8.0  2.1 0.0 0.0 0.0       449
AFJ   5.060 1.00 Pg
ANJ  35.110 1.00 Pn
DMV   8.580 1.00 Pg
SHM  27.730 1.00 Pg
VRN  12.320 1.00 Pg
DMV  15.100 1.00 Sg
VRN  22.360 1.00 Sg
# 2011 05 26 14 12 26.700000 35.406 52.884  17.4  1.7 0.0 0.0 0.0       450
ALA  12.470 1.00 Pg
ANJ  15.290 1.00 Pg
DMV  13.540 1.00 Pg
FIR   5.220 1.00 Pg
SHM   9.600 1.00 Pg
VRN  19.120 1.00 Pg
LAS  -0.420 0.00 Pg
SHM  17.760 1.00 Sg
FIR   9.820 1.00 Sg
# 2011 05 26 17 41 45.300000 35.958 52.085   5.0  2.0 0.0 0.0 0.0       451
ALA  10.500 1.00 Pg
PRN   5.960 1.00 Pg
PRN  11.320 1.00 Sg
SHM  18.000 1.00 Pg
GLO  28.180 1.00 Pg
ALA  18.760 1.00 Sg
# 2011 05 27 04 17 06.300000 36.032 53.614   3.2  3.2 0.0 0.0 0.0       452
ALA  11.020 1.00 Pg
ANJ  10.900 1.00 Pg
GLO   9.550 1.00 Pg
KIA   3.150 1.00 Pg
KLH  52.110 0.50 Pn
LAS  15.250 1.00 Pg
PRN  18.280 1.00 Pg
QAM  46.730 1.00 Pn
RAM  66.590 1.00 Pn
SHM   5.730 1.00 Pg
SHM  11.810 1.00 Sg
KIA   6.450 1.00 Sg
ALA  21.060 1.00 Sg
# 2011 05 28 11 37 38.000000 34.034 51.178   2.9  1.7 0.0 0.0 0.0       453
KLH  14.440 1.00 Pg
PIR  26.210 1.00 Pg
QAM   6.110 1.00 Pg
ZEF  27.780 1.00 Pg
QAM  11.170 1.00 Sg
KLH  24.460 1.00 Sg
# 2011 05 28 12 27 23.400000 34.931 53.745  15.3  3.3 0.0 0.0 0.0       454
ALA  24.840 1.00 Pg
ANJ   9.630 1.00 Pg
BAF  56.400 1.00 Pn
GLO  29.420 0.00 Pg
KLH  39.090 1.00 Pn
LAS  14.740 1.00 Pg
MEH  55.060 1.00 Pn
PIR  52.640 0.00 Pn
SAD  52.070 0.00 Pn
ZEF  38.340 1.00 Pn
VRN  28.650 1.00 Pg
DMV  27.690 1.00 Pg
FIR  19.790 1.00 Pg
SHM  30.530 1.00 Sg
SHM  17.650 1.00 Pg
# 2011 05 28 16 11 33.600000 34.917 52.597   4.7  2.6 0.0 0.0 0.0       455
AFJ  21.440 1.00 Pg
DMV  14.620 1.00 Pg
FIR  12.730 1.00 Pg
GLO  32.820 1.00 Pn
VRN  13.050 1.00 Pg
ZEF  35.800 1.00 Pn
QAM  26.970 1.00 Pg
PRN  24.030 1.00 Pg
KLH  31.830 1.00 Pn
DMV  25.560 1.00 Sg
MHD  31.010 1.00 Pg
MHD  54.470 1.00 Sg
QAM  47.270 1.00 Sg
VRN  22.830 1.00 Sg
ANJ  21.480 1.00 Pg
LAS  10.450 1.00 Pg
SHM  18.540 1.00 Pg
SHM  33.360 1.00 Sg
# 2011 05 29 04 41 06.500000 35.510 50.932  24.4  2.2 0.0 0.0 0.0       456
AFJ  13.690 1.00 Pg
DMV  16.730 1.00 Pg
MHD   6.510 1.00 Pg
VRN  15.500 1.00 Pg
DMV  29.090 1.00 Sg
VRN  26.780 1.00 Sg
# 2011 05 29 07 30 11.500000 35.555 53.172  19.1  1.5 0.0 0.0 0.0       457
ANJ  11.550 1.00 Pg
LAS   5.630 1.00 Pg
SHM   5.980 1.00 Pg
SHM  10.340 1.00 Sg
# 2011 05 30 07 43 27.300000 34.928 49.973   3.0  4.1 0.0 0.0 0.0       458
AFJ  29.880 1.00 Pg
ALA  44.200 0.50 Pn
ANJ  51.740 1.00 Pn
BST  57.430 1.00 Pn
BZA  29.880 0.00 Pg
DMV  31.740 1.00 Pg
FIR  40.090 1.00 Pn
GHG  47.460 1.00 Pn
GLO  57.580 0.00 Pn
HRS  62.670 1.00 Pn
KFM  38.110 1.00 Pn
KLH  36.510 1.00 Pn
IL3  18.590 1.00 Pg
KMR  32.030 0.50 Pn
LAS  41.010 1.00 Pn
LIN  41.380 1.00 Pn
MHD  16.510 1.00 Pg
PIR  41.190 0.50 Pn
PRN  40.860 1.00 Pn
QAM  29.580 1.00 Pg
SHM  47.030 1.00 Pn
SRB  53.600 1.00 Pn
VIS  43.890 0.50 Pn
VRN  25.410 1.00 Pg
ZEF  48.290 0.00 Pn
MHD  29.930 1.00 Sg
# 2011 05 30 08 50 26.800000 34.969 49.879   3.0  3.4 0.0 0.0 0.0       459
ANJ  52.770 1.00 Pn
BZA  30.810 1.00 Pg
DMV  32.700 1.00 Pn
AFJ  53.970 1.00 Sg
FIR  40.890 1.00 Pn
IL3  18.970 1.00 Pg
KFM  41.050 0.50 Pn
KLH  37.140 1.00 Pn
KMR  34.290 1.00 Pn
LAS  42.490 1.00 Pn
MHD  16.960 1.00 Pg
PIR  42.590 0.50 Pn
QAM  30.360 0.50 Pg
SHM  47.450 1.00 Pn
VRN  26.030 1.00 Pg
VRN  47.130 1.00 Sg
IL3  33.810 1.00 Sg
DHR  49.210 0.50 Pn
AFJ  30.310 0.50 Pg
# 2011 05 30 15 02 26.600000 35.592 52.408   5.0  1.5 0.0 0.0 0.0       460
ALA  10.100 1.00 Pg
ANJ  22.530 1.00 Pg
PRN  11.580 1.00 Pg
SHM  13.470 1.00 Pg
PRN  20.760 1.00 Sg
# 2011 05 30 21 31 26.100000 35.343 53.787  16.8  2.6 0.0 0.0 0.0       461
SHM   9.280 0.50 Pg
PRN  26.220 1.00 Pg
LAS  12.310 1.00 Pg
GLO  21.000 1.00 Pg
ANJ   4.100 1.00 Pg
ANJ   7.500 1.00 Sg
GLO  36.360 1.00 Sg
LAS  21.960 1.00 Sg
# 2011 05 31 04 38 08.000000 35.579 53.784  17.5  2.0 0.0 0.0 0.0       462
SHM   9.010 1.00 Pg
LAS  13.030 1.00 Pg
ANJ   4.260 1.00 Pg
ANJ   7.360 1.00 Sg
# 2011 05 31 06 18 11.200000 35.589 53.161  25.4  1.2 0.0 0.0 0.0       463
ANJ  12.130 1.00 Pg
LAS   6.540 1.00 Pg
SHM   6.260 1.00 Pg
SHM  10.840 1.00 Sg
# 2011 05 31 06 22 59.400000 35.564 53.196   1.1  1.1 0.0 0.0 0.0       464
SHM   4.610 1.00 Pg
LAS   4.850 1.00 Pg
ANJ  10.710 1.00 Pg
SHM   7.970 1.00 Sg
# 2011 05 31 09 38 42.000000 35.825 53.488  21.0  1.8 0.0 0.0 0.0       465
SHM   4.780 1.00 Pg
GLO  13.380 1.00 Pg
ANJ   9.820 1.00 Pg
GLO  23.880 1.00 Sg
ALA  11.720 1.00 Pg
# 2011 05 31 22 41 41.100000 34.471 53.326  19.8  2.4 0.0 0.0 0.0       466
ALA  27.600 1.00 Pg
ANJ  15.520 0.00 Pg
KLH  30.760 1.00 Pn
GLO  33.830 1.00 Pn
LAS  18.350 1.00 Pg
QAM  29.290 1.00 Pg
RAM  43.860 1.00 Pn
SAD  40.340 1.00 Pn
SHM  21.590 0.00 Pg
ZEF  27.710 0.50 Pg
SHM  41.530 1.00 Sg
PRN  32.460 1.00 Pn
# 2011 06 01 01 13 40.000000 36.207 52.188  17.9  2.3 0.0 0.0 0.0       467
ALA  10.400 1.00 Pg
ANJ  28.670 1.00 Pg
GLO  24.370 1.00 Pg
PRN   3.750 1.00 Pg
SHM  17.860 1.00 Pg
PRN   6.750 1.00 Sg
SHM  30.760 1.00 Sg
ALA  17.340 1.00 Sg
# 2011 06 01 19 01 11.500000 36.087 52.832  13.0  1.8 0.0 0.0 0.0       468
ALA   2.360 1.00 Pg
DMV  15.620 1.00 Pg
FIR   8.930 1.00 Pg
FIR  15.550 1.00 Sg
GLO  17.970 1.00 Pg
LAS  14.660 1.00 Pg
PRN   8.520 1.00 Pg
PRN  15.140 1.00 Sg
SHM   9.100 1.00 Pg
SHM  15.950 1.00 Sg
VRN  26.260 1.00 Pg
ALA   5.020 1.00 Sg
DMV  26.680 1.00 Sg
# 2011 06 02 04 06 16.100000 34.779 53.163  10.1  2.1 0.0 0.0 0.0       469
AFJ  28.550 1.00 Pg
ANJ  16.530 1.00 Pg
FIR  16.350 1.00 Pg
SHM  18.880 1.00 Pg
VRN  21.780 1.00 Pg
SHM  32.520 1.00 Sg
FIR  28.870 1.00 Sg
# 2011 06 02 14 42 08.600000 36.703 53.043  13.3  1.7 0.0 0.0 0.0       470
ALA  11.310 0.50 Pg
FIR  19.530 1.00 Pg
GLO  11.830 1.00 Pg
PRN  12.940 1.00 Pg
SHM  16.610 1.00 Pg
ALA  19.960 1.00 Sg
GLO  21.880 1.00 Sg
PRN  23.770 1.00 Sg
SHM  28.640 1.00 Sg
FIR  34.480 1.00 Sg
# 2011 06 03 03 08 37.700000 36.220 53.199  23.4  1.9 0.0 0.0 0.0       471
ALA   6.510 0.50 Pg
ANJ  17.560 1.00 Pg
DMV  20.370 1.00 Pg
FIR  13.210 1.00 Pg
GLO  11.680 1.00 Pg
KIA   7.780 1.00 Pg
PRN  13.710 1.00 Pg
SHM   8.280 1.00 Pg
VRN  31.250 1.00 Pg
SHM  15.470 1.00 Sg
ALA  12.810 1.00 Sg
# 2011 06 03 04 37 17.800000 36.293 53.278   5.3  1.8 0.0 0.0 0.0       472
DMV  20.900 0.00 Pg
LAS  16.620 1.00 Pg
PRN  13.210 1.00 Pg
SHM   8.560 1.00 Pg
VRN  31.670 1.00 Pn
SHM  15.670 1.00 Sg
PRN  24.670 1.00 Sg
ANJ  17.850 1.00 Pg
ALA  13.190 1.00 Sg
# 2011 06 04 23 30 24.500000 35.947 52.157   8.3  1.3 0.0 0.0 0.0       473
AFJ   6.760 1.00 Pg
ALA   9.940 1.00 Pg
ANJ  27.570 1.00 Pg
DMV   6.770 1.00 Pg
FIR   9.890 1.00 Pg
PRN   6.250 1.00 Pg
SHM  16.640 1.00 Pg
VRN  18.840 1.00 Pg
DMV  12.730 1.00 Sg
ALA  17.740 1.00 Sg
PRN  10.750 1.00 Sg
# 2011 06 05 21 41 50.400000 35.434 51.849   5.3  1.8 0.0 0.0 0.0       474
DMV   3.600 1.00 Pg
RAZ  28.700 1.00 Pg
SHM  22.500 1.00 Pg
VRN   8.180 1.00 Pg
DMV   7.020 1.00 Sg
ANJ  30.080 1.00 Pg
FIR  24.020 1.00 Sg
# 2011 06 06 07 37 46.800000 35.543 53.188  10.9  1.5 0.0 0.0 0.0       475
SHM   5.170 1.00 Pg
VRN  24.090 1.00 Pg
LAS   4.910 1.00 Pg
FIR   6.630 1.00 Pg
ANJ  10.910 1.00 Pg
SHM   9.650 1.00 Sg
# 2011 06 06 15 17 47.800000 35.810 52.177   6.0  1.5 0.0 0.0 0.0       476
AFJ   6.680 1.00 Pg
DMV   4.680 1.00 Pg
VRN  16.590 1.00 Pg
VRN  27.690 1.00 Sg
AFJ  12.300 1.00 Sg
# 2011 06 06 22 28 15.200000 35.754 52.797  12.0  1.3 0.0 0.0 0.0       477
SHM   7.790 1.00 Pg
LAS   8.170 1.00 Pg
FIR   1.960 0.50 Pg
DMV  12.080 1.00 Pg
ANJ  17.880 1.00 Pg
DMV  22.360 1.00 Sg
SHM  14.670 1.00 Sg
FIR   5.600 1.00 Sg
# 2011 06 06 23 36 33.300000 36.835 49.067   2.7  2.7 0.0 0.0 0.0       478
BST  33.920 1.00 Pn
DMV  45.050 1.00 Pn
GLO  67.510 0.00 Pn
HRS  37.430 1.00 Pn
MHD  30.550 1.00 Pg
MRD  59.080 0.00 Pn
RAZ  28.770 1.00 Pg
SHB  54.200 0.00 Pn
SRB  26.760 1.00 Pg
VRN  48.750 0.00 Pn
RAZ  49.950 1.00 Sg
SRB  46.820 1.00 Sg
MHD  53.710 1.00 Sg
# 2011 06 07 00 59 02.800000 36.003 51.994  22.9  1.7 0.0 0.0 0.0       479
AFJ   6.490 1.00 Pg
DMV   8.530 1.00 Pg
PRN   7.560 1.00 Pg
PRN  13.300 1.00 Sg
FIR  13.580 1.00 Pg
# 2011 06 07 03 04 55.500000 35.949 53.401  15.2  1.5 0.0 0.0 0.0       480
ALA   9.630 1.00 Pg
ANJ  11.940 1.00 Pg
DMV  21.050 1.00 Pg
FIR  11.310 1.00 Pg
GLO  12.450 1.00 Pg
KIA   6.260 1.00 Pg
SHM   4.280 1.00 Pg
FIR  19.730 1.00 Sg
KIA  11.940 1.00 Sg
# 2011 06 07 06 32 41.400000 34.847 53.026  16.9  2.5 0.0 0.0 0.0       481
AFJ  26.620 1.00 Pg
DMV  19.630 1.00 Pg
FIR  14.580 1.00 Pg
KLH  32.070 1.00 Pn
QAM  29.310 1.00 Pg
ZEF  33.960 1.00 Pn
FIR  26.940 1.00 Sg
VRN  19.360 1.00 Pg
# 2011 06 07 15 10 29.000000 35.612 53.091  22.7  1.0 0.0 0.0 0.0       482
ANJ  13.090 1.00 Pg
FIR   6.750 1.00 Pg
LAS   6.040 1.00 Pg
SHM   5.730 1.00 Pg
SHM  10.750 1.00 Sg
FIR  11.070 1.00 Sg
# 2011 06 07 20 21 46.800000 35.396 52.232  18.0  1.7 0.0 0.0 0.0       483
DMV   5.760 1.00 Pg
FIR   9.550 1.00 Pg
DMV  10.340 1.00 Sg
FIR  16.690 1.00 Sg
LAS  11.790 1.00 Pg
VRN  11.290 1.00 Pg
SHM  18.010 1.00 Pg
SHM  31.980 1.00 Sg
# 2011 06 08 01 30 23.600000 36.536 52.705  11.9  1.6 0.0 0.0 0.0       484
ALA   8.120 1.00 Pg
ANJ  26.380 1.00 Pg
DMV  19.190 1.00 Pg
FIR  16.080 1.00 Pg
GLO  16.440 1.00 Pg
PRN   7.720 1.00 Pg
SHM  16.370 1.00 Pg
PRN  14.120 1.00 Sg
ALA  14.820 1.00 Sg
# 2011 06 08 01 49 40.000000 36.964 49.366   2.1  3.0 0.0 0.0 0.0       485
ALA  47.170 1.00 Pn
DMV  43.990 0.50 Pn
ANJ  69.490 0.00 Pn
FIR  52.060 0.00 Pn
GLO  56.600 1.00 Pn
MHD  29.310 1.00 Pg
KLH  70.070 0.00 Pn
PRN  41.350 1.00 Pn
RAZ  28.940 1.00 Pg
SHM  54.210 1.00 Pn
VRN  45.060 1.00 Pn
SRB  28.730 1.00 Pg
HRS  38.800 1.00 Pn
BST  36.080 1.00 Pn
MHD  51.650 1.00 Sg
RAZ  51.000 1.00 Sg
# 2011 06 08 13 50 38.700000 35.416 51.419   4.0  1.9 0.0 0.0 0.0       486
DMV   8.870 1.00 Pg
RAZ  21.500 1.00 Pg
SHM  28.390 1.00 Pg
VRN   8.940 1.00 Pg
RAZ  38.520 1.00 Sg
ANJ  35.630 1.00 Pn
DMV  17.130 1.00 Sg
# 2011 06 08 14 26 42.400000 34.816 53.114   5.9  2.7 0.0 0.0 0.0       487
ANJ  16.360 1.00 Pg
DMV  20.990 1.00 Pg
FIR  15.650 1.00 Pg
GLO  31.850 1.00 Pg
KLH  33.420 1.00 Pn
LAS  11.030 1.00 Pg
QAM  30.810 1.00 Pg
PRN  28.210 1.00 Pg
SHM  18.230 1.00 Pg
VRN  20.350 1.00 Pg
ZEF  35.100 1.00 Pn
VRN  36.100 1.00 Sg
FIR  26.550 1.00 Sg
DMV  37.170 1.00 Sg
AFJ  27.860 1.00 Pg
# 2011 06 09 07 59 06.300000 35.654 51.424  25.6  1.7 0.0 0.0 0.0       488
DMV  10.180 1.00 Pg
AFJ   7.290 1.00 Pg
VRN  14.630 1.00 Pg
AFJ  12.590 1.00 Sg
# 2011 06 09 12 56 28.000000 34.120 50.708  13.1  1.8 0.0 0.0 0.0       489
DMV  31.190 1.00 Pn
QAM  12.630 1.00 Pg
VRN  21.660 1.00 Pg
VRN  38.060 1.00 Sg
RAZ  25.990 1.00 Pg
QAM  22.630 1.00 Sg
# 2011 06 09 15 22 22.400000 35.536 53.138  16.7  1.4 0.0 0.0 0.0       490
ANJ  12.090 1.00 Pg
DMV  16.650 1.00 Pg
FIR   6.300 1.00 Pg
FIR  12.020 1.00 Sg
GLO  21.890 0.50 Pg
LAS   4.870 1.00 Pg
SHM   6.010 1.00 Pg
# 2011 06 10 02 47 11.300000 36.978 49.056   2.4  2.7 0.0 0.0 0.0       491
AFJ  41.970 0.00 Pn
BST  32.500 1.00 Pn
DMV  48.240 0.00 Pn
HRS  36.320 1.00 Pn
MHD  32.780 1.00 Pn
PRN  44.310 1.00 Pn
SRB  24.950 1.00 Pg
SRB  43.590 1.00 Sg
# 2011 06 10 07 35 01.200000 34.840 53.112   5.0  2.1 0.0 0.0 0.0       492
ANJ  15.880 1.00 Pg
FIR  15.350 1.00 Pg
KLH  35.900 0.50 Pn
SHM  17.490 1.00 Pg
VRN  20.190 1.00 Pg
VRN  35.690 1.00 Sg
FIR  27.250 1.00 Sg
ALA  22.730 1.00 Pg
DMV  20.940 1.00 Pg
ZEF  35.910 1.00 Pn
# 2011 06 10 07 56 08.300000 36.598 49.111  20.3  2.6 0.0 0.0 0.0       493
BST  34.500 1.00 Pn
MHD  26.920 1.00 Pg
RAZ  23.900 1.00 Pg
SRB  28.100 1.00 Pg
VRN  43.660 0.50 Pn
MHD  48.840 1.00 Sg
RAZ  43.000 1.00 Sg
# 2011 06 10 09 54 45.200000 35.794 53.105  12.3  1.6 0.0 0.0 0.0       494
ALA   7.760 1.00 Pg
ANJ  13.630 1.00 Pg
FIR   5.330 1.00 Pg
DMV  16.290 1.00 Pg
LAS   8.030 1.00 Pg
PRN  13.620 1.00 Pg
VRN  25.140 1.00 Pg
FIR  11.190 1.00 Sg
VRN  43.580 1.00 Sg
# 2011 06 11 06 24 13.200000 35.605 53.187  16.9  1.5 0.0 0.0 0.0       495
ANJ  10.950 1.00 Pg
LAS   5.920 1.00 Pg
SHM   5.060 1.00 Pg
VRN  24.440 1.00 Pg
ANJ  20.010 1.00 Sg
SHM   8.660 1.00 Sg
# 2011 06 11 07 22 44.000000 35.582 53.196  17.3  1.2 0.0 0.0 0.0       496
ANJ  11.500 1.00 Pg
LAS   6.030 1.00 Pg
SHM   5.200 1.00 Pg
FIR   6.970 1.00 Pg
FIR  13.190 1.00 Sg
LAS  10.170 1.00 Sg
# 2011 06 11 14 17 59.800000 35.357 52.026  27.0  1.5 0.0 0.0 0.0       497
DMV   6.270 1.00 Pg
FIR  12.040 1.00 Pg
SHM  21.110 1.00 Pg
VRN   9.080 1.00 Pg
FIR  22.240 1.00 Sg
# 2011 06 11 14 29 07.700000 35.340 52.053  14.1  1.8 0.0 0.0 0.0       498
DMV   5.140 1.00 Pg
QAM  28.760 1.00 Pg
VRN   7.990 1.00 Pg
FIR   9.910 0.00 Pg
SHM  20.000 1.00 Pg
QAM  51.840 1.00 Sg
# 2011 06 11 18 33 23.600000 36.381 52.413   5.0  1.3 0.0 0.0 0.0       499
ALA   7.000 1.00 Pg
DMV  16.230 1.00 Pg
GLO  21.530 1.00 Pg
PRN   2.800 1.00 Pg
SHM  16.800 1.00 Pg
PRN   6.160 1.00 Sg
SHM  28.630 1.00 Sg
VRN  28.550 1.00 Pg
ALA  13.300 1.00 Sg
FIR  25.080 1.00 Sg
# 2011 06 12 00 49 52.100000 35.709 52.485  10.7  1.4 0.0 0.0 0.0       500
ALA   8.340 1.00 Pg
DMV   7.220 1.00 Pg
FIR   4.380 1.00 Pg
SHM  12.520 1.00 Pg
VRN  17.100 1.00 Pg
PRN  10.280 1.00 Pg
AFJ  11.560 1.00 Pg
DMV  13.160 1.00 Sg
FIR   8.130 1.00 Sg
# 2011 06 12 13 12 23.700000 35.502 52.167  14.9  1.7 0.0 0.0 0.0       501
ALA  14.640 1.00 Pg
DMV   3.040 1.00 Pg
FIR   8.540 1.00 Pg
LAS  11.660 1.00 Pg
SHM  17.310 1.00 Pg
VRN  12.020 1.00 Pg
SHM  30.920 1.00 Sg
FIR  16.480 1.00 Sg
ANJ  25.610 1.00 Pg
DMV   6.720 1.00 Sg
# 2011 06 12 16 39 53.100000 34.446 51.370  16.6  1.5 0.0 0.0 0.0       502
FIR  29.790 1.00 Pg
KLH  20.710 1.00 Pg
VRN  11.610 1.00 Pg
VRN  20.090 1.00 Sg
# 2011 06 12 21 42 58.700000 34.573 52.768  17.3  2.4 0.0 0.0 0.0       503
AFJ  27.290 1.00 Pg
ANJ  23.150 1.00 Pg
DMV  21.170 1.00 Pg
FIR  18.730 1.00 Pg
GLO  28.260 0.00 Pn
KLH  27.810 1.00 Pg
LAS  15.890 1.00 Pg
QAM  24.340 1.00 Pg
SHM  23.140 1.00 Pg
VRN  16.920 1.00 Pg
ZEF  29.570 1.00 Pg
VRN  29.900 1.00 Sg
QAM  43.120 1.00 Sg
FIR  34.130 1.00 Sg
DMV  37.130 1.00 Sg
