# 2011 01 01 12 47 05.900000 35.618 49.024  12.4  2.2 0.0 0.0 0.0         1
IL5  24.100 1.00 Pg
MHD  24.200 1.00 Pg
RAZ  14.050 1.00 Pg
RAZ  24.340 1.00 Sg
# 2011 01 01 13 02 35.200000 35.919 53.156   3.4  1.4 0.0 0.0 0.0         2
ANJ  13.730 1.00 Pg
DMV  17.640 1.00 Pg
FIR   7.660 1.00 Pg
LAS  10.210 1.00 Pg
SHM   3.110 1.00 Pg
SHM   5.190 1.00 Sg
# 2011 01 01 14 12 38.200000 35.112 49.673  18.0  1.7 0.0 0.0 0.0         3
IL5  13.590 1.00 Pg
MHD  18.630 1.00 Pg
RAZ   7.050 1.00 Pg
RAZ  12.420 1.00 Sg
# 2011 01 01 14 21 10.000000 35.398 53.152   5.0  2.3 0.0 0.0 0.0         4
ANJ  11.260 1.00 Pg
DMV  17.500 1.00 Pg
FIR   7.340 1.00 Pg
LAS   2.580 1.00 Pg
SHM   7.590 1.00 Pg
VRN  22.540 1.00 Pg
FIR  13.100 1.00 Sg
DMV  28.560 1.00 Sg
# 2011 01 01 14 32 18.100000 35.404 53.166   5.0  1.6 0.0 0.0 0.0         5
ANJ  11.140 1.00 Pg
DMV  18.030 1.00 Pg
FIR   7.320 1.00 Pg
LAS   2.570 1.00 Pg
SHM   7.450 1.00 Pg
VRN  22.320 1.00 Pg
FIR  12.820 1.00 Sg
# 2011 01 01 15 40 38.400000 35.349 53.159   5.0  1.5 0.0 0.0 0.0         6
FIR   8.200 1.00 Pg
LAS   3.220 1.00 Pg
SHM   8.550 1.00 Pg
FIR  13.920 1.00 Sg
# 2011 01 01 16 32 49.900000 35.386 53.160   3.0  1.6 0.0 0.0 0.0         7
ANJ  11.290 1.00 Pg
DMV  17.780 1.00 Pg
FIR   7.180 1.00 Pg
LAS   2.570 0.50 Pg
SHM   7.300 1.00 Pg
VRN  22.290 1.00 Pg
SHM  13.960 1.00 Sg
FIR  13.480 1.00 Sg
DMV  28.900 1.00 Sg
# 2011 01 01 18 54 20.900000 35.429 53.163  18.0  1.3 0.0 0.0 0.0         8
FIR   7.360 1.00 Pg
DMV  17.750 1.00 Pg
LAS   2.470 0.50 Pg
SHM   7.830 1.00 Pg
VRN  22.610 1.00 Pg
SHM  13.530 1.00 Sg
ANJ  11.560 1.00 Pg
# 2011 01 01 18 54 42.300000 35.414 53.165   5.0  1.5 0.0 0.0 0.0         9
ANJ  11.340 1.00 Pg
DMV  17.370 1.00 Pg
FIR   7.180 1.00 Pg
LAS   2.210 0.50 Pg
SHM   7.450 1.00 Pg
VRN  22.070 1.00 Pg
FIR  13.100 1.00 Sg
SHM  12.610 1.00 Sg
# 2011 01 02 02 22 52.200000 34.496 50.772   5.0  2.5 0.0 0.0 0.0        10
DMV  25.830 0.50 Pg
FIR  34.530 1.00 Pn
GZV  33.740 1.00 Pn
IL5  12.710 1.00 Pg
LAS  34.180 1.00 Pn
MHD  20.510 0.50 Pg
RAZ  20.160 1.00 Pg
SHM  41.190 1.00 Pn
VRN  16.570 1.00 Pg
IL5  22.970 1.00 Sg
RAZ  35.780 1.00 Sg
PIR  32.670 1.00 Pn
RAM  50.230 0.50 Pn
ZEF  35.930 1.00 Pn
DMV  46.410 1.00 Sg
# 2011 01 02 04 54 11.300000 36.648 49.706  10.0  1.5 0.0 0.0 0.0        11
GZV   9.330 1.00 Pg
RAZ  24.060 1.00 Pg
MHD  23.540 1.00 Pg
GZV  16.710 1.00 Sg
RAZ  41.380 1.00 Sg
# 2011 01 02 12 24 10.900000 35.377 52.817   5.0  1.7 0.0 0.0 0.0        12
VRN  17.880 1.00 Pg
SHM   9.960 1.00 Pg
LAS   1.070 0.50 Pg
FIR   4.360 1.00 Pg
ANJ  16.380 1.00 Pg
DMV  12.300 1.00 Pg
SHM  18.860 1.00 Sg
FIR   8.980 1.00 Sg
# 2011 01 02 14 47 50.800000 35.483 51.858   9.6  1.6 0.0 0.0 0.0        13
DMV   3.660 1.00 Pg
FIR  13.580 1.00 Pg
VRN   9.140 1.00 Pg
VRN  15.840 1.00 Sg
# 2011 01 03 00 48 23.700000 35.809 53.289   7.7  2.8 0.0 0.0 0.0        14
VRN  27.400 1.00 Pg
SHM   0.280 0.50 Pg
RAZ  46.110 0.00 Pn
LAS   9.730 1.00 Pg
IL5  39.970 0.50 Pn
GZV  42.710 0.50 Pn
FIR   7.610 1.00 Pg
DMV  18.240 1.00 Pg
DMV  34.080 1.00 Sg
SHM   2.940 1.00 Sg
AKL  68.040 1.00 Pn
MOG  74.050 1.00 Pn
PAY  70.420 1.00 Pn
SFR  61.510 1.00 Pn
# 2011 01 03 16 49 50.700000 35.283 53.160  26.8  1.1 0.0 0.0 0.0        15
FIR  11.620 1.00 Pg
LAS   5.880 1.00 Pg
SHM  10.970 1.00 Pg
LAS  10.060 1.00 Sg
FIR  17.460 1.00 Sg
SHM  18.450 1.00 Sg
# 2011 01 04 09 58 25.500000 35.347 50.129  15.3  2.0 0.0 0.0 0.0        16
GZV  19.690 1.00 Pg
IL5   6.380 0.50 Pg
MHD   9.830 1.00 Pg
RAZ   3.880 1.00 Pg
VRN  24.400 1.00 Pg
VRN  43.060 1.00 Sg
RAZ   7.520 1.00 Sg
MHD  17.750 1.00 Sg
# 2011 01 04 11 17 07.800000 35.342 50.134  15.2  1.5 0.0 0.0 0.0        17
VRN  24.380 1.00 Pg
RAZ   3.830 1.00 Pg
MHD   9.750 1.00 Pg
IL5   6.280 0.50 Pg
GZV  19.490 1.00 Pg
MHD  17.790 1.00 Sg
VRN  42.700 1.00 Sg
RAZ   7.630 1.00 Sg
# 2011 01 04 12 03 55.400000 36.712 49.640   3.1  2.3 0.0 0.0 0.0        18
GZV   9.620 1.00 Pg
RAZ  22.200 0.50 Pg
GZV  18.300 1.00 Sg
BST  39.880 1.00 Pn
HRS  43.560 1.00 Pn
VRN  40.200 1.00 Pn
IL5  29.840 1.00 Pg
RAZ  41.540 1.00 Sg
# 2011 01 04 13 37 13.100000 35.793 52.020  18.0  1.4 0.0 0.0 0.0        19
DMV   2.910 0.50 Pg
FIR  11.380 1.00 Pg
VRN  14.910 1.00 Pg
FIR  19.940 1.00 Sg
VRN  26.870 1.00 Sg
SHM  19.470 1.00 Pg
# 2011 01 05 00 49 34.700000 35.336 52.306  18.0  0.8 0.0 0.0 0.0        20
DMV   5.900 1.00 Pg
FIR   9.410 1.00 Pg
VRN  11.140 1.00 Pg
DMV  12.300 1.00 Sg
# 2011 01 05 07 17 35.100000 34.499 52.626  14.7  1.5 0.0 0.0 0.0        21
VRN  16.190 1.00 Pg
ZEF  28.270 1.00 Pg
KLH  26.430 1.00 Pg
ZEF  50.650 1.00 Sg
# 2011 01 05 09 44 50.300000 35.114 49.669   3.3  2.1 0.0 0.0 0.0        22
VRN  30.380 1.00 Pg
RAZ   6.440 1.00 Pg
MHD  18.130 1.00 Pg
GZV  24.610 1.00 Pg
FIR  44.370 0.00 Pn
MHD  30.710 1.00 Sg
RAZ  11.400 1.00 Sg
IL5  13.100 1.00 Pg
IL5  24.140 1.00 Sg
# 2011 01 06 09 41 41.000000 36.028 50.591  11.1  1.5 0.0 0.0 0.0        23
AFJ  16.840 1.00 Pg
RAZ  14.940 1.00 Pg
VRN  25.490 1.00 Pg
GZV  15.400 1.00 Sg
GZV   8.340 1.00 Pg
MHD   6.750 1.00 Pg
# 2011 01 06 10 28 19.600000 35.634 51.419  16.6  1.5 0.0 0.0 0.0        24
AFJ   7.030 1.00 Pg
FIR  20.320 1.00 Pg
IL5  16.260 1.00 Pg
VRN  13.170 1.00 Pg
VRN  22.690 1.00 Sg
# 2011 01 06 19 30 12.900000 34.707 51.966   3.5  1.8 0.0 0.0 0.0        25
DMV  15.840 1.00 Pg
FIR  20.130 1.00 Pg
KLH  25.440 1.00 Pg
MHD  25.890 1.00 Pg
SHM  27.810 1.00 Pg
VRN   6.490 1.00 Pg
ZEF  32.820 1.00 Pn
KLH  44.300 1.00 Sg
DMV  27.320 1.00 Sg
# 2011 01 07 11 53 43.800000 35.848 53.429   3.9  1.5 0.0 0.0 0.0        26
ANJ  10.410 1.00 Pg
DMV  21.690 1.00 Pg
FIR  10.360 1.00 Pg
LAS  10.370 1.00 Pg
SHM   1.860 1.00 Pg
VRN  29.320 1.00 Pg
SHM   4.320 1.00 Sg
FIR  18.990 1.00 Sg
# 2011 01 07 12 39 55.100000 36.697 49.609  13.1  2.3 0.0 0.0 0.0        27
DMV  38.640 0.50 Pn
BST  39.170 1.00 Pn
SRB  32.130 1.00 Pn
VRN  41.000 0.50 Pn
IL5  29.100 1.00 Pg
GZV   8.350 0.50 Pg
# 2011 01 08 08 04 54.500000 35.548 53.190  10.0  0.9 0.0 0.0 0.0        28
SHM   5.280 1.00 Pg
LAS   4.980 1.00 Pg
FIR   7.020 1.00 Pg
ANJ  11.010 1.00 Pg
SHM   9.290 1.00 Sg
# 2011 01 08 11 48 31.600000 36.540 50.979  12.8  2.5 0.0 0.0 0.0        29
ANJ  42.270 1.00 Pn
DMV  22.660 1.00 Pg
FIR  29.100 1.00 Pg
GZV  11.690 1.00 Pg
IL5  24.360 1.00 Pg
MHD  16.570 1.00 Pg
RAZ  25.670 1.00 Pg
SHM  34.060 1.00 Pn
VRN  29.400 1.00 Pg
DMV  40.440 1.00 Sg
# 2011 01 08 15 20 30.100000 35.325 52.490  21.3  1.6 0.0 0.0 0.0        30
ANJ  21.470 1.00 Pg
DMV   9.040 1.00 Pg
FIR   7.660 1.00 Pg
LAS   7.910 1.00 Pg
SHM  15.610 1.00 Pg
VRN  13.310 1.00 Pg
# 2011 01 08 15 26 47.200000 34.047 53.239  12.9  2.5 0.0 0.0 0.0        31
ANJ  26.820 1.00 Pg
FIR  28.880 1.00 Pg
CHK  34.030 1.00 Pn
DMV  31.320 1.00 Pn
KLH  27.660 1.00 Pg
LAS  24.550 1.00 Pg
SHM  30.720 1.00 Pg
VRN  27.760 1.00 Pg
ZEF  25.140 1.00 Pg
# 2011 01 08 18 07 10.700000 35.752 52.652   5.0  2.8 0.0 0.0 0.0        32
DMV   8.820 1.00 Pg
FIR   1.940 1.00 Pg
IL5  31.390 1.00 Pg
KLH  43.450 1.00 Pn
LAS   7.740 1.00 Pg
MHD  29.320 1.00 Pg
QAM  37.680 1.00 Pn
SHM  10.030 1.00 Pg
VRN  18.660 1.00 Pg
VRN  34.060 1.00 Sg
DMV  16.500 1.00 Sg
# 2011 01 08 22 20 54.400000 35.404 52.226  17.7  1.3 0.0 0.0 0.0        33
DMV   5.320 1.00 Pg
FIR   9.520 1.00 Pg
VRN  10.900 1.00 Pg
SHM  17.360 1.00 Pg
VRN  18.670 1.00 Sg
# 2011 01 08 22 35 12.100000 36.552 51.010   7.9  1.9 0.0 0.0 0.0        34
SHM  34.140 1.00 Pn
GZV  11.880 1.00 Pg
FIR  29.680 1.00 Pg
DMV  23.220 1.00 Pg
FIR  52.240 1.00 Sg
# 2011 01 09 00 36 05.200000 35.721 52.769  20.3  1.2 0.0 0.0 0.0        35
FIR   1.830 0.00 Pg
DMV  12.250 1.00 Pg
SHM   8.550 1.00 Pg
VRN  20.950 1.00 Pg
LAS   7.830 1.00 Pg
SHM  16.010 1.00 Sg
DMV  20.950 1.00 Sg
# 2011 01 09 02 46 46.000000 36.530 52.893   5.0  1.5 0.0 0.0 0.0        36
DMV  23.120 1.00 Pg
FIR  17.850 1.00 Pg
SHM  16.050 1.00 Pg
FIR  31.050 1.00 Sg
SHM  27.110 1.00 Sg
# 2011 01 09 07 33 58.800000 35.515 53.223  12.3  0.8 0.0 0.0 0.0        37
LAS   4.980 1.00 Pg
FIR   7.320 1.00 Pg
ANJ  10.700 1.00 Pg
FIR  13.680 1.00 Sg
SHM  10.060 1.00 Sg
# 2011 01 09 12 19 41.100000 35.237 51.927  16.2  1.8 0.0 0.0 0.0        38
DMV   6.930 1.00 Pg
ANJ  28.410 1.00 Pg
FIR  14.480 1.00 Pg
IL5  19.640 1.00 Pg
LAS  15.440 1.00 Pg
RAZ  28.830 1.00 Pg
VRN   6.030 1.00 Pg
VRN  10.530 1.00 Sg
IL5  35.110 1.00 Sg
DMV  12.370 1.00 Sg
FIR  25.380 1.00 Sg
RAZ  51.190 1.00 Sg
# 2011 01 10 07 03 54.600000 36.663 50.995   3.0  2.5 0.0 0.0 0.0        39
DMV  24.820 1.00 Pg
RAZ  27.700 1.00 Pg
VRN  31.660 1.00 Pg
VRN  55.120 1.00 Sg
RAZ  47.720 1.00 Sg
DMV  42.560 1.00 Sg
GLO  38.770 1.00 Pn
PRN  20.700 1.00 Pg
# 2011 01 10 12 28 56.000000 35.258 52.147   5.0  1.6 0.0 0.0 0.0        40
VRN   8.920 1.00 Pg
FIR  12.180 1.00 Pg
DMV   6.030 1.00 Pg
FIR  22.060 1.00 Sg
DMV  12.230 1.00 Sg
# 2011 01 10 16 49 16.700000 35.736 52.306   6.7  2.3 0.0 0.0 0.0        41
DMV   5.530 1.00 Pg
FIR   8.050 1.00 Pg
LAS  13.030 1.00 Pg
VRN  16.880 1.00 Pg
RAZ  34.030 1.00 Pn
FIR  13.050 1.00 Sg
DMV  10.150 1.00 Sg
VRN  30.240 1.00 Sg
# 2011 01 11 01 00 26.500000 35.755 52.270   8.0  2.1 0.0 0.0 0.0        42
DMV   5.410 1.00 Pg
FIR   8.060 1.00 Pg
VRN  16.790 1.00 Pg
RAZ  34.060 1.00 Pn
FIR  14.300 1.00 Sg
# 2011 01 11 12 45 46.500000 35.666 49.562   6.0  2.4 0.0 0.0 0.0        43
DMV  34.730 1.00 Pn
GZV  16.190 1.00 Pg
IL5  16.850 1.00 Pg
MHD  16.040 1.00 Pg
RAZ   7.230 1.00 Pg
VRN  33.100 1.00 Pn
MHD  28.400 1.00 Sg
GZV  27.710 1.00 Sg
RAZ  12.410 1.00 Sg
# 2011 01 12 05 37 02.000000 36.452 52.580  19.8  2.3 0.0 0.0 0.0        44
VRN  27.680 1.00 Pg
PRN   5.710 1.00 Pg
MHD  31.180 1.00 Pg
LAS  20.430 1.00 Pg
GLO  18.840 1.00 Pg
FIR  14.910 1.00 Pg
DMV  17.920 1.00 Pg
ALA   7.930 1.00 Pg
PRN  11.310 1.00 Sg
LAS  35.320 1.00 Sg
# 2011 01 12 14 15 22.400000 35.766 51.982  15.7  1.7 0.0 0.0 0.0        45
RAZ  31.290 1.00 Pg
VRN  15.050 1.00 Pg
DMV   4.880 1.00 Pg
DMV   8.460 1.00 Sg
# 2011 01 13 00 03 47.900000 35.427 52.819  19.9  1.3 0.0 0.0 0.0        46
LAS   4.270 1.00 Pg
FIR   5.430 1.00 Pg
DMV  12.450 1.00 Pg
FIR   9.370 1.00 Sg
# 2011 01 13 06 38 10.400000 36.230 52.691   8.0  2.5 0.0 0.0 0.0        47
ANJ  22.920 1.00 Pg
DMV  14.500 1.00 Pg
DMV  27.000 1.00 Sg
FIR  10.330 1.00 Pg
GZV  34.770 1.00 Pn
LAS  16.080 1.00 Pg
SHM  11.440 1.00 Pg
# 2011 01 13 07 35 37.900000 37.236 53.808  17.0  2.7 0.0 0.0 0.0        48
ANJ  30.140 1.00 Pg
FIR  31.680 0.50 Pn
GZV  46.710 1.00 Pn
SHM  26.210 1.00 Pg
# 2011 01 13 15 01 10.200000 34.314 52.344  28.8  1.5 0.0 0.0 0.0        49
DMV  24.140 1.00 Pg
FIR  24.670 1.00 Pg
KLH  21.740 1.00 Pg
QAM  17.220 1.00 Pg
ZEF  26.040 1.00 Pg
ZEF  45.060 1.00 Sg
QAM  30.320 1.00 Sg
# 2011 01 13 15 19 47.100000 35.847 52.989   7.1  1.6 0.0 0.0 0.0        50
DMV  14.980 1.00 Pg
FIR   4.850 1.00 Pg
GLO  17.070 1.00 Pg
LAS   8.550 1.00 Pg
FIR   9.330 1.00 Sg
# 2011 01 13 23 09 39.200000 35.564 49.765   9.8  1.4 0.0 0.0 0.0        51
GZV  16.250 1.00 Pg
RAZ   4.190 1.00 Pg
MHD  13.490 1.00 Pg
RAZ   7.270 1.00 Sg
# 2011 01 15 08 11 26.700000 35.376 53.376  26.1  1.3 0.0 0.0 0.0        52
ANJ   9.260 1.00 Pg
FIR  11.470 1.00 Pg
LAS   7.460 1.00 Pg
FIR  19.460 1.00 Sg
LAS  13.400 1.00 Sg
# 2011 01 15 08 34 57.700000 35.578 53.241  14.6  1.2 0.0 0.0 0.0        53
LAS   5.520 1.00 Pg
FIR   7.480 1.00 Pg
ANJ  10.570 1.00 Pg
DMV  18.240 1.00 Pg
LAS  10.820 1.00 Sg
FIR  13.480 1.00 Sg
# 2011 01 16 01 09 07.300000 35.017 50.632   7.5  2.3 0.0 0.0 0.0        54
DMV  22.640 1.00 Pg
FIR  31.960 1.00 Pn
IL5   3.880 1.00 Pg
KLH  33.120 1.00 Pn
LAS  33.500 1.00 Pn
QAM  25.590 1.00 Pg
ZEF  43.890 0.50 Pn
IL5   6.850 1.00 Sg
DMV  40.060 1.00 Sg
# 2011 01 16 03 17 09.000000 35.372 53.269   2.5  2.3 0.0 0.0 0.0        55
ALA  14.030 1.00 Pg
DMV  18.660 1.00 Pg
FIR   8.900 1.00 Pg
GLO  21.720 1.00 Pg
LAS   4.400 1.00 Pg
PRN  21.440 1.00 Pg
QAM  36.800 1.00 Pn
ZEF  43.310 1.00 Pn
# 2011 01 16 10 15 34.700000 36.531 49.762   3.4  2.3 0.0 0.0 0.0        56
BST  42.360 1.00 Pn
DMV  35.880 1.00 Pn
HRS  45.490 1.00 Pn
MHD  19.940 1.00 Pg
RAZ  20.520 1.00 Pg
SRB  36.140 1.00 Pn
# 2011 01 16 12 01 45.100000 36.793 50.725   5.8  3.5 0.0 0.0 0.0        57
ALA  31.550 1.00 Pn
ANJ  47.180 1.00 Pn
BST  50.230 1.00 Pn
DMV  29.050 1.00 Pg
FIR  35.130 1.00 Pn
GLO  40.690 1.00 Pn
GZV  11.130 1.00 Pg
IL5  27.660 1.00 Pg
LAS  38.980 1.00 Pn
MHD  19.750 1.00 Pg
PRN  24.920 1.00 Pg
RAZ  26.810 1.00 Pg
SRB  43.220 1.00 Pn
PRN  44.100 1.00 Sg
MHD  34.310 1.00 Sg
KHMZ 50.500 1.00 Pn
ASAO 38.890 1.00 Pn
THKV 16.010 1.00 Pg
CHTH 16.810 1.00 Pg
# 2011 01 16 17 27 39.600000 34.989 50.105   4.4  3.4 0.0 0.0 0.0        58
BST  59.760 0.50 Pn
DMV  29.730 1.00 Pg
FIR  38.750 1.00 Pn
GZV  25.230 1.00 Pg
IL5   8.100 1.00 Pg
MHD  14.880 1.00 Pg
QAM  28.950 1.00 Pg
RAZ   8.120 1.00 Pg
NASN 50.600 1.00 Pn
KHMZ 22.320 1.00 Pg
ASAO  8.140 1.00 Pg
CHTH 22.300 1.00 Pg
QAM  51.700 1.00 Sg
GZV  44.670 0.00 Sg
DMV  52.450 1.00 Sg
# 2011 01 16 17 38 37.200000 34.984 50.124  12.2  2.4 0.0 0.0 0.0        59
DMV  30.080 1.00 Pg
GZV  25.410 1.00 Pg
QAM  29.560 1.00 Pg
RAZ   8.300 1.00 Pg
RAZ  14.720 1.00 Sg
# 2011 01 16 18 17 06.600000 35.046 50.062  32.1  2.4 0.0 0.0 0.0        60
DMV  30.240 1.00 Pg
GZV  25.400 1.00 Pg
IL5  10.680 1.00 Pg
MHD  15.090 1.00 Pg
RAZ   8.360 1.00 Pg
RAZ  14.940 1.00 Sg
# 2011 01 16 20 46 40.700000 36.952 50.546  18.0  2.6 0.0 0.0 0.0        61
DMV  33.760 1.00 Pn
FIR  39.500 1.00 Pn
RAZ  29.090 1.00 Pg
PRN  28.960 1.00 Pg
PRN  50.260 1.00 Sg
# 2011 01 16 21 49 39.500000 35.145 50.135  17.6  2.6 0.0 0.0 0.0        62
DMV  27.420 1.00 Pg
FIR  36.300 1.00 Pn
LAS  37.550 1.00 Pn
PIR  40.770 1.00 Pn
QAM  26.390 0.00 Pg
RAZ   5.610 1.00 Pg
ZEF  45.570 1.00 Pn
RAZ  11.800 1.00 Sg
KLH  35.210 1.00 Pn
DMV  50.580 1.00 Sg
# 2011 01 17 17 59 27.400000 35.576 50.147  21.2  1.7 0.0 0.0 0.0        63
IL5   9.910 1.00 Pg
IL5  16.930 1.00 Sg
MHD   8.590 1.00 Pg
RAZ   5.740 1.00 Pg
RAZ  10.100 1.00 Sg
MHD  15.050 1.00 Sg
# 2011 01 17 18 29 43.900000 35.514 51.880  13.9  1.7 0.0 0.0 0.0        64
DMV   3.820 1.00 Pg
FIR  14.330 1.00 Pg
FIR  23.910 1.00 Sg
MHD  18.720 1.00 Pg
IL5  35.590 1.00 Sg
DMV   6.980 1.00 Sg
# 2011 01 17 19 44 56.800000 35.089 53.457   6.1  2.1 0.0 0.0 0.0        65
DMV  23.040 1.00 Pg
FIR  13.670 1.00 Pg
GLO  26.250 1.00 Pg
LAS   9.080 1.00 Pg
DMV  39.680 1.00 Sg
PRN  27.010 1.00 Pg
# 2011 01 19 13 45 32.800000 35.543 51.567  14.7  1.1 0.0 0.0 0.0        66
AFJ   7.250 1.00 Pg
DMV   7.760 1.00 Pg
FIR  18.280 1.00 Pg
DMV  13.780 1.00 Sg
AFJ  12.270 1.00 Sg
# 2011 01 19 14 06 30.900000 35.595 51.659  12.0  1.5 0.0 0.0 0.0        67
AFJ   5.290 1.00 Pg
DMV   5.840 1.00 Pg
FIR  16.680 1.00 Pg
RAZ  25.900 1.00 Pg
AFJ  10.110 1.00 Sg
ANJ  33.570 0.00 Pn
RAZ  45.840 1.00 Sg
DMV  11.620 1.00 Sg
# 2011 01 19 14 33 46.600000 35.574 51.579  21.4  1.4 0.0 0.0 0.0        68
DMV   7.820 1.00 Pg
FIR  18.670 1.00 Pg
AFJ   6.700 1.00 Pg
AFJ  12.360 1.00 Sg
DMV  14.100 1.00 Sg
FIR  31.230 1.00 Sg
# 2011 01 20 09 52 09.400000 36.023 50.567   5.0  1.5 0.0 0.0 0.0        69
AFJ  16.340 1.00 Pg
FIR  32.320 1.00 Pn
GZV   7.760 1.00 Pg
IL5  14.480 1.00 Pg
MHD   6.310 1.00 Pg
RAZ  14.830 1.00 Pg
AFJ  29.980 1.00 Sg
GZV  14.900 1.00 Sg
# 2011 01 20 11 07 04.800000 35.632 51.783  12.0  1.7 0.0 0.0 0.0        70
AFJ   5.170 1.00 Pg
DMV   4.770 1.00 Pg
FIR  15.070 1.00 Pg
IL5  20.000 1.00 Pg
RAZ  28.110 1.00 Pg
# 2011 01 20 23 36 44.300000 36.201 53.758  28.8  1.7 0.0 0.0 0.0        71
ALA  14.570 0.50 Pg
DMV  28.300 1.00 Pg
FIR  18.480 1.00 Pg
GLO   7.810 1.00 Pg
PRN  21.760 1.00 Pg
LAS  20.960 0.50 Pg
PRN  37.680 1.00 Sg
ALA  26.050 1.00 Sg
FIR  33.260 1.00 Sg
# 2011 01 21 07 48 18.900000 37.118 53.251  30.9  2.3 0.0 0.0 0.0        72
ALA  20.410 1.00 Pg
GLO  14.880 1.00 Pg
PRN  21.200 1.00 Pg
GLO  25.780 1.00 Sg
# 2011 01 21 10 26 08.000000 35.968 53.257  35.4  1.8 0.0 0.0 0.0        73
ANJ  14.570 1.00 Pg
FIR  11.120 1.00 Pg
KIA   9.290 1.00 Pg
ALA  15.760 1.00 Sg
GLO  14.280 1.00 Pg
ALA   9.520 1.00 Pg
# 2011 01 21 10 54 15.500000 34.439 52.330  16.4  2.6 0.0 0.0 0.0        74
AFJ  26.450 1.00 Pg
ANJ  28.810 1.00 Pg
ZEF  26.940 1.00 Pg
RAZ  38.240 0.50 Pn
PIR  37.690 0.00 Pn
LAS  19.600 1.00 Pg
KLH  22.640 1.00 Pg
IL5  28.920 1.00 Pg
GAR  36.750 0.00 Pn
FIR  22.270 1.00 Pg
DMV  20.830 1.00 Pg
QAM  32.190 1.00 Sg
QAM  18.970 1.00 Pg
FIR  39.750 1.00 Sg
LAS  33.680 1.00 Sg
KLH  40.420 1.00 Sg
ZEF  47.960 1.00 Sg
AFJ  47.530 1.00 Sg
IL5  50.660 1.00 Sg
# 2011 01 23 10 43 45.700000 35.309 50.153   5.0  2.3 0.0 0.0 0.0        75
AFJ  24.760 1.00 Pg
ALA  38.800 1.00 Pn
DMV  27.910 1.00 Pg
FIR  36.880 1.00 Pn
IL5   6.360 1.00 Pg
MHD  10.090 1.00 Pg
RAZ   3.880 1.00 Pg
MHD  17.670 1.00 Sg
IL5  11.540 1.00 Sg
# 2011 01 23 20 38 39.000000 34.828 51.887   4.7  3.2 0.0 0.0 0.0        76
ALA  25.540 1.00 Pg
BAF  68.360 1.00 Pn
DMV  13.500 1.00 Pg
FIR  18.710 1.00 Pg
GAR  42.260 0.00 Pn
GLO  39.600 1.00 Pn
GZV  36.090 1.00 Pn
IL5  20.240 1.00 Pg
KLH  26.940 1.00 Pg
LAS  18.550 1.00 Pg
MHD  23.340 1.00 Pg
PIR  40.960 0.00 Pn
RAZ  29.940 1.00 Pg
ZEF  33.920 1.00 Pn
ALA  45.730 1.00 Sg
DMV  24.200 1.00 Sg
IL5  35.720 1.00 Sg
KLH  47.420 1.00 Sg
LAS  32.590 0.00 Sg
MHD  41.680 1.00 Sg
RAZ  52.690 1.00 Sg
PRN  25.900 1.00 Pg
NASN 37.490 1.00 Pn
TABS 68.510 1.00 Pn
KHMZ 33.750 1.00 Pn
CHTH 21.960 0.00 Pg
ASAO 28.110 1.00 Pg
GHVR 12.420 1.00 Pg
DAMV 14.900 1.00 Pg
# 2011 01 24 00 47 08.000000 35.918 53.033  32.1  1.6 0.0 0.0 0.0        77
LAS  11.190 1.00 Pg
FIR   8.570 1.00 Pg
ALA   7.190 1.00 Pg
ALA  12.430 1.00 Sg
# 2011 01 24 00 55 37.700000 35.924 53.215  10.0  1.6 0.0 0.0 0.0        78
ALA   6.900 1.00 Pg
DMV  18.740 1.00 Pg
FIR   8.450 1.00 Pg
GLO  13.880 1.00 Pg
LAS  10.780 1.00 Pg
LAS  18.380 1.00 Sg
# 2011 01 24 09 44 06.800000 35.326 50.197   7.0  2.4 0.0 0.0 0.0        79
RAZ   4.220 1.00 Pg
MHD  10.070 1.00 Pg
IL5   6.500 1.00 Pg
FIR  37.140 0.50 Pn
# 2011 01 24 11 41 40.300000 35.286 50.146  15.5  2.1 0.0 0.0 0.0        80
IL5   7.050 1.00 Pg
RAZ   4.890 1.00 Pg
MHD  10.860 1.00 Pg
RAZ   8.290 1.00 Sg
IL5  12.350 1.00 Sg
# 2011 01 24 22 02 49.800000 35.961 53.272  18.0  1.5 0.0 0.0 0.0        81
ALA   7.430 1.00 Pg
DMV  19.880 1.00 Pg
FIR   9.700 1.00 Pg
GLO  12.660 1.00 Pg
LAS  12.490 1.00 Pg
ALA  13.890 1.00 Sg
FIR  17.230 1.00 Sg
GLO  22.880 1.00 Sg
LAS  20.330 1.00 Sg
# 2011 01 25 11 54 13.400000 35.392 52.821  19.4  1.3 0.0 0.0 0.0        82
FIR   5.830 1.00 Pg
DMV  12.590 1.00 Pg
LAS   4.100 1.00 Pg
DMV  21.810 1.00 Sg
# 2011 01 25 15 09 06.700000 35.621 51.969  16.2  2.2 0.0 0.0 0.0        83
DMV   3.120 1.00 Pg
FIR  12.000 1.00 Pg
MHD  19.370 1.00 Pg
IL5  21.920 1.00 Pg
DMV   5.840 1.00 Sg
# 2011 01 25 16 26 15.300000 36.140 53.269  17.3  1.6 0.0 0.0 0.0        84
FIR  11.960 1.00 Pg
DMV  21.200 1.00 Pg
LAS  15.140 1.00 Pg
ANJ  15.380 1.00 Pg
ALA   6.810 1.00 Pg
GLO  11.170 1.00 Pg
PRN  13.990 1.00 Pg
ALA  13.330 1.00 Sg
# 2011 01 27 03 59 15.600000 36.614 49.714   5.0  2.9 0.0 0.0 0.0        85
BST  39.980 0.50 Pn
DMV  37.120 1.00 Pn
FIR  45.650 0.00 Pn
HRS  44.470 1.00 Pn
IL5  27.230 0.50 Pg
KLH  59.980 0.00 Pn
MHD  21.210 1.00 Pg
RAZ  21.200 1.00 Pg
SHB  64.700 0.00 Pn
RAZ  38.160 1.00 Sg
HAGD 33.140 1.00 Pn
MHD  37.790 1.00 Sg
IL5  48.650 1.00 Sg
# 2011 01 27 14 48 12.700000 35.839 52.987  17.0  1.9 0.0 0.0 0.0        86
ANJ  15.400 1.00 Pg
DMV  15.560 1.00 Pg
FIR   5.360 1.00 Pg
LAS   9.260 1.00 Pg
AFJ  18.890 1.00 Pg
FIR  10.060 1.00 Sg
# 2011 01 27 16 25 36.200000 36.973 49.008   3.4  2.3 0.0 0.0 0.0        87
BST  32.760 1.00 Pn
MHD  32.820 1.00 Pn
RAZ  30.700 1.00 Pg
SRB  25.640 1.00 Pg
RAZ  54.020 1.00 Sg
# 2011 01 28 04 53 07.600000 35.807 53.238   5.0  3.3 0.0 0.0 0.0        88
ANJ  11.460 1.00 Pg
DMV  17.200 1.00 Pg
FIR   7.000 1.00 Pg
FIR  13.940 1.00 Sg
IL5  37.500 1.00 Pn
LAS   9.100 1.00 Pg
MHD  36.270 1.00 Pn
PAY  72.780 0.00 Pn
PIR  59.630 0.00 Pn
QAM  41.520 1.00 Pn
RAZ  44.640 1.00 Pn
AKL  69.390 1.00 Pn
DMV  32.060 1.00 Sg
