# 2006 08 19 08 48 34.200000 35.557 53.266  15.5  1.7 0.0 0.0 0.0       537
ANJ  10.420 1.00 Pg
DMV  18.170 1.00 Pg
DMV  31.830 1.00 Sg
FIR   7.430 1.00 Pg
FIR  14.020 1.00 Sg
LAS   5.270 1.00 Pg
LAS  10.590 1.00 Sg
SHM   4.810 1.00 Pg
SHM   9.570 1.00 Sg
VRN  25.140 1.00 Pg
# 2006 08 19 11 56 00.100000 35.870 53.518   9.3  2.9 0.0 0.0 0.0       538
AFJ  26.250 1.00 Pg
ANJ   9.570 1.00 Pg
ANJ  16.310 1.00 Sg
DMV  22.440 1.00 Pg
DMV  38.710 1.00 Sg
FIR  11.970 1.00 Pg
FIR  20.690 1.00 Sg
GLO  12.240 1.00 Pg
GLO  25.240 1.00 Sg
KIA   6.570 1.00 Pg
KIA  11.990 1.00 Sg
KLH  52.730 0.00 Pn
LAS  12.190 1.00 Pg
LAS  20.970 1.00 Sg
MHD  40.670 0.00 Pn
PRN  18.370 0.00 Pg
PRN  34.290 1.00 Sg
RAZ  56.810 0.00 Pn
SFB  31.720 1.00 Pn
SHM   3.590 1.00 Pg
SHM   7.270 1.00 Sg
VRN  30.140 1.00 Pg
ZEF  54.620 0.00 Pn
# 2006 08 19 11 58 32.800000 35.879 53.523   1.2  2.2 0.0 0.0 0.0       539
SHM   3.620 1.00 Pg
SFB  32.600 1.00 Pn
LAS  12.180 1.00 Pg
KIA   6.450 1.00 Pg
DMV  22.650 1.00 Pg
ANJ   9.500 1.00 Pg
SHM   6.460 1.00 Sg
FIR  20.970 1.00 Sg
ANJ  16.240 1.00 Sg
KIA  10.990 1.00 Sg
# 2006 08 19 13 58 24.800000 35.894 53.547   2.0  2.2 0.0 0.0 0.0       540
SHM   3.980 1.00 Pg
LAS  12.670 1.00 Pg
FIR  12.570 1.00 Pg
DMV  22.880 1.00 Pg
SHM   7.100 1.00 Sg
LAS  21.850 1.00 Sg
FIR  21.610 1.00 Sg
# 2006 08 19 14 00 21.800000 35.699 53.725  16.6  2.5 0.0 0.0 0.0       541
ANJ   5.770 1.00 Pg
ANJ  10.030 1.00 Sg
DMV  24.780 1.00 Pg
FIR  14.230 1.00 Pg
FIR  25.330 1.00 Sg
GLO  14.660 1.00 Pg
GLO  25.880 1.00 Sg
KIA   8.340 0.00 Pg
KIA  16.460 1.00 Sg
LAS  12.800 1.00 Pg
LAS  22.520 1.00 Sg
PRN  23.200 0.00 Pg
PRN  41.600 1.00 Sg
SFB  32.240 0.00 Pn
SHM   5.920 0.00 Pg
SHM  12.420 1.00 Sg
VRN  31.630 0.00 Pg
# 2006 08 19 17 01 13.900000 35.338 52.920   0.9  1.8 0.0 0.0 0.0       542
VRN  18.450 1.00 Pg
SHM  10.130 1.00 Pg
SFB  20.470 1.00 Pg
LAS   1.050 1.00 Pg
FIR   6.070 1.00 Pg
DMV  13.780 1.00 Pg
VRN  32.370 1.00 Sg
SHM  17.390 1.00 Sg
SFB  35.290 1.00 Sg
# 2006 08 20 02 19 48.100000 35.803 53.426   7.6  2.6 0.0 0.0 0.0       543
AFJ  25.390 1.00 Pg
AFJ  44.650 1.00 Sg
ANJ   9.460 1.00 Pg
ANJ  16.220 1.00 Sg
DMV  21.110 1.00 Pg
DMV  36.230 1.00 Sg
FIR  10.230 1.00 Pg
FIR  18.120 1.00 Sg
GZV  48.450 0.00 Pn
KIA   8.480 1.00 Pg
KIA  14.560 1.00 Sg
LAS  10.480 1.00 Pg
LAS  18.000 1.00 Sg
PRN  17.940 0.00 Pg
PRN  32.820 1.00 Sg
RAZ  59.670 0.00 Pn
SFB  30.940 1.00 Pg
SHM   2.090 1.00 Pg
SHM   4.210 1.00 Sg
VRN  28.720 1.00 Pg
# 2006 08 20 06 01 32.200000 36.539 49.986   2.9  2.6 0.0 0.0 0.0       544
AFJ  27.430 1.00 Pg
DMV  33.470 1.00 Pn
FIR  40.080 0.00 Pn
GZV   2.830 0.00 Pg
GZV   7.610 1.00 Sg
MHD  16.930 1.00 Pg
MHD  32.330 1.00 Sg
PRN  32.390 1.00 Pn
SHM  46.840 0.00 Pn
VRN  36.780 1.00 Pn
# 2006 08 20 06 51 52.000000 36.664 50.779  17.2  2.5 0.0 0.0 0.0       545
VRN  33.940 0.00 Pn
RAZ  25.070 1.00 Pg
PRN  22.570 1.00 Pg
MHD  17.790 1.00 Pg
GZV  10.150 1.00 Pg
GLO  39.500 1.00 Pn
FIR  33.250 0.00 Pn
DMV  26.150 1.00 Pg
AFJ  19.660 1.00 Pg
PRN  39.750 1.00 Sg
MHD  31.250 1.00 Sg
# 2006 08 20 07 30 25.500000 35.617 49.676  10.0  3.0 0.0 0.0 0.0       546
AFJ  29.230 1.00 Pg
DMV  33.140 1.00 Pn
FIR  42.040 1.00 Pn
GZV  15.820 1.00 Pg
GZV  27.880 1.00 Sg
MHD  13.760 1.00 Pg
MHD  25.360 1.00 Sg
RAZ   5.270 1.00 Pg
RAZ   9.130 1.00 Sg
SFB  39.930 1.00 Pn
SHM  49.190 0.00 Pn
VRN  31.080 1.00 Pg
# 2006 08 20 08 00 04.700000 35.876 53.507   7.9  2.3 0.0 0.0 0.0       547
ANJ   9.410 1.00 Pg
ANJ  16.730 1.00 Sg
DMV  22.750 1.00 Pg
DMV  39.670 1.00 Sg
FIR  11.670 1.00 Pg
FIR  20.090 1.00 Sg
GLO  12.500 1.00 Pg
GLO  21.440 1.00 Sg
KIA   6.270 0.00 Pg
LAS  11.810 1.00 Pg
LAS  21.510 1.00 Sg
PRN  18.180 0.00 Pg
PRN  33.900 1.00 Sg
SHM   3.390 1.00 Pg
SHM   6.790 1.00 Sg
VRN  30.190 1.00 Pg
# 2006 08 20 19 15 35.700000 36.016 52.165   4.3  1.5 0.0 0.0 0.0       548
AFJ   6.590 1.00 Pg
AFJ  12.210 1.00 Sg
DMV   7.930 1.00 Pg
DMV  14.730 1.00 Sg
FIR  10.760 1.00 Pg
FIR  18.840 1.00 Sg
GLO  26.260 1.00 Pg
KIA  19.210 0.00 Pg
LAS  17.060 1.00 Pg
LAS  28.160 1.00 Sg
PRN   4.150 1.00 Pg
PRN   8.030 1.00 Sg
RAZ  35.550 0.00 Pn
SFB  30.240 1.00 Pg
SHM  17.070 1.00 Pg
SHM  28.840 1.00 Sg
VRN  19.560 1.00 Pg
VRN  34.080 1.00 Sg
# 2006 08 20 19 16 07.600000 36.035 52.159  21.8  1.3 0.0 0.0 0.0       549
AFJ   7.990 1.00 Pg
AFJ  14.010 1.00 Sg
DMV   9.230 1.00 Pg
DMV  16.150 1.00 Sg
FIR  12.080 1.00 Pg
FIR  19.980 1.00 Sg
PRN   5.230 1.00 Pg
PRN   9.330 1.00 Sg
SHM  30.350 1.00 Sg
# 2006 08 20 19 22 20.900000 36.011 52.162   2.0  2.1 0.0 0.0 0.0       550
AFJ   6.350 1.00 Pg
AFJ  12.550 1.00 Sg
DMV   7.810 1.00 Pg
DMV  14.510 1.00 Sg
FIR  10.200 1.00 Pg
FIR  18.440 1.00 Sg
GLO  26.520 1.00 Pg
GZV  28.880 1.00 Pg
KIA  22.500 1.00 Pg
KIA  39.260 1.00 Sg
LAS  16.020 1.00 Pg
LAS  28.820 1.00 Sg
PRN   3.750 1.00 Pg
PRN   8.090 1.00 Sg
RAZ  35.050 0.00 Pn
SFB  29.760 1.00 Pg
SHM  16.450 1.00 Pg
SHM  29.210 1.00 Sg
VRN  19.690 1.00 Pg
# 2006 08 21 07 23 09.500000 35.475 53.018  25.0  1.1 0.0 0.0 0.0       551
ANJ  13.890 1.00 Pg
ANJ  23.810 1.00 Sg
LAS   4.420 1.00 Pg
LAS   7.820 1.00 Sg
SHM   8.190 1.00 Pg
SHM  14.330 1.00 Sg
# 2006 08 21 09 43 12.900000 35.715 51.356  28.0  1.8 0.0 0.0 0.0       552
AFJ   7.280 1.00 Pg
VRN  14.980 1.00 Pg
VRN  25.440 1.00 Sg
TEH   4.580 1.00 Pg
FIR  20.910 1.00 Pg
FIR  36.430 1.00 Sg
DMV  10.110 0.00 Pg
AFJ  12.900 1.00 Sg
# 2006 08 21 23 56 13.700000 36.813 50.053  31.9  2.6 0.0 0.0 0.0       553
AFJ  27.300 0.00 Pg
DMV  31.670 1.00 Pn
FIR  38.100 1.00 Pn
GZV   3.780 0.00 Pg
GZV  16.580 1.00 Sg
MHD  16.140 0.00 Pg
RAZ  23.430 1.00 Pg
SFB  45.290 1.00 Pn
# 2006 08 22 18 57 25.700000 36.191 52.778   8.8  2.3 0.0 0.0 0.0       554
AFJ  16.550 1.00 Pg
AFJ  28.690 1.00 Sg
ANJ  20.950 1.00 Pg
ANJ  36.010 1.00 Sg
DMV  15.630 1.00 Pg
DMV  27.290 1.00 Sg
FIR  10.110 1.00 Pg
FIR  17.050 1.00 Sg
GZV  34.970 1.00 Pn
LAS  14.930 1.00 Pg
LAS  25.750 1.00 Sg
SFB  32.270 1.00 Pn
SHM  10.380 1.00 Pg
SHM  18.420 1.00 Sg
VRN  26.580 1.00 Pg
# 2006 08 23 08 42 04.000000 36.411 52.438  21.0  1.8 0.0 0.0 0.0       555
DMV  16.490 1.00 Pg
DMV  28.850 1.00 Sg
FIR  14.950 1.00 Pg
FIR  25.910 1.00 Sg
GLO  20.500 1.00 Pg
KIA  18.400 1.00 Pg
KIA  32.740 1.00 Sg
PRN   4.490 1.00 Pg
PRN   9.250 1.00 Sg
VRN  27.180 1.00 Pg
# 2006 08 23 10 27 35.200000 35.668 51.506  18.0  1.5 0.0 0.0 0.0       556
AFJ   5.490 0.00 Pg
AFJ   9.470 0.00 Sg
DMV   7.920 1.00 Pg
DMV  14.180 1.00 Sg
SHM  26.760 1.00 Pg
SHM  46.300 1.00 Sg
VRN  12.790 1.00 Pg
VRN  22.550 1.00 Sg
# 2006 08 23 11 51 33.900000 35.813 53.046  26.8  1.6 0.0 0.0 0.0       557
SHM   5.630 1.00 Pg
LAS   9.130 1.00 Pg
ANJ  15.600 1.00 Pg
FIR   5.130 1.00 Pg
FIR  12.910 1.00 Sg
SHM  10.250 1.00 Sg
VRN  24.390 1.00 Pg
LAS  14.370 1.00 Sg
ANJ  25.200 1.00 Sg
# 2006 08 23 15 36 10.700000 35.743 53.719   8.3  1.3 0.0 0.0 0.0       558
VRN  31.600 1.00 Pg
SHM   5.850 1.00 Pg
LAS  13.000 1.00 Pg
KIA   8.010 1.00 Pg
ANJ   5.740 1.00 Pg
ANJ  10.280 1.00 Sg
SHM  11.190 1.00 Sg
LAS  21.780 1.00 Sg
KIA  15.290 1.00 Sg
FIR  13.960 1.00 Pg
DMV  25.270 1.00 Pg
FIR  25.620 1.00 Sg
SFB  31.990 1.00 Pn
# 2006 08 23 18 25 28.000000 36.520 50.984   0.9  3.7 0.0 0.0 0.0       559
AFJ  15.910 1.00 Pg
DMV  23.060 1.00 Pg
FIR  30.430 1.00 Pg
GZV  11.740 1.00 Pg
MHD  16.100 1.00 Pg
RAZ  30.460 0.00 Pg
SFB  39.020 1.00 Pn
TEH  14.290 1.00 Pg
VRN  29.290 1.00 Pg
ANJ  42.590 1.00 Pn
AZR  73.270 0.00 Pn
BST  54.710 1.00 Pn
GAR  66.380 0.00 Pn
GLO  38.060 1.00 Pn
HSH  49.370 1.00 Pn
KIA  36.910 1.00 Pn
KLH  51.590 1.00 Pn
LAS  33.890 1.00 Pn
MRD  73.720 0.00 Pn
PIR  61.090 0.00 Pn
PRN  19.670 1.00 Pg
SHB  81.760 0.00 Pn
SHM  34.310 1.00 Pn
ZEF  59.600 1.00 Pn
KRD  101.020 1.00 Pn
SFR  84.320 1.00 Pn
GZV  20.380 1.00 Sg
DMV  40.000 1.00 Sg
AFJ  27.170 1.00 Sg
MHD  28.160 1.00 Sg
PRN  32.830 1.00 Sg
TEH  25.750 1.00 Sg
# 2006 08 24 06 54 40.300000 35.545 53.197  10.0  1.0 0.0 0.0 0.0       560
ANJ  11.610 1.00 Pg
LAS   5.540 1.00 Pg
SHM   5.870 1.00 Pg
SHM  10.690 1.00 Sg
# 2006 08 24 07 08 09.000000 35.554 53.209  22.2  1.1 0.0 0.0 0.0       561
ANJ  11.070 1.00 Pg
LAS   6.220 1.00 Pg
LAS  10.260 1.00 Sg
SHM   5.690 1.00 Pg
SHM  10.390 1.00 Sg
# 2006 08 24 07 09 15.700000 35.602 53.200  32.2  0.5 0.0 0.0 0.0       562
ANJ  11.930 1.00 Pg
LAS   7.520 1.00 Pg
LAS  12.820 1.00 Sg
SHM   6.410 1.00 Pg
SHM  11.350 1.00 Sg
# 2006 08 24 07 48 40.800000 35.584 53.184  19.7  0.6 0.0 0.0 0.0       563
ANJ  11.370 1.00 Pg
LAS   5.770 1.00 Pg
LAS  10.230 1.00 Sg
SHM   5.470 1.00 Pg
SHM   9.230 1.00 Sg
# 2006 08 24 08 20 45.300000 35.483 53.009  29.2  1.5 0.0 0.0 0.0       564
ANJ  14.110 1.00 Pg
LAS   5.240 1.00 Pg
LAS   8.860 1.00 Sg
SHM   8.490 1.00 Pg
SHM  14.910 1.00 Sg
# 2006 08 25 01 48 35.900000 35.789 49.011  13.8  2.8 0.0 0.0 0.0       565
AFJ  36.140 1.00 Pn
DMV  39.330 1.00 Pn
FIR  50.330 0.00 Pn
GHG  43.820 0.00 Pn
GZV  20.400 1.00 Pg
GZV  36.220 1.00 Sg
KLH  55.220 0.00 Pn
KOM  33.470 0.00 Pn
LIN  31.680 1.00 Pn
PIR  59.980 0.00 Pn
PRN  48.620 0.00 Pn
RAZ  14.310 0.00 Pg
RAZ  26.580 1.00 Sg
VIS  35.930 1.00 Pn
# 2006 08 25 11 25 25.700000 37.645 49.112  19.9  2.8 0.0 0.0 0.0       566
AZR  39.440 1.00 Pn
BST  28.940 1.00 Pg
HSH  24.630 0.00 Pg
SHB  43.810 1.00 Pn
MHD  37.180 1.00 Pn
MRD  44.560 1.00 Pn
VRN  51.550 1.00 Pn
SFB  71.270 0.00 Pn
# 2006 08 25 11 41 41.900000 37.629 49.088  26.4  3.0 0.0 0.0 0.0       567
AZR  33.400 0.00 Pn
BST  28.210 1.00 Pg
SHB  47.710 0.00 Pn
TBZ  37.840 1.00 Pn
VRN  59.590 0.00 Pn
MRD  43.770 1.00 Pn
MHD  36.540 1.00 Pn
HSH  23.610 0.00 Pg
GZV  23.600 0.00 Pg
DMV  52.560 0.00 Pn
SFB  69.970 0.00 Pn
# 2006 08 25 15 16 40.500000 37.664 49.049  14.6  3.0 0.0 0.0 0.0       568
BST  29.360 1.00 Pg
HSH  25.170 0.00 Pg
MRD  46.770 0.00 Pn
SHB  43.160 1.00 Pn
TBZ  39.190 0.00 Pn
GZV  25.290 0.00 Pg
RAZ  40.180 0.00 Pn
AZR  39.110 1.00 Pn
VRN  52.660 1.00 Pn
SHM  58.760 1.00 Pn
PRN  44.640 0.00 Pn
MHD  38.340 1.00 Pn
KIA  60.370 1.00 Pn
DMV  49.130 1.00 Pn
AFJ  43.990 1.00 Pn
# 2006 08 25 15 47 22.700000 35.947 49.124   6.0  2.1 0.0 0.0 0.0       569
AFJ  35.710 1.00 Pn
AZR  65.830 0.00 Pn
DMV  39.620 1.00 Pn
FIR  47.400 1.00 Pn
GZV  17.800 1.00 Pg
GZV  30.580 1.00 Sg
RAZ  17.080 0.00 Pg
RAZ  26.350 1.00 Sg
SFB  50.190 0.00 Pn
VRN  38.530 1.00 Pn
# 2006 08 26 07 12 08.300000 35.631 53.066  28.0  1.1 0.0 0.0 0.0       570
SHM   6.300 1.00 Pg
SHM  11.250 1.00 Sg
LAS   6.670 1.00 Pg
LAS  11.310 1.00 Sg
ANJ  13.600 1.00 Pg
ANJ  23.500 1.00 Sg
# 2006 08 26 08 22 08.500000 35.626 53.268  19.7  1.1 0.0 0.0 0.0       571
ANJ  10.440 1.00 Pg
LAS   7.020 1.00 Pg
LAS  12.340 1.00 Sg
SHM   4.700 1.00 Pg
SHM   7.920 1.00 Sg
# 2006 08 26 09 07 10.400000 35.595 53.152  30.4  1.5 0.0 0.0 0.0       572
ANJ  12.250 1.00 Pg
ANJ  21.750 1.00 Sg
LAS   7.030 1.00 Pg
LAS  11.870 1.00 Sg
SHM   6.750 1.00 Pg
SHM  11.370 1.00 Sg
# 2006 08 26 12 26 20.700000 35.730 53.696   7.7  2.4 0.0 0.0 0.0       573
ANJ   5.760 1.00 Pg
ANJ  10.400 1.00 Sg
DMV  24.870 1.00 Pg
FIR  13.960 1.00 Pg
FIR  23.700 1.00 Sg
GLO  13.990 1.00 Pg
KIA   7.890 1.00 Pg
KIA  15.370 1.00 Sg
LAS  12.720 1.00 Pg
LAS  22.140 1.00 Sg
SFB  31.740 1.00 Pn
SHM   5.670 1.00 Pg
SHM  11.530 1.00 Sg
VRN  31.610 1.00 Pg
# 2006 08 26 12 27 54.900000 36.224 52.773   0.4  2.0 0.0 0.0 0.0       574
DMV  15.830 1.00 Pg
DMV  27.990 1.00 Sg
FIR  10.140 1.00 Pg
FIR  18.800 1.00 Sg
GLO  16.830 1.00 Pg
GZV  38.970 0.00 Pn
KIA  13.550 1.00 Pg
LAS  15.230 1.00 Pg
PRN   7.070 1.00 Pg
SFB  35.050 0.00 Pn
SHM  10.010 1.00 Pg
SHM  17.970 1.00 Sg
VRN  28.310 1.00 Pg
# 2006 08 26 12 54 49.000000 35.609 51.766   3.0  1.7 0.0 0.0 0.0       575
ANJ  31.600 1.00 Pg
DMV   3.160 1.00 Pg
DMV   7.160 1.00 Sg
FIR  14.190 1.00 Pg
FIR  25.350 1.00 Sg
MHD  15.700 1.00 Pg
RAZ  28.430 1.00 Pg
SFB  23.130 1.00 Pg
SFB  40.340 1.00 Sg
VRN  11.010 1.00 Pg
VRN  19.790 1.00 Sg
# 2006 08 26 17 41 34.900000 36.622 49.324  18.0  2.4 0.0 0.0 0.0       576
AFJ  32.310 0.00 Pn
DMV  38.080 1.00 Pn
FIR  46.750 1.00 Pn
KIA  53.830 1.00 Pn
MHD  21.520 0.00 Pg
PRN  37.730 1.00 Pn
RAZ  31.240 0.00 Pg
SFB  52.350 0.00 Pn
SHM  52.890 0.00 Pn
VRN  40.120 1.00 Pn
# 2006 08 26 20 52 39.600000 36.634 50.231  35.3  2.2 0.0 0.0 0.0       577
DMV  27.410 1.00 Pg
GZV  -3.370 0.00 Pg
MHD  10.580 0.00 Pg
PRN  26.860 1.00 Pg
RAZ  25.800 0.00 Pg
SFB  42.380 1.00 Pn
SHM  41.790 0.00 Pn
# 2006 08 27 06 23 28.900000 35.345 53.197   6.5  2.4 0.0 0.0 0.0       578
AFJ  23.830 1.00 Pg
AFJ  42.690 1.00 Sg
ANJ   8.760 0.00 Pg
ANJ  18.420 1.00 Sg
DMV  18.080 1.00 Pg
FIR   8.380 1.00 Pg
FIR  14.460 1.00 Sg
GLO  22.800 1.00 Pg
GLO  41.000 1.00 Sg
KIA  17.020 1.00 Pg
KIA  29.560 1.00 Sg
LAS   3.400 1.00 Pg
LAS   8.640 0.00 Sg
PRN  21.420 1.00 Pg
PRN  37.320 1.00 Sg
RAZ  57.480 0.00 Pn
SFB  22.800 1.00 Pg
SHM   7.490 1.00 Pg
SHM  14.710 1.00 Sg
VRN  22.300 1.00 Pg
# 2006 08 27 06 45 48.800000 35.341 53.246  28.9  1.2 0.0 0.0 0.0       579
ANJ  11.080 1.00 Pg
ANJ  19.280 1.00 Sg
LAS   6.220 1.00 Pg
LAS  11.080 1.00 Sg
SHM   9.740 1.00 Pg
SHM  16.540 1.00 Sg
# 2006 08 27 09 01 12.300000 35.595 53.201  32.3  1.0 0.0 0.0 0.0       580
ANJ  11.780 1.00 Pg
ANJ  20.740 1.00 Sg
LAS   7.370 1.00 Pg
LAS  12.830 1.00 Sg
SHM   6.750 1.00 Pg
SHM  11.350 1.00 Sg
# 2006 08 27 09 13 28.200000 35.640 53.277  30.1  1.2 0.0 0.0 0.0       581
ANJ  11.060 1.00 Pg
ANJ  19.000 1.00 Sg
LAS   8.140 1.00 Pg
LAS  14.200 1.00 Sg
SHM   5.660 1.00 Pg
SHM   9.940 1.00 Sg
# 2006 08 27 09 27 01.800000 35.626 53.299  28.2  0.7 0.0 0.0 0.0       582
ANJ  10.770 1.00 Pg
ANJ  18.170 1.00 Sg
LAS   8.050 1.00 Pg
LAS  14.050 1.00 Sg
SHM   5.530 1.00 Pg
SHM   9.860 1.00 Sg
# 2006 08 28 05 51 18.100000 36.982 49.707   8.8  3.3 0.0 0.0 0.0       583
AFJ  33.390 1.00 Pn
ANJ  61.450 0.00 Pn
AZR  48.130 1.00 Pn
BST  38.660 1.00 Pn
DMV  38.500 1.00 Pn
FIR  46.890 0.00 Pn
GLO  52.050 1.00 Pn
GZV  10.270 0.00 Pg
HSH  33.410 1.00 Pn
KLH  60.350 1.00 Pn
LAS  48.450 1.00 Pn
MHD  23.430 0.00 Pg
MRD  64.210 0.00 Pn
PRN  35.850 1.00 Pn
RAZ  37.340 0.00 Pg
SFB  51.730 1.00 Pn
SHB  60.940 0.00 Pn
SHM  49.450 1.00 Pn
TEH  28.050 0.00 Pn
VRN  42.130 1.00 Pn
# 2006 08 28 06 46 34.200000 35.338 53.296  10.0  3.7 0.0 0.0 0.0       584
AFJ  25.320 0.00 Pg
ZEF  42.470 0.00 Pn
VRN  23.510 1.00 Pg
SHM   8.690 1.00 Pg
SFB  23.270 1.00 Pg
RAZ  58.280 0.00 Pn
PRN  22.550 1.00 Pg
PIR  54.550 0.00 Pn
MHD  37.180 0.00 Pn
MEH  62.580 1.00 Pn
LAS   5.120 1.00 Pg
KLH  40.780 1.00 Pn
KIA  16.540 1.00 Pg
GAR  54.540 0.00 Pn
FIR   9.400 1.00 Pg
DMV  19.170 1.00 Pg
BAF  63.960 1.00 Pn
ANJ   8.470 1.00 Pg
TEH  32.650 0.00 Pg
GLO  23.330 1.00 Pg
LAS  10.710 1.00 Sg
# 2006 08 28 09 35 48.100000 35.728 51.365  32.7  1.9 0.0 0.0 0.0       585
VRN  14.830 1.00 Pg
SFB  28.060 1.00 Pg
RAZ  27.190 0.00 Pg
FIR  21.240 1.00 Pg
FIR  36.420 1.00 Sg
DMV  10.310 0.00 Pg
AFJ   7.920 1.00 Pg
AFJ  13.140 1.00 Sg
VRN  26.450 1.00 Sg
MHD  14.630 0.00 Pg
# 2006 08 28 10 22 45.800000 35.278 53.324  20.4  1.2 0.0 0.0 0.0       586
ANJ   9.880 1.00 Pg
ANJ  17.260 1.00 Sg
LAS   6.580 1.00 Pg
LAS  11.510 1.00 Sg
SHM  10.270 1.00 Pg
SHM  17.430 1.00 Sg
# 2006 08 28 17 31 42.500000 35.352 53.266  11.9  2.7 0.0 0.0 0.0       587
AFJ  24.660 1.00 Pg
AFJ  43.390 1.00 Sg
ANJ   9.600 1.00 Pg
ANJ  17.480 1.00 Sg
DMV  18.680 1.00 Pg
DMV  32.380 1.00 Sg
FIR   9.230 1.00 Pg
FIR  16.230 1.00 Sg
GLO  22.300 1.00 Pg
GLO  38.480 1.00 Sg
GZV  46.270 0.00 Pn
KIA  16.660 1.00 Pg
KIA  28.960 1.00 Sg
LAS   4.320 0.00 Pg
LAS   8.980 1.00 Sg
MHD  35.650 1.00 Pn
PRN  21.960 1.00 Pg
PRN  37.780 1.00 Sg
RAZ  56.900 0.00 Pn
SFB  23.610 1.00 Pg
SFB  40.990 1.00 Sg
SHM   8.350 1.00 Pg
SHM  14.790 1.00 Sg
VRN  23.340 1.00 Pg
VRN  40.780 1.00 Sg
# 2006 08 29 07 33 35.800000 35.591 53.210  28.1  0.8 0.0 0.0 0.0       588
ANJ  11.480 1.00 Pg
ANJ  19.880 0.00 Sg
LAS   6.920 1.00 Pg
LAS  12.040 1.00 Sg
SHM   6.090 1.00 Pg
SHM  10.550 1.00 Sg
# 2006 08 29 08 28 19.700000 35.756 51.718  10.7  1.7 0.0 0.0 0.0       589
AFJ  -3.490 0.00 Pg
DMV   5.800 1.00 Pg
VRN  13.700 1.00 Pg
FIR  15.170 1.00 Pg
DMV   9.700 1.00 Sg
VRN  24.780 1.00 Sg
FIR  28.070 1.00 Sg
AFJ   4.680 1.00 Sg
# 2006 08 29 08 47 31.500000 35.584 53.162  31.2  1.1 0.0 0.0 0.0       590
ANJ  12.090 1.00 Pg
ANJ  21.470 1.00 Sg
LAS   7.010 1.00 Pg
LAS  11.890 1.00 Sg
SHM   6.810 1.00 Pg
SHM  11.590 1.00 Sg
# 2006 08 29 12 16 04.100000 35.783 51.950   0.9  1.6 0.0 0.0 0.0       591
VRN  15.500 1.00 Pg
SFB  26.620 1.00 Pg
DMV   3.680 1.00 Pg
ANJ  30.050 1.00 Pg
DMV   6.940 1.00 Sg
VRN  26.600 1.00 Sg
# 2006 08 29 15 03 30.500000 35.661 53.166   1.8  1.2 0.0 0.0 0.0       592
ANJ  11.830 1.00 Pg
FIR   6.120 1.00 Pg
LAS   5.520 1.00 Pg
SFB  28.150 1.00 Pg
SHM   3.280 1.00 Pg
VRN  25.230 1.00 Pg
SHM   5.200 1.00 Sg
LAS   9.340 1.00 Sg
FIR  10.900 1.00 Sg
ANJ  20.430 1.00 Sg
# 2006 08 29 15 17 51.600000 35.653 53.170   3.3  1.3 0.0 0.0 0.0       593
SHM   3.090 1.00 Pg
LAS   5.790 1.00 Pg
ANJ  11.690 1.00 Pg
VRN  25.630 1.00 Pg
SFB  27.710 1.00 Pg
FIR   5.810 1.00 Pg
DMV  16.970 1.00 Pg
SHM   5.830 1.00 Sg
LAS   9.890 1.00 Sg
FIR  10.590 1.00 Sg
ANJ  19.810 1.00 Sg
DMV  29.250 1.00 Sg
# 2006 08 29 20 23 26.100000 35.888 49.107  18.0  2.2 0.0 0.0 0.0       594
AFJ  35.060 1.00 Pn
DMV  37.600 1.00 Pn
GZV  17.080 0.00 Pg
RAZ  13.040 0.00 Pg
# 2006 08 29 20 27 23.000000 35.946 49.034   2.3  3.0 0.0 0.0 0.0       595
AFJ  36.940 1.00 Pn
ANJ  68.410 0.00 Pn
DMV  40.070 1.00 Pn
FIR  48.100 1.00 Pn
GZV  19.110 0.00 Pg
LAS  51.480 1.00 Pn
MHD  23.640 1.00 Pg
RAZ  15.980 1.00 Pg
SFB  50.650 0.00 Pn
SHM  55.490 0.00 Pn
DHR  40.340 0.00 Pn
LIN  28.620 0.00 Pn
VIS  35.080 0.00 Pn
BST  40.020 1.00 Pn
GHG  42.790 1.00 Pn
HSH  34.610 1.00 Pn
KIA  59.530 0.00 Pn
KLH  53.500 1.00 Pn
KOM  32.300 0.00 Pn
MRD  60.600 0.00 Pn
PIR  53.780 0.00 Pn
PRN  44.380 0.00 Pn
SHB  55.960 1.00 Pn
ZEF  64.200 0.00 Pn
RAZ  28.800 1.00 Sg
MHD  41.860 1.00 Sg
# 2006 08 30 01 09 09.400000 35.115 51.404   5.5  2.4 0.0 0.0 0.0       596
AFJ  14.080 1.00 Pg
ANJ  34.880 1.00 Pn
DMV  12.280 1.00 Pg
FIR  21.240 1.00 Pg
GZV  28.840 1.00 Pg
KIA  37.260 1.00 Pn
LAS  23.050 1.00 Pg
MHD  14.960 1.00 Pg
PRN  24.060 1.00 Pg
RAZ  31.550 0.00 Pg
SFB  18.580 1.00 Pg
SHM  29.640 1.00 Pg
DMV  21.920 1.00 Sg
FIR  38.200 1.00 Sg
MHD  25.800 1.00 Sg
PRN  41.740 1.00 Sg
SFB  32.600 1.00 Sg
AFJ  24.700 1.00 Sg
LAS  39.910 1.00 Sg
# 2006 08 30 03 58 53.100000 36.408 51.937   2.0  3.5 0.0 0.0 0.0       597
AFJ  10.680 1.00 Pg
ANJ  32.470 1.00 Pn
VRN  26.260 1.00 Pg
TEH  13.940 1.00 Pg
SHM  21.590 1.00 Pg
SHB  76.180 0.00 Pn
SFB  36.310 1.00 Pn
RAZ  47.590 0.00 Pn
PRN   4.910 1.00 Pg
MRD  81.400 1.00 Pn
MHD  23.330 1.00 Pg
LAS  24.500 1.00 Pg
KIA  23.960 0.00 Pg
HSH  59.750 1.00 Pn
GZV  24.660 1.00 Pg
FIR  17.570 1.00 Pg
DMV  15.160 1.00 Pg
BST  64.950 1.00 Pn
AZR  74.310 1.00 Pn
DMV  24.800 1.00 Sg
FIR  32.090 1.00 Sg
GZV  42.900 1.00 Sg
LAS  40.280 1.00 Sg
PRN   9.710 1.00 Sg
SFR  74.390 1.00 Pn
SHM  39.850 1.00 Sg
TEH  24.900 1.00 Sg
EMG  81.340 1.00 Pn
CHK  69.920 1.00 Pn
# 2006 08 30 11 40 46.500000 35.648 51.527  14.9  1.6 0.0 0.0 0.0       598
AFJ   5.100 1.00 Pg
AFJ   9.260 1.00 Sg
DMV   7.810 1.00 Pg
DMV  13.770 1.00 Sg
GZV  -27.330 0.00 Pg
SFB  25.370 1.00 Pg
VRN  12.450 1.00 Pg
VRN  21.350 1.00 Sg
# 2006 08 30 11 50 25.500000 35.657 51.836  25.5  1.8 0.0 0.0 0.0       599
AFJ   6.010 1.00 Pg
AFJ   9.870 1.00 Sg
DMV   5.020 1.00 Pg
DMV   9.230 1.00 Sg
VRN  12.650 1.00 Pg
# 2006 08 30 20 24 42.600000 36.220 51.392   4.0  2.1 0.0 0.0 0.0       600
ANJ  38.920 0.00 Pn
DMV  13.820 0.00 Pg
DMV  25.770 1.00 Sg
FIR  22.020 1.00 Pg
FIR  38.950 1.00 Sg
GZV  16.950 1.00 Pg
GZV  31.710 1.00 Sg
KIA  32.270 1.00 Pn
LAS  28.150 1.00 Pg
MHD  14.580 1.00 Pg
MHD  26.380 1.00 Sg
PRN  12.090 1.00 Pg
PRN  23.970 1.00 Sg
SFB  34.590 1.00 Pn
SHM  28.790 1.00 Pg
SHM  50.790 1.00 Sg
# 2006 08 30 23 40 11.200000 36.308 49.830  10.0  3.3 0.0 0.0 0.0       601
AFJ  25.620 0.00 Pg
AFJ  48.300 1.00 Sg
BST  43.330 1.00 Pn
DMV  32.880 1.00 Pn
FIR  40.490 1.00 Pn
GZV   8.080 0.00 Pg
GZV  15.440 1.00 Sg
HSH  37.020 1.00 Pn
KOM  45.440 1.00 Pn
MHD  14.570 0.00 Pg
MHD  27.230 1.00 Sg
MRD  71.860 0.00 Pn
PRN  36.270 0.00 Pn
RAZ  19.490 0.00 Pg
RAZ  28.930 1.00 Sg
SFB  44.160 1.00 Pn
SRB  38.460 1.00 Pn
