# 2006 07 30 09 19 15.800000 35.566 53.243  32.3  1.2 0.0 0.0 0.0       464
SHM   6.960 1.00 Pg
LAS   7.440 1.00 Pg
SHM  11.840 1.00 Sg
LAS  13.040 1.00 Sg
ANJ  11.340 1.00 Pg
# 2006 07 30 09 23 15.100000 35.731 51.422  35.7  1.5 0.0 0.0 0.0       465
DMV  10.530 0.00 Pg
DMV  19.050 1.00 Sg
VRN  15.000 1.00 Pg
VRN  26.180 1.00 Sg
SFB  28.320 1.00 Pg
AFJ   7.410 1.00 Pg
AFJ  13.270 1.00 Sg
# 2006 07 30 10 31 15.800000 36.252 52.861   8.4  1.9 0.0 0.0 0.0       466
SHM  10.600 1.00 Pg
LAS  15.850 1.00 Pg
SHM  17.680 1.00 Sg
VRN  28.000 1.00 Pg
SFB  34.870 0.00 Pn
PRN   7.900 0.00 Pg
PRN  15.940 1.00 Sg
FIR  10.820 1.00 Pg
FIR  19.640 1.00 Sg
DMV  16.870 1.00 Pg
# 2006 07 31 07 23 04.600000 35.562 53.253  24.5  1.1 0.0 0.0 0.0       467
ANJ  10.670 1.00 Pg
LAS   6.790 1.00 Pg
LAS  12.010 1.00 Sg
SHM   5.980 1.00 Pg
SHM  10.400 1.00 Sg
# 2006 07 31 07 37 53.200000 35.418 53.120  23.6  0.7 0.0 0.0 0.0       468
SHM   8.300 1.00 Pg
SHM  14.520 1.00 Sg
LAS   4.580 1.00 Pg
FIR   7.810 1.00 Pg
FIR  13.390 1.00 Sg
# 2006 07 31 08 51 13.400000 35.630 53.681   8.6  2.6 0.0 0.0 0.0       469
ZEF  50.470 0.00 Pn
VRN  30.620 1.00 Pg
SHM   4.770 0.00 Pg
SHM  12.070 1.00 Sg
SFB  30.380 1.00 Pg
LAS  11.840 1.00 Pg
LAS  19.940 1.00 Sg
FIR  13.130 1.00 Pg
DMV  24.160 1.00 Pg
ANJ   4.850 1.00 Pg
# 2006 07 31 15 10 52.700000 35.392 52.958  10.3  1.7 0.0 0.0 0.0       470
AFJ  20.190 1.00 Pg
AFJ  35.310 1.00 Sg
DMV  14.080 1.00 Pg
DMV  26.800 1.00 Sg
FIR   5.290 1.00 Pg
FIR  11.110 0.00 Sg
GLO  26.490 0.00 Pg
GLO  44.130 0.00 Sg
LAS   0.870 1.00 Sg
SFB  21.460 1.00 Pg
SFB  38.200 1.00 Sg
SHM   9.220 1.00 Pg
SHM  17.500 1.00 Sg
VRN  19.130 1.00 Pg
VRN  34.630 1.00 Sg
# 2006 07 31 15 28 59.000000 35.564 51.616  11.9  1.8 0.0 0.0 0.0       471
AFJ   4.980 0.00 Pg
AFJ  10.480 1.00 Sg
DMV   6.200 1.00 Pg
DMV  12.340 1.00 Sg
FIR  16.960 1.00 Pg
FIR  31.080 1.00 Sg
RAZ  36.290 0.00 Pg
RAZ  54.770 1.00 Sg
SFB  23.630 1.00 Pg
SFB  40.350 1.00 Sg
VRN  10.580 1.00 Pg
VRN  21.240 1.00 Sg
# 2006 07 31 22 51 39.800000 35.733 49.977  17.9  2.1 0.0 0.0 0.0       472
AFJ  24.580 1.00 Pg
AFJ  45.250 1.00 Sg
DMV  28.900 1.00 Pg
DMV  52.640 1.00 Sg
FIR  38.940 0.00 Pn
GZV  12.540 1.00 Pg
GZV  24.140 1.00 Sg
RAZ   6.610 1.00 Pg
RAZ   9.610 1.00 Sg
# 2006 08 01 06 06 54.800000 35.605 53.204  28.2  0.8 0.0 0.0 0.0       473
ANJ  11.660 1.00 Pg
ANJ  22.560 1.00 Sg
LAS   7.260 1.00 Pg
LAS  12.170 1.00 Sg
SHM   5.840 1.00 Pg
SHM  10.490 1.00 Sg
# 2006 08 01 09 32 23.300000 36.523 51.837  10.0  2.0 0.0 0.0 0.0       474
AFJ  12.130 1.00 Pg
VRN  27.330 1.00 Pg
SHM  24.690 1.00 Pg
PRN   8.000 1.00 Pg
PRN  14.680 1.00 Sg
KIA  27.390 1.00 Pg
FIR  20.570 1.00 Pg
DMV  17.030 1.00 Pg
AFJ  21.570 1.00 Sg
FIR  35.090 1.00 Sg
GLO  27.210 0.00 Pg
# 2006 08 01 10 29 56.500000 35.325 52.938   5.6  1.4 0.0 0.0 0.0       475
ANJ  14.510 1.00 Pg
FIR   6.270 1.00 Pg
LAS   0.000 0.00 Pg
LAS   2.460 1.00 Sg
SHM  10.240 1.00 Pg
SHM  20.280 0.00 Sg
VRN  18.810 1.00 Pg
VRN  33.110 0.00 Sg
# 2006 08 01 11 24 16.600000 35.397 52.972   2.0  1.2 0.0 0.0 0.0       476
SHM   8.800 1.00 Pg
FIR   5.090 0.00 Pg
ANJ  13.850 1.00 Pg
LAS  -1.360 0.00 Pg
FIR   8.890 1.00 Sg
ANJ  23.870 1.00 Sg
VRN  34.310 1.00 Sg
SHM  15.680 1.00 Sg
LAS   0.140 1.00 Sg
VRN  18.790 0.00 Pg
DMV  24.740 1.00 Sg
# 2006 08 02 07 48 05.300000 35.477 53.311  20.8  1.2 0.0 0.0 0.0       477
ANJ  12.200 1.00 Pg
LAS   6.450 1.00 Pg
LAS  11.190 1.00 Sg
SHM   6.920 1.00 Pg
SHM  11.880 1.00 Sg
# 2006 08 02 09 37 27.200000 35.807 53.026  19.9  1.2 0.0 0.0 0.0       478
SHM   5.070 1.00 Pg
LAS   8.390 1.00 Pg
SHM   8.830 1.00 Sg
ANJ  14.760 1.00 Pg
ANJ  25.560 1.00 Sg
LAS  14.490 1.00 Sg
# 2006 08 02 10 09 45.800000 36.841 49.334  10.0  2.8 0.0 0.0 0.0       479
ANJ  66.790 0.00 Pn
BST  35.650 1.00 Pn
DMV  42.620 0.00 Pn
GZV  15.190 1.00 Pg
GZV  26.330 1.00 Sg
HSH  29.810 1.00 Pg
KIA  55.200 1.00 Pn
MHD  27.870 0.00 Pg
MRD  62.940 0.00 Pn
PRN  41.730 1.00 Pn
RAZ  33.770 0.00 Pg
SHB  57.670 0.00 Pn
SHM  56.630 0.00 Pn
SRB  29.070 1.00 Pg
VRN  44.460 1.00 Pn
# 2006 08 02 12 44 51.100000 35.727 53.113   2.0  1.0 0.0 0.0 0.0       480
ANJ  12.600 1.00 Pg
ANJ  22.440 1.00 Sg
DMV  17.070 1.00 Pg
DMV  28.130 1.00 Sg
FIR   5.190 1.00 Pg
FIR   9.230 1.00 Sg
LAS   6.280 1.00 Pg
LAS  11.260 1.00 Sg
SHM   2.750 1.00 Pg
SHM   6.410 1.00 Sg
# 2006 08 02 15 32 39.300000 35.581 53.293   5.0  0.6 0.0 0.0 0.0       481
ANJ   9.830 1.00 Pg
ANJ  15.610 1.00 Sg
FIR   7.610 1.00 Pg
FIR  13.250 1.00 Sg
LAS   5.350 1.00 Pg
LAS  11.090 1.00 Sg
SFB  27.330 1.00 Pg
SHM   4.110 1.00 Pg
SHM   8.150 1.00 Sg
# 2006 08 02 23 47 05.700000 36.348 51.236   2.3  1.8 0.0 0.0 0.0       482
AFJ  10.600 1.00 Pg
AFJ  19.960 1.00 Sg
DMV  18.700 1.00 Pg
DMV  31.020 1.00 Sg
FIR  26.260 1.00 Pg
GLO  35.710 1.00 Pn
GZV  14.850 1.00 Pg
GZV  25.570 1.00 Sg
KIA  34.060 1.00 Pn
RAZ  37.630 0.00 Pg
SHM  31.830 1.00 Pg
# 2006 08 03 12 41 37.600000 35.778 50.120  23.1  1.9 0.0 0.0 0.0       483
AFJ  24.050 1.00 Pg
AFJ  46.070 1.00 Sg
DMV  28.110 0.00 Pg
DMV  53.510 1.00 Sg
GZV  11.580 1.00 Pg
GZV  24.700 1.00 Sg
MHD   8.600 1.00 Pg
MHD  18.180 1.00 Sg
RAZ  11.160 0.00 Pg
RAZ  14.220 1.00 Sg
SFB  35.770 1.00 Pn
VRN  25.660 1.00 Pg
VRN  48.780 1.00 Sg
# 2006 08 04 11 06 38.000000 35.603 53.293  13.1  1.2 0.0 0.0 0.0       484
SHM   4.190 1.00 Pg
LAS   6.940 1.00 Pg
ANJ   9.510 1.00 Pg
SHM   7.430 1.00 Sg
LAS  11.420 1.00 Sg
ANJ  16.880 1.00 Sg
# 2006 08 04 11 17 08.300000 35.175 52.237  18.8  2.2 0.0 0.0 0.0       485
VRN   8.620 1.00 Pg
SFB  15.060 1.00 Pg
LAS  11.680 1.00 Pg
DMV   8.580 1.00 Pg
VRN  15.220 1.00 Sg
SFB  26.120 1.00 Sg
LAS  20.240 1.00 Sg
DMV  14.560 1.00 Sg
# 2006 08 04 13 19 19.300000 35.624 53.315  12.9  0.9 0.0 0.0 0.0       486
SHM   3.950 1.00 Pg
LAS   7.350 1.00 Pg
ANJ   9.520 1.00 Pg
SHM   6.930 1.00 Sg
LAS  12.290 1.00 Sg
# 2006 08 05 09 45 49.700000 35.605 53.215  28.4  0.9 0.0 0.0 0.0       487
ANJ  11.590 1.00 Pg
ANJ  19.890 1.00 Sg
LAS   7.320 1.00 Pg
LAS  12.280 1.00 Sg
SHM   5.670 1.00 Pg
SHM  10.490 1.00 Sg
# 2006 08 05 14 15 13.800000 35.762 53.069  14.8  1.1 0.0 0.0 0.0       488
ANJ  14.540 1.00 Pg
LAS   8.110 1.00 Pg
SHM   4.810 1.00 Pg
SHM   8.370 1.00 Sg
# 2006 08 05 15 32 52.600000 35.970 52.251   3.2  1.4 0.0 0.0 0.0       489
ANJ  27.350 1.00 Pg
DMV   8.780 1.00 Pg
FIR  10.410 1.00 Pg
KIA  23.000 1.00 Pg
PRN   5.570 1.00 Pg
SHM  17.270 1.00 Pg
PRN  10.650 1.00 Sg
DMV  15.520 1.00 Sg
# 2006 08 06 02 58 49.800000 36.803 51.951   2.0  2.1 0.0 0.0 0.0       490
AFJ  16.870 1.00 Pg
DMV  21.960 1.00 Pg
FIR  24.650 1.00 Pg
GLO  28.600 1.00 Pg
GZV  27.150 1.00 Pg
KIA  27.510 1.00 Pg
LAS  30.480 1.00 Pg
MHD  28.420 1.00 Pg
PRN  10.920 1.00 Pg
RAZ  42.080 0.00 Pn
SHM  26.320 1.00 Pg
PRN  20.100 1.00 Sg
DMV  38.340 1.00 Sg
AFJ  30.110 1.00 Sg
FIR  40.310 1.00 Sg
# 2006 08 06 03 23 09.600000 35.829 53.310  20.6  1.8 0.0 0.0 0.0       491
SHM   3.240 1.00 Pg
KIA   9.070 1.00 Pg
FIR   9.080 1.00 Pg
DMV  19.460 1.00 Pg
KIA  16.510 1.00 Sg
LAS  17.650 1.00 Sg
SHM   5.720 1.00 Sg
FIR  16.660 1.00 Sg
DMV  33.720 1.00 Sg
# 2006 08 06 06 54 50.400000 35.530 53.252  21.2  1.2 0.0 0.0 0.0       492
ANJ  10.370 1.00 Pg
LAS   6.260 1.00 Pg
LAS  10.540 1.00 Sg
SHM   5.950 1.00 Pg
SHM  10.610 1.00 Sg
# 2006 08 06 10 22 28.700000 35.629 53.280  29.4  0.8 0.0 0.0 0.0       493
ANJ  10.850 1.00 Pg
LAS   8.010 1.00 Pg
LAS  13.930 1.00 Sg
SHM   5.770 1.00 Pg
SHM   9.950 1.00 Sg
# 2006 08 06 11 21 09.100000 35.903 52.935   5.2  1.4 0.0 0.0 0.0       494
KIA  12.460 1.00 Pg
LAS   9.290 1.00 Pg
SHM   5.430 1.00 Pg
SHM   9.750 1.00 Sg
LAS  16.510 1.00 Sg
ANJ  16.380 1.00 Pg
# 2006 08 06 12 16 03.500000 35.953 53.064   2.0  1.5 0.0 0.0 0.0       495
ANJ  15.140 1.00 Pg
LAS  10.370 1.00 Pg
SHM   3.970 1.00 Pg
SHM   7.030 1.00 Sg
LAS  17.790 1.00 Sg
# 2006 08 07 07 49 10.100000 35.478 53.031  22.3  1.3 0.0 0.0 0.0       496
ANJ  13.540 1.00 Pg
ANJ  23.360 1.00 Sg
LAS   4.190 1.00 Pg
LAS   7.250 1.00 Sg
SHM   7.910 1.00 Pg
SHM  14.010 1.00 Sg
# 2006 08 07 10 44 27.100000 35.197 53.695   4.8  2.0 0.0 0.0 0.0       497
ANJ   5.880 1.00 Pg
ANJ  10.600 1.00 Sg
LAS  11.770 1.00 Pg
LAS  19.510 1.00 Sg
SHM  12.720 1.00 Pg
SHM  21.500 1.00 Sg
# 2006 08 07 14 24 31.200000 36.127 52.719  17.1  1.9 0.0 0.0 0.0       498
SHM  10.640 1.00 Pg
PRN   7.840 1.00 Pg
KIA  14.220 1.00 Pg
GLO  17.850 1.00 Pg
PRN  13.500 1.00 Sg
GLO  30.800 1.00 Sg
# 2006 08 08 21 17 55.100000 36.989 50.620   2.0  2.4 0.0 0.0 0.0       499
AFJ  26.040 1.00 Pg
DMV  32.970 1.00 Pn
FIR  37.190 0.00 Pn
GLO  42.850 1.00 Pn
GZV  12.330 1.00 Pg
GZV  19.990 1.00 Sg
KIA  43.390 1.00 Pn
MHD  23.600 1.00 Pg
MHD  40.500 1.00 Sg
PRN  27.040 1.00 Pg
RAZ  30.820 1.00 Pg
SHM  40.940 1.00 Pn
VRN  37.330 0.00 Pn
# 2006 08 09 09 41 05.400000 35.701 51.534   5.0  1.4 0.0 0.0 0.0       500
AFJ   3.890 1.00 Pg
DMV   7.430 1.00 Pg
MHD  12.860 1.00 Pg
VRN  12.580 0.50 Pg
VRN  22.500 1.00 Sg
DMV  13.630 1.00 Sg
# 2006 08 09 09 59 38.200000 36.077 53.975  10.0  1.9 0.0 0.0 0.0       501
VRN  34.930 1.00 Pn
SFB  36.920 1.00 Pn
LAS  21.020 1.00 Pg
FIR  20.100 1.00 Pg
DMV  29.280 1.00 Pg
ANJ  11.230 1.00 Pg
# 2006 08 11 16 44 37.000000 35.218 53.399  12.7  1.8 0.0 0.0 0.0       502
AFJ  27.490 1.00 Pg
ANJ   8.840 1.00 Pg
ANJ  15.780 1.00 Sg
DMV  21.710 1.00 Pg
DMV  36.610 1.00 Sg
FIR  12.260 1.00 Pg
FIR  20.860 1.00 Sg
LAS   7.140 1.00 Pg
LAS  13.160 1.00 Sg
SFB  23.400 1.00 Pg
SFB  40.220 1.00 Sg
VRN  24.420 1.00 Pg
# 2006 08 11 16 59 44.300000 35.251 53.384  12.6  1.8 0.0 0.0 0.0       503
AFJ  27.140 1.00 Pg
ANJ   8.980 1.00 Pg
ANJ  15.700 1.00 Sg
DMV  21.330 1.00 Pg
DMV  35.770 1.00 Sg
FIR  11.520 1.00 Pg
FIR  19.060 1.00 Sg
GLO  23.840 1.00 Pg
GLO  40.960 1.00 Sg
KIA  16.480 1.00 Pg
KIA  30.900 1.00 Sg
LAS   7.080 1.00 Pg
LAS  11.520 1.00 Sg
PRN  24.170 1.00 Pg
SFB  23.450 1.00 Pg
SFB  40.290 1.00 Sg
VRN  24.680 1.00 Pg
# 2006 08 11 18 15 01.800000 35.215 53.419  13.6  1.4 0.0 0.0 0.0       504
ANJ   9.080 1.00 Pg
ANJ  15.200 1.00 Sg
DMV  22.030 1.00 Pg
DMV  37.430 1.00 Sg
FIR  11.990 1.00 Pg
FIR  22.050 1.00 Sg
LAS   7.510 1.00 Pg
LAS  13.270 1.00 Sg
SFB  23.680 1.00 Pg
SFB  40.500 1.00 Sg
VRN  25.070 1.00 Pg
# 2006 08 12 20 01 57.400000 35.151 50.343  28.7  1.9 0.0 0.0 0.0       505
AFJ  24.260 1.00 Pg
AFJ  48.340 1.00 Sg
DMV  26.450 1.00 Pg
DMV  51.630 1.00 Sg
GZV  20.150 0.00 Pg
GZV  39.570 1.00 Sg
MHD  11.230 1.00 Pg
MHD  23.800 1.00 Sg
RAZ   8.880 1.00 Pg
RAZ  15.560 1.00 Sg
SFB  28.330 1.00 Pg
SFB  56.450 1.00 Sg
VRN  21.080 1.00 Pg
VRN  40.880 1.00 Sg
# 2006 08 13 00 21 03.700000 36.935 49.309   9.4  2.6 0.0 0.0 0.0       506
AFJ  41.080 0.00 Pn
BST  35.300 1.00 Pn
DMV  47.380 0.00 Pn
GZV  16.410 1.00 Pg
GZV  28.540 1.00 Sg
HSH  29.130 1.00 Pg
MHD  30.170 0.00 Pg
RAZ  40.580 0.00 Pg
SHB  56.860 0.00 Pn
# 2006 08 13 09 50 26.200000 35.675 51.543  26.0  2.0 0.0 0.0 0.0       507
AFJ   5.820 1.00 Pg
AFJ  10.560 1.00 Sg
DMV   8.140 0.00 Pg
DMV  14.440 1.00 Sg
MHD  23.490 1.00 Sg
PRN  18.350 0.00 Pg
PRN  26.530 1.00 Sg
RAZ  34.930 0.00 Pg
SFB  26.150 1.00 Pg
VRN  13.010 1.00 Pg
VRN  23.250 1.00 Sg
# 2006 08 13 23 35 15.000000 36.339 50.139   2.0  2.8 0.0 0.0 0.0       508
PRN  31.310 0.00 Pg
MHD  14.840 0.00 Pg
GZV   1.450 1.00 Pg
DMV  30.770 1.00 Pg
MHD  23.940 0.00 Sg
GZV   2.670 1.00 Sg
AFJ  24.510 1.00 Pg
# 2006 08 14 07 02 27.300000 35.219 53.418  13.7  1.9 0.0 0.0 0.0       509
AFJ  27.080 1.00 Pg
ANJ   9.100 1.00 Pg
ANJ  15.600 1.00 Sg
DMV  21.930 1.00 Pg
DMV  37.110 1.00 Sg
FIR  12.270 1.00 Pg
FIR  22.090 1.00 Sg
LAS   7.850 1.00 Pg
LAS  13.450 1.00 Sg
SFB  23.570 1.00 Pg
SFB  40.950 1.00 Sg
SHM  10.520 1.00 Pg
SHM  19.200 1.00 Sg
VRN  24.840 1.00 Pg
VRN  43.760 1.00 Sg
# 2006 08 14 07 30 56.600000 35.527 53.252  17.5  2.3 0.0 0.0 0.0       510
ANJ  10.570 1.00 Pg
DMV  19.440 1.00 Pg
DMV  32.660 1.00 Sg
FIR   7.940 1.00 Pg
FIR  14.120 1.00 Sg
LAS   5.560 1.00 Pg
LAS  10.220 1.00 Sg
SHM   5.530 1.00 Pg
SHM  10.530 1.00 Sg
VRN  25.320 0.00 Pg
# 2006 08 14 09 32 58.500000 35.466 53.116  22.9  0.9 0.0 0.0 0.0       511
SHM   7.430 1.00 Pg
LAS   4.610 1.00 Pg
ANJ  12.720 1.00 Pg
SHM  13.270 1.00 Sg
LAS   8.170 1.00 Sg
ANJ  21.060 1.00 Sg
# 2006 08 14 13 57 44.900000 36.117 52.753  13.4  2.0 0.0 0.0 0.0       512
ANJ  21.980 1.00 Pg
ANJ  36.160 1.00 Sg
DMV  14.910 1.00 Pg
DMV  25.690 1.00 Sg
FIR   8.840 1.00 Pg
FIR  15.160 1.00 Sg
GZV  36.800 0.00 Pn
LAS  14.690 1.00 Pg
LAS  22.350 1.00 Sg
MHD  29.740 1.00 Pg
RAZ  38.810 1.00 Pn
SFB  33.600 0.50 Pn
SHM   9.660 1.00 Pg
SHM  18.580 1.00 Sg
VRN  26.060 1.00 Pg
# 2006 08 14 14 12 56.800000 35.792 51.860  14.4  1.5 0.0 0.0 0.0       513
AFJ   3.060 1.00 Pg
AFJ   6.220 1.00 Sg
DMV   4.370 1.00 Pg
DMV   9.010 1.00 Sg
SFB  26.540 1.00 Pg
SHM  22.340 0.00 Pg
SHM  36.860 1.00 Sg
VRN  14.610 1.00 Pg
VRN  25.630 1.00 Sg
# 2006 08 14 14 25 49.500000 35.670 52.407  13.0  1.5 0.0 0.0 0.0       514
AFJ  11.270 1.00 Pg
AFJ  18.250 1.00 Sg
ANJ  22.690 1.00 Pg
DMV   5.540 1.00 Pg
FIR   5.110 1.00 Pg
FIR  10.230 1.00 Sg
LAS  10.070 1.00 Pg
LAS  17.150 1.00 Sg
MHD  25.780 1.00 Pg
SFB  24.090 1.00 Pg
SFB  41.190 1.00 Sg
SHM  13.490 1.00 Pg
SHM  22.530 1.00 Sg
VRN  16.190 1.00 Pg
VRN  26.710 1.00 Sg
# 2006 08 14 15 39 35.600000 35.662 49.832   6.1  2.2 0.0 0.0 0.0       515
AFJ  27.380 1.00 Pg
DMV  31.300 1.00 Pg
GZV  14.090 1.00 Pg
GZV  25.350 1.00 Sg
MHD  11.510 1.00 Pg
MHD  21.290 1.00 Sg
RAZ   5.170 1.00 Pg
RAZ   8.810 1.00 Sg
SFB  39.420 1.00 Pn
VRN  29.610 1.00 Pg
# 2006 08 14 16 08 51.700000 35.047 53.863  15.6  2.0 0.0 0.0 0.0       516
ANJ   7.900 1.00 Pg
ANJ  13.900 1.00 Sg
DMV  27.790 1.00 Pg
FIR  19.270 1.00 Pg
FIR  34.100 1.00 Sg
KIA  21.600 1.00 Pg
LAS  15.050 1.00 Pg
LAS  25.750 1.00 Sg
SFB  26.750 1.00 Pg
SHM  15.080 1.00 Pg
SHM  28.350 1.00 Sg
VRN  29.420 1.00 Pg
# 2006 08 15 00 33 54.400000 35.788 51.530   3.7  2.6 0.0 0.0 0.0       517
AFJ   2.590 1.00 Pg
AFJ   5.590 1.00 Sg
DMV   8.140 1.00 Pg
DMV  14.770 1.00 Sg
FIR  18.180 1.00 Pg
FIR  31.170 1.00 Sg
GLO  36.350 0.00 Pn
GZV  22.150 1.00 Pg
GZV  39.000 1.00 Sg
KLH  42.230 0.50 Pn
LAS  22.620 1.00 Pg
LAS  39.420 1.00 Sg
MHD  13.590 1.00 Pg
MHD  22.110 1.00 Sg
PIR  53.660 0.00 Pn
PRN  14.270 1.00 Pg
PRN  22.590 1.00 Sg
SFB  27.640 1.00 Pg
SHM  25.550 1.00 Pg
TEH   2.260 1.00 Pg
TEH   5.020 1.00 Sg
ZEF  48.680 0.50 Pn
# 2006 08 15 02 25 12.400000 35.633 49.683   2.4  2.4 0.0 0.0 0.0       518
AFJ  29.780 1.00 Pg
DMV  33.900 1.00 Pn
MHD  13.830 1.00 Pg
MHD  24.950 1.00 Sg
RAZ   5.680 1.00 Pg
RAZ   9.550 1.00 Sg
SFB  38.770 0.50 Pn
VRN  31.850 1.00 Pg
# 2006 08 15 05 40 10.100000 35.549 53.179  24.4  1.1 0.0 0.0 0.0       519
ANJ  11.640 1.00 Pg
ANJ  20.020 1.00 Sg
LAS   5.910 1.00 Pg
LAS  10.250 1.00 Sg
SHM   6.200 1.00 Pg
SHM  10.960 1.00 Sg
# 2006 08 15 07 59 18.300000 35.553 53.154  24.8  1.1 0.0 0.0 0.0       520
ANJ  12.170 1.00 Pg
ANJ  20.970 1.00 Sg
FIR   7.270 1.00 Pg
FIR  12.850 1.00 Sg
LAS   5.720 1.00 Pg
LAS  10.120 1.00 Sg
SHM   6.320 1.00 Pg
SHM  11.160 1.00 Sg
# 2006 08 15 11 49 59.600000 35.432 52.973  20.8  1.5 0.0 0.0 0.0       521
ANJ  14.130 1.00 Pg
KIA  17.810 1.00 Pg
KIA  31.670 1.00 Sg
LAS   3.540 1.00 Pg
LAS   6.240 1.00 Sg
SHM   8.350 1.00 Pg
SHM  14.670 1.00 Sg
# 2006 08 15 12 56 32.400000 36.016 53.288  18.0  2.2 0.0 0.0 0.0       522
ANJ  15.110 0.00 Pg
ANJ  23.330 1.00 Sg
DMV  18.950 0.00 Pg
DMV  33.670 1.00 Sg
FIR  10.010 1.00 Pg
FIR  16.770 1.00 Sg
GLO  12.280 1.00 Pg
GLO  24.180 1.00 Sg
KIA   7.390 1.00 Pg
KIA  12.350 1.00 Sg
PRN  11.850 0.00 Pg
SFB  33.550 0.00 Pn
SHM   4.900 1.00 Pg
SHM   8.620 1.00 Sg
VRN  28.670 0.00 Pg
# 2006 08 16 08 31 12.200000 36.248 52.541  12.1  1.6 0.0 0.0 0.0       523
DMV  14.270 1.00 Pg
DMV  24.790 1.00 Sg
FIR  11.520 1.00 Pg
FIR  19.930 1.00 Sg
VRN  25.640 0.00 Pg
# 2006 08 16 13 06 54.900000 36.893 53.969   8.0  3.4 0.0 0.0 0.0       524
AFJ  38.090 0.00 Pn
ANJ  25.560 1.00 Pg
DMV  36.270 0.00 Pn
FIR  28.510 1.00 Pg
GLO   6.950 0.00 Pg
KIA  12.960 1.00 Pg
LAS  30.350 1.00 Pg
MHD  52.720 0.00 Pn
PRN  26.480 0.00 Pg
SFB  46.350 1.00 Pn
SHM  22.130 1.00 Pg
VRN  43.380 0.00 Pn
SHM  38.610 1.00 Sg
ANJ  43.790 1.00 Sg
PRN  47.220 1.00 Sg
KIA  23.100 1.00 Sg
SHV  48.020 1.00 Pn
# 2006 08 17 05 44 34.900000 35.231 53.423  16.7  1.8 0.0 0.0 0.0       525
ANJ   9.270 1.00 Pg
ANJ  14.710 1.00 Sg
DMV  21.880 1.00 Pg
DMV  37.400 1.00 Sg
LAS   8.060 1.00 Pg
LAS  13.400 1.00 Sg
SFB  23.970 1.00 Pg
SFB  41.010 1.00 Sg
VRN  24.700 1.00 Pg
# 2006 08 17 09 00 26.900000 35.653 51.432   0.5  2.0 0.0 0.0 0.0       526
AFJ   5.510 1.00 Pg
AFJ   9.870 1.00 Sg
ANJ  35.240 1.00 Pn
DMV   8.290 1.00 Pg
DMV  15.970 1.00 Sg
MHD  11.060 1.00 Pg
MHD  19.700 1.00 Sg
VRN  12.020 1.00 Pg
VRN  22.360 1.00 Sg
# 2006 08 17 17 32 32.600000 35.943 53.175  17.4  1.4 0.0 0.0 0.0       527
SHM   4.750 1.00 Pg
SFB  31.280 1.00 Pg
PRN  15.030 1.00 Pg
KIA  10.410 1.00 Pg
LAS  11.370 1.00 Pg
FIR   9.590 1.00 Pg
DMV  19.310 1.00 Pg
DMV  33.560 1.00 Sg
# 2006 08 17 17 58 31.200000 35.936 53.158   9.6  2.5 0.0 0.0 0.0       528
ANJ  13.850 1.00 Pg
ANJ  23.930 1.00 Sg
DMV  18.080 1.00 Pg
DMV  31.400 1.00 Sg
FIR   8.020 1.00 Pg
FIR  14.570 1.00 Sg
GLO  15.280 1.00 Pg
KIA   9.380 1.00 Pg
KIA  15.640 1.00 Sg
LAS  10.550 1.00 Pg
LAS  18.090 1.00 Sg
MHD  37.340 0.00 Pn
PRN  13.770 1.00 Pg
PRN  24.770 1.00 Sg
RAZ  57.630 0.00 Pn
SFB  30.690 1.00 Pg
SHM   3.420 1.00 Pg
SHM   6.360 1.00 Sg
VRN  26.980 1.00 Pg
# 2006 08 17 18 19 22.200000 35.935 53.130   8.4  1.7 0.0 0.0 0.0       529
SHM   3.150 1.00 Pg
SHM   6.210 1.00 Sg
SFB  30.500 1.00 Pg
PRN  13.760 1.00 Pg
LAS  18.000 1.00 Sg
KIA   9.390 1.00 Pg
KIA  16.910 1.00 Sg
FIR   7.860 1.00 Pg
DMV  17.830 1.00 Pg
VRN  26.550 1.00 Pg
# 2006 08 17 19 58 21.500000 35.613 50.029   5.0  1.8 0.0 0.0 0.0       530
DMV  29.770 1.00 Pg
FIR  37.960 1.00 Pn
GZV  14.470 1.00 Pg
GZV  24.750 1.00 Sg
MHD   9.300 1.00 Pg
MHD  15.380 1.00 Sg
RAZ  17.710 0.00 Pg
RAZ  21.430 0.00 Sg
# 2006 08 17 20 12 35.500000 34.542 50.733   1.1  2.3 0.0 0.0 0.0       531
DMV  26.420 1.00 Pg
FIR  34.820 1.00 Pn
GZV  33.370 1.00 Pn
KLH  25.000 0.50 Pg
MHD  20.270 1.00 Pg
MHD  35.610 1.00 Sg
PIR  33.160 1.00 Pn
RAZ  33.780 0.00 Pg
SFB  22.540 1.00 Pg
SFB  39.200 1.00 Sg
ZEF  36.590 1.00 Pn
# 2006 08 17 20 55 18.800000 35.901 53.146   2.2  1.8 0.0 0.0 0.0       532
ANJ  13.270 1.00 Pg
ANJ  23.310 1.00 Sg
DMV  17.250 1.00 Pg
DMV  31.230 1.00 Sg
FIR   7.440 1.00 Pg
FIR  13.280 1.00 Sg
GLO  14.950 1.00 Pg
GLO  25.850 1.00 Sg
KIA   8.860 1.00 Pg
KIA  16.980 1.00 Sg
LAS   9.610 1.00 Pg
LAS  15.970 1.00 Sg
MHD  35.630 1.00 Pn
PRN  13.480 1.00 Pg
PRN  24.700 1.00 Sg
SFB  30.170 1.00 Pg
SHM   2.760 1.00 Pg
SHM   5.720 1.00 Sg
# 2006 08 17 20 58 18.600000 35.894 53.148  13.7  1.5 0.0 0.0 0.0       533
ANJ  13.400 1.00 Pg
DMV  18.070 1.00 Pg
DMV  30.590 1.00 Sg
FIR   7.840 1.00 Pg
FIR  12.620 1.00 Sg
GLO  15.130 1.00 Pg
KIA   9.540 1.00 Pg
KIA  17.480 1.00 Sg
LAS  10.520 0.00 Pg
LAS  17.080 1.00 Sg
PRN  14.000 1.00 Pg
PRN  25.920 1.00 Sg
SHM   3.320 1.00 Pg
SHM   6.260 1.00 Sg
# 2006 08 17 20 59 03.100000 35.876 53.162  11.7  1.2 0.0 0.0 0.0       534
DMV  17.510 1.00 Pg
DMV  30.720 1.00 Sg
FIR   7.680 1.00 Pg
FIR  12.720 1.00 Sg
GLO  15.810 1.00 Pg
KIA   9.480 1.00 Pg
KIA  16.760 1.00 Sg
LAS   9.550 0.00 Pg
LAS  16.730 1.00 Sg
SHM   2.800 1.00 Pg
SHM   5.560 1.00 Sg
# 2006 08 18 06 43 06.600000 34.507 52.385  10.7  2.3 0.0 0.0 0.0       535
ANJ  27.420 1.00 Pg
DMV  19.890 1.00 Pg
DMV  34.650 1.00 Sg
FIR  20.960 1.00 Pg
FIR  37.140 1.00 Sg
LAS  18.090 1.00 Pg
LAS  30.700 1.00 Sg
MHD  31.050 1.00 Pn
RAZ  36.570 1.00 Pn
SFB   3.490 1.00 Pg
SFB   7.310 1.00 Sg
SHM  26.940 1.00 Pg
VRN  13.480 1.00 Pg
VRN  22.320 1.00 Sg
# 2006 08 18 11 55 58.500000 36.174 52.749   5.0  1.9 0.0 0.0 0.0       536
ANJ  22.070 1.00 Pg
DMV  16.040 1.00 Pg
VRN  28.110 1.00 Pg
SHM  11.240 1.00 Pg
SFB  35.510 1.00 Pn
PRN   8.110 1.00 Pg
LAS  15.790 1.00 Pg
KIA  14.320 1.00 Pg
GLO  18.900 1.00 Pg
FIR  10.960 1.00 Pg
KIA  27.280 1.00 Sg
