# 2006 04 08 03 46 35.300000 35.581 52.234   3.9  2.2 0.0 0.0 0.0       159
FIR   7.700 1.00 Pg
RAZ  33.290 1.00 Pn
SFB  23.150 1.00 Pg
VRN  13.340 1.00 Pg
ANJ  26.090 1.00 Pg
GLO  29.320 1.00 Pg
LAS  11.920 1.00 Pg
PRN  11.340 1.00 Pg
SHM  17.320 1.00 Pg
# 2006 04 08 19 45 03.800000 36.462 50.517   1.2  2.8 0.0 0.0 0.0       160
VRN  31.300 1.00 Pg
RAZ  20.900 1.00 Pg
PRN  27.600 0.00 Pg
MHD  14.110 1.00 Pg
GLO  43.670 1.00 Pn
FIR  34.610 1.00 Pn
AFJ  23.250 1.00 Pg
# 2006 04 09 06 20 38.000000 35.618 52.187  14.3  1.3 0.0 0.0 0.0       161
VRN  13.860 1.00 Pg
FIR   9.410 1.00 Pg
AFJ   9.320 1.00 Pg
FIR  16.380 1.00 Sg
# 2006 04 09 11 14 40.700000 36.351 52.842  10.0  2.3 0.0 0.0 0.0       162
SHM  11.900 1.00 Pg
SFB  35.680 0.00 Pn
LAS  16.970 1.00 Pg
FIR  11.000 0.00 Pg
ANJ  22.520 1.00 Pg
AFJ  18.990 1.00 Pg
VRN  28.560 1.00 Pg
SHM  20.920 1.00 Sg
AFJ  32.690 1.00 Sg
# 2006 04 10 10 30 27.100000 34.362 52.786  14.4  2.6 0.0 0.0 0.0       163
AFJ  29.640 1.00 Pg
FIR  20.420 0.00 Pg
GLO  37.320 1.00 Pn
KIA  33.040 1.00 Pn
MHD  37.490 0.00 Pn
PRN  32.400 1.00 Pn
SFB   8.560 1.00 Pg
VRN  19.260 1.00 Pg
VRN  34.000 1.00 Sg
# 2006 04 10 17 00 28.100000 36.537 52.935  10.0  1.4 0.0 0.0 0.0       164
PRN  12.490 1.00 Pg
KIA  13.640 1.00 Pg
GLO  14.280 1.00 Pg
PRN  22.250 1.00 Sg
# 2006 04 10 21 12 37.100000 35.188 51.956  13.1  1.6 0.0 0.0 0.0       165
AFJ  12.680 1.00 Pg
AFJ  22.040 1.00 Sg
ANJ  28.180 1.00 Pg
FIR  14.330 1.00 Pg
FIR  24.930 1.00 Sg
GLO  33.550 1.00 Pn
KIA  29.860 1.00 Pg
LAS  15.210 1.00 Pg
LAS  26.570 1.00 Sg
RAZ  40.890 0.00 Pg
SHM  22.600 1.00 Pg
SHM  39.440 1.00 Sg
VRN   4.870 0.00 Pg
VRN   9.190 1.00 Sg
# 2006 04 12 08 09 13.600000 35.418 53.393  32.5  2.9 0.0 0.0 0.0       166
AFJ  26.970 0.00 Pg
SHM  12.110 0.00 Pg
LAS   7.970 1.00 Pg
FIR  12.130 1.00 Pg
ANJ   9.330 1.00 Pg
VRN  23.070 1.00 Pg
ZEF  40.770 1.00 Pn
# 2006 04 13 07 37 13.000000 35.486 53.148  12.2  2.1 0.0 0.0 0.0       167
VRN  23.230 1.00 Pg
SHM   6.280 1.00 Pg
LAS   3.300 1.00 Pg
FIR   6.200 1.00 Pg
ANJ  11.770 1.00 Pg
LAS   7.080 1.00 Sg
SHM  11.400 1.00 Sg
FIR  12.090 1.00 Sg
# 2006 04 13 19 52 17.900000 36.165 53.142  18.2  2.1 0.0 0.0 0.0       168
VRN  28.060 1.00 Pg
SHM   7.210 1.00 Pg
PRN  12.680 1.00 Pg
LAS  15.030 1.00 Pg
KIA   7.740 1.00 Pg
GLO  12.260 1.00 Pg
FIR  11.020 1.00 Pg
ANJ  16.770 1.00 Pg
AFJ  22.420 1.00 Pg
SHM  13.130 1.00 Sg
PRN  23.180 1.00 Sg
LAS  25.790 1.00 Sg
KIA  15.010 1.00 Sg
FIR  19.400 1.00 Sg
ANJ  29.070 1.00 Sg
AFJ  38.000 1.00 Sg
GLO  21.260 1.00 Sg
# 2006 04 14 00 28 42.900000 35.728 53.869  17.0  1.1 0.0 0.0 0.0       169
SHM   9.450 1.00 Pg
KIA   9.610 1.00 Pg
FIR  16.680 1.00 Pg
ANJ   5.660 1.00 Pg
ANJ   9.400 1.00 Sg
SHM  16.210 1.00 Sg
KIA  16.070 1.00 Sg
FIR  28.240 1.00 Sg
# 2006 04 14 23 52 49.500000 34.110 53.184   3.1  2.0 0.0 0.0 0.0       170
ANJ  27.110 1.00 Pg
ANJ  45.770 1.00 Sg
FIR  27.850 1.00 Pg
FIR  49.030 1.00 Sg
KLH  28.560 1.00 Pg
LAS  24.110 0.00 Pg
LAS  40.340 1.00 Sg
SHM  30.480 1.00 Pg
SHM  52.910 1.00 Sg
VRN  26.890 1.00 Pg
VRN  46.390 1.00 Sg
ZEF  26.230 1.00 Pg
# 2006 04 15 10 02 48.200000 35.612 51.566   9.9  1.7 0.0 0.0 0.0       171
AFJ   4.640 1.00 Pg
AFJ   9.180 1.00 Sg
FIR  17.850 1.00 Pg
FIR  30.090 1.00 Sg
RAZ  28.530 0.00 Pg
RAZ  42.220 1.00 Sg
VRN  11.590 0.00 Pg
VRN  19.750 1.00 Sg
# 2006 04 17 06 42 49.500000 35.985 53.122   0.3  2.7 0.0 0.0 0.0       172
AFJ  20.680 0.00 Pg
DMV  17.520 1.00 Pg
DMV  30.420 1.00 Sg
FIR   8.210 1.00 Pg
FIR  14.270 1.00 Sg
GLO  13.950 1.00 Pg
GLO  24.110 1.00 Sg
KIA   8.350 0.50 Pg
KIA  16.170 0.50 Sg
PRN  12.180 0.00 Pg
PRN  23.780 0.50 Sg
RAZ  43.710 0.00 Pn
VRN  27.550 0.25 Pg
# 2006 04 18 08 16 50.900000 34.527 53.255  14.6  2.4 0.0 0.0 0.0       173
VRN  24.130 1.00 Pg
VRN  41.870 1.00 Sg
SFB  15.770 1.00 Pg
GLO  37.230 0.00 Pn
FIR  21.450 1.00 Pg
DMV  26.200 1.00 Pg
SFB  27.150 1.00 Sg
DMV  45.760 1.00 Sg
FIR  37.090 1.00 Sg
# 2006 04 22 19 08 08.300000 34.378 53.522   6.8  2.0 0.0 0.0 0.0       174
ANJ  22.120 1.00 Pg
DMV  30.960 1.00 Pg
FIR  26.010 1.00 Pg
LAS  21.950 1.00 Pg
SFB  19.190 1.00 Pg
SHM  27.800 0.50 Pg
VRN  27.950 1.00 Pg
ZEF  31.260 1.00 Pg
# 2006 04 24 13 33 41.500000 35.361 53.143  31.3  0.9 0.0 0.0 0.0       175
ANJ  12.540 1.00 Pg
ANJ  21.800 1.00 Sg
LAS   5.750 1.00 Pg
LAS  10.090 1.00 Sg
SHM   9.550 1.00 Pg
SHM  16.770 1.00 Sg
# 2006 04 24 14 00 24.500000 35.786 52.579   8.7  1.4 0.0 0.0 0.0       176
ANJ  20.470 1.00 Pg
DMV   8.830 1.00 Pg
DMV  16.560 1.00 Sg
FIR   2.340 0.50 Pg
FIR   4.880 1.00 Sg
LAS   8.840 1.00 Pg
LAS  15.820 1.00 Sg
SFB  26.480 1.00 Pg
SHM  10.550 1.00 Pg
SHM  18.860 1.00 Sg
VRN  19.340 1.00 Pg
VRN  33.020 1.00 Sg
# 2006 04 24 22 50 36.800000 35.960 53.352   2.2  2.4 0.0 0.0 0.0       177
DMV  20.520 1.00 Pg
DMV  36.140 1.00 Sg
FIR  10.140 1.00 Pg
FIR  17.720 1.00 Sg
MHD  37.150 1.00 Pn
SFB  32.660 1.00 Pn
VRN  29.560 1.00 Pg
# 2006 04 25 10 20 31.400000 36.204 52.802  12.8  2.0 0.0 0.0 0.0       178
DMV  15.490 0.00 Pg
DMV  27.850 1.00 Sg
FIR   9.890 0.00 Pg
GLO  17.740 0.00 Pg
GZV  38.620 0.00 Pn
KIA  13.360 0.25 Pg
PRN   7.120 0.50 Pg
PRN  14.740 1.00 Sg
SFB  35.170 0.00 Pn
VRN  25.370 0.00 Pg
# 2006 04 25 17 29 14.300000 37.094 50.522  25.7  2.7 0.0 0.0 0.0       179
VRN  38.220 0.00 Pn
SHM  38.900 1.00 Pn
RAZ  45.870 0.00 Pg
PRN  26.790 1.00 Pg
MHD  23.870 1.00 Pg
KIA  41.530 1.00 Pn
GZV  14.080 1.00 Pg
FIR  37.330 1.00 Pn
DMV  31.500 1.00 Pn
GZV  24.760 1.00 Sg
# 2006 04 25 21 52 40.900000 34.239 53.459   9.5  2.4 0.0 0.0 0.0       180
ANJ  23.120 1.00 Pg
DMV  30.900 1.00 Pg
FIR  26.370 1.00 Pg
KLH  31.440 1.00 Pn
LAS  22.990 1.00 Pg
SFB  18.430 1.00 Pg
SHM  28.250 1.00 Pg
VRN  28.090 1.00 Pg
ZEF  28.630 1.00 Pg
SFB  31.080 1.00 Sg
LAS  38.090 1.00 Sg
ANJ  39.590 1.00 Sg
# 2006 04 27 05 18 35.500000 35.707 52.350   2.0  1.5 0.0 0.0 0.0       181
AFJ   9.850 1.00 Pg
DMV   4.910 1.00 Pg
FIR   5.270 1.00 Pg
SHM  14.620 1.00 Pg
VRN  16.040 1.00 Pg
DMV   9.710 1.00 Sg
FIR  10.610 1.00 Sg
SHM  23.660 1.00 Sg
VRN  27.520 1.00 Sg
LAS  18.870 1.00 Sg
AFJ  17.590 1.00 Sg
# 2006 04 27 08 35 28.200000 35.647 52.596  36.0  1.4 0.0 0.0 0.0       182
SHM  12.200 1.00 Pg
LAS   9.230 1.00 Pg
DMV  10.320 1.00 Pg
DMV  17.800 1.00 Sg
LAS  16.230 1.00 Sg
SHM  21.050 1.00 Sg
# 2006 04 27 14 44 17.200000 36.148 51.362  10.0  2.0 0.0 0.0 0.0       183
VRN  20.730 1.00 Pg
SFB  33.130 1.00 Pn
RAZ  34.390 0.00 Pg
GLO  34.330 1.00 Pn
DMV  13.390 1.00 Pg
MHD  23.050 1.00 Sg
DMV  25.210 1.00 Sg
VRN  37.450 1.00 Sg
# 2006 04 28 05 07 26.200000 35.567 53.417  22.5  1.1 0.0 0.0 0.0       184
SHM   5.860 1.00 Pg
SHM  10.400 1.00 Sg
ANJ   8.520 1.00 Pg
ANJ  14.450 1.00 Sg
LAS   8.380 1.00 Pg
# 2006 04 29 09 46 17.400000 35.205 53.206   4.0  3.7 0.0 0.0 0.0       185
AFJ  25.110 0.00 Pg
VRN  21.720 1.00 Pg
SFB  21.080 1.00 Pg
SFB  36.980 1.00 Sg
RAZ  51.740 0.00 Pn
PRN  23.440 1.00 Pg
MHD  36.100 1.00 Pn
MEH  61.180 1.00 Pn
KIA  18.720 1.00 Pg
GZV  45.500 0.00 Pn
GLO  25.180 0.00 Pg
FIR  10.140 1.00 Pg
DMV  18.250 1.00 Pg
LAS   5.510 1.00 Pg
SHM  11.070 1.00 Pg
ANJ   9.840 0.00 Pg
ZEF  39.410 1.00 Pn
SHV  65.590 0.00 Pn
SFR  65.640 1.00 Pn
KLH  38.660 1.00 Pn
EMG  74.620 1.00 Pn
CHK  49.190 1.00 Pn
BAF  63.160 1.00 Pn
# 2006 04 29 10 08 52.700000 35.664 51.478  18.0  1.7 0.0 0.0 0.0       186
VRN  12.770 1.00 Pg
RAZ  33.510 0.00 Pg
MHD  13.240 0.00 Pg
FIR  19.490 1.00 Pg
DMV   8.890 1.00 Pg
DMV  14.950 1.00 Sg
AFJ   5.430 1.00 Pg
# 2006 04 29 10 51 43.400000 35.169 53.294  18.0  2.7 0.0 0.0 0.0       187
AFJ  26.050 1.00 Pg
AFJ  46.190 1.00 Sg
DMV  19.420 0.00 Pg
FIR  11.120 0.00 Pg
GLO  26.490 0.00 Pg
KIA  19.840 1.00 Pg
MHD  37.220 0.00 Pn
PRN  24.610 1.00 Pg
RAZ  50.000 0.00 Pn
SFB  21.540 1.00 Pg
SFB  37.700 1.00 Sg
VRN  22.400 0.00 Pg
VRN  40.460 1.00 Sg
# 2006 04 29 11 42 02.600000 35.232 53.201   2.7  2.2 0.0 0.0 0.0       188
DMV  18.850 0.00 Pg
DMV  31.690 1.00 Sg
FIR   9.980 1.00 Pg
FIR  18.700 1.00 Sg
SFB  21.180 1.00 Pg
SFB  37.020 1.00 Sg
VRN  22.030 1.00 Pg
VRN  38.340 1.00 Sg
# 2006 04 29 12 47 22.000000 35.178 53.272  10.9  1.8 0.0 0.0 0.0       189
ANJ  11.730 1.00 Pg
DMV  21.160 1.00 Pg
FIR  12.370 1.00 Pg
GLO  28.380 0.00 Pg
KIA  21.980 0.50 Pg
LAS   6.660 1.00 Pg
PRN  25.260 1.00 Pg
SFB  22.540 1.00 Pg
SHM  12.490 1.00 Pg
VRN  23.630 1.00 Pg
LAS  13.100 1.00 Sg
# 2006 04 30 00 06 21.000000 36.893 50.766   6.5  3.2 0.0 0.0 0.0       190
AFJ  22.740 1.00 Pg
AFJ  41.320 1.00 Sg
BST  47.590 0.00 Pn
DHR  64.180 1.00 Pn
DMV  29.840 1.00 Pg
FIR  36.080 0.00 Pn
GLO  40.050 1.00 Pn
GZV  12.310 1.00 Pg
GZV  20.350 1.00 Sg
KIA  40.140 1.00 Pn
MHD  21.840 1.00 Pg
MHD  37.380 1.00 Sg
MRD  67.120 1.00 Pn
PRN  24.960 1.00 Pg
RAZ  41.400 0.00 Pg
SFB  45.380 1.00 Pn
SHB  76.320 0.00 Pn
VRN  35.110 1.00 Pn
# 2006 04 30 07 12 26.400000 35.704 52.567  11.0  1.8 0.0 0.0 0.0       191
AFJ  13.100 1.00 Pg
ANJ  20.430 1.00 Pg
DMV   8.090 1.00 Pg
DMV  14.750 1.00 Sg
FIR   2.460 0.00 Pg
GLO  24.560 0.00 Pg
KIA  18.490 1.00 Pg
LAS   8.450 1.00 Pg
LAS  14.430 1.00 Sg
PRN  10.710 0.00 Pg
SFB  25.210 1.00 Pg
SHM  10.870 1.00 Pg
SHM  19.310 1.00 Sg
VRN  17.890 1.00 Pg
# 2006 04 30 09 23 58.300000 35.760 51.824  13.4  1.9 0.0 0.0 0.0       192
AFJ   3.300 1.00 Pg
DMV   4.250 0.00 Pg
DMV   8.590 1.00 Sg
FIR  14.110 1.00 Pg
FIR  26.630 1.00 Sg
VRN  13.590 1.00 Pg
VRN  24.470 1.00 Sg
# 2006 04 30 14 19 23.200000 35.387 52.714   2.0  1.0 0.0 0.0 0.0       193
SFB  21.690 1.00 Pg
LAS   4.310 1.00 Pg
FIR   5.320 1.00 Pg
FIR  10.100 1.00 Sg
DMV  11.850 1.00 Pg
ANJ  19.550 1.00 Pg
LAS   7.810 1.00 Sg
# 2006 04 30 22 16 37.100000 36.890 50.738   6.9  2.1 0.0 0.0 0.0       194
DMV  31.230 1.00 Pg
FIR  37.340 1.00 Pn
GZV  13.670 1.00 Pg
PRN  26.100 1.00 Pg
RAZ  42.140 0.00 Pg
VRN  37.680 1.00 Pn
GZV  24.330 1.00 Sg
# 2006 04 30 22 57 05.400000 36.954 50.766  10.0  2.4 0.0 0.0 0.0       195
VRN  37.560 1.00 Pn
RAZ  43.820 0.00 Pg
PRN  26.200 1.00 Pg
MHD  24.240 1.00 Pg
GZV  14.130 1.00 Pg
GZV  24.950 1.00 Sg
FIR  37.190 1.00 Pn
DMV  32.000 1.00 Pg
# 2006 05 01 04 02 18.900000 35.742 49.668  15.0  1.8 0.0 0.0 0.0       196
VRN  32.710 1.00 Pn
RAZ   8.370 1.00 Pg
MHD  15.590 1.00 Pg
GZV  15.160 1.00 Pg
AFJ  30.820 1.00 Pg
RAZ  14.090 1.00 Sg
# 2006 05 01 10 21 46.200000 35.695 51.518  32.4  1.7 0.0 0.0 0.0       197
VRN  13.990 1.00 Pg
VRN  24.190 1.00 Sg
DMV   9.450 1.00 Pg
DMV  16.410 1.00 Sg
AFJ   6.680 1.00 Pg
# 2006 05 02 05 19 15.700000 35.813 52.152   5.9  2.1 0.0 0.0 0.0       198
AFJ   6.570 1.00 Pg
DMV   4.440 1.00 Pg
DMV   8.140 1.00 Sg
FIR   9.580 1.00 Pg
MHD  21.830 1.00 Pg
MHD  37.990 1.00 Sg
SFB  26.010 1.00 Pg
SFB  45.510 1.00 Sg
VRN  15.900 1.00 Pg
VRN  27.820 1.00 Sg
# 2006 05 02 10 47 11.400000 35.932 52.704  17.7  1.8 0.0 0.0 0.0       199
FIR  11.800 0.00 Pg
GLO  19.780 1.00 Pg
GLO  33.740 1.00 Sg
KIA  15.450 1.00 Pg
KIA  26.670 1.00 Sg
PRN   8.910 1.00 Pg
PRN  16.170 1.00 Sg
# 2006 05 02 18 18 59.100000 34.409 51.299   5.4  2.8 0.0 0.0 0.0       200
GLO  46.830 1.00 Pn
KIA  43.060 1.00 Pn
KLH  19.770 1.00 Pg
KLH  34.910 1.00 Sg
PIR  30.860 1.00 Pg
PRN  34.090 1.00 Pn
ZEF  30.360 1.00 Pg
# 2006 05 03 06 42 07.800000 37.014 49.493   5.3  2.8 0.0 0.0 0.0       201
AFJ  35.960 1.00 Pn
BST  36.710 1.00 Pn
DMV  41.970 1.00 Pn
GLO  55.030 0.00 Pn
HSH  31.550 1.00 Pg
PRN  39.480 0.00 Pn
VRN  42.870 0.50 Pn
# 2006 05 04 08 36 48.400000 34.395 51.545  17.5  1.8 0.0 0.0 0.0       202
DMV  22.370 1.00 Pg
KLH  19.530 1.00 Pg
RAZ  28.370 1.00 Pg
VRN  14.280 0.50 Pg
AFJ  25.720 1.00 Pg
SFB  18.780 0.00 Pg
# 2006 05 04 09 18 32.700000 35.622 51.495  26.4  1.5 0.0 0.0 0.0       203
AFJ   6.680 1.00 Pg
DMV   8.950 1.00 Pg
MHD  12.870 1.00 Pg
VRN  12.660 1.00 Pg
AFJ  11.860 1.00 Sg
VRN  21.560 1.00 Sg
# 2006 05 04 11 02 07.300000 37.017 53.956  10.0  1.3 0.0 0.0 0.0       204
ANJ  29.720 1.00 Pg
GLO  10.420 1.00 Pg
KIA  16.460 1.00 Pg
GLO  18.560 1.00 Sg
# 2006 05 04 22 21 00.800000 35.375 51.614  15.3  1.6 0.0 0.0 0.0       205
ANJ  31.830 1.00 Pn
DMV   7.130 1.00 Pg
FIR  18.070 1.00 Pg
LAS  20.150 1.00 Pg
RAZ  25.030 1.00 Pg
SFB  20.670 1.00 Pg
SHM  25.070 1.00 Pg
VRN   7.460 1.00 Pg
# 2006 05 04 23 01 12.400000 35.183 52.228   5.8  1.2 0.0 0.0 0.0       206
DMV   8.750 1.00 Pg
FIR  12.620 1.00 Pg
VRN   9.080 1.00 Pg
DMV  15.470 1.00 Sg
RAZ  35.300 1.00 Pn
# 2006 05 05 08 48 13.600000 35.809 52.715  12.2  1.6 0.0 0.0 0.0       207
DMV  12.020 1.00 Pg
FIR   3.650 1.00 Pg
GLO  25.360 0.00 Pg
KIA  19.020 1.00 Pg
PRN  13.310 1.00 Pg
VRN  21.750 1.00 Pg
# 2006 05 05 09 05 57.600000 36.744 53.439  18.0  1.5 0.0 0.0 0.0       208
GLO   7.830 1.00 Pg
KIA  11.390 1.00 Pg
FIR  21.270 1.00 Pg
GLO  12.770 1.00 Sg
FIR  39.270 1.00 Sg
KIA  18.570 1.00 Sg
# 2006 05 06 23 48 02.600000 37.386 53.984  18.0  2.0 0.0 0.0 0.0       209
GLO  16.190 1.00 Pg
GLO  28.090 1.00 Sg
KIA  22.040 1.00 Pg
KIA  37.800 1.00 Sg
PRN  30.000 1.00 Pg
# 2006 05 07 00 48 56.700000 35.470 53.423  11.7  3.3 0.0 0.0 0.0       210
AFJ  26.100 1.00 Pg
DMV  20.570 1.00 Pg
DMV  35.910 1.00 Sg
FIR  10.410 1.00 Pg
FIR  18.150 1.00 Sg
GLO  19.900 1.00 Pg
GLO  34.120 1.00 Sg
GZV  46.510 0.00 Pn
KIA  13.760 1.00 Pg
KIA  23.840 1.00 Sg
PRN  21.040 0.00 Pg
PRN  38.400 1.00 Sg
RAZ  54.000 0.00 Pn
SFB  26.610 1.00 Pg
VRN  26.080 1.00 Pg
# 2006 05 07 05 27 23.800000 35.133 53.264  13.6  1.1 0.0 0.0 0.0       211
ANJ  11.650 1.00 Pg
ANJ  19.830 1.00 Sg
LAS   6.700 1.00 Pg
SHM  12.090 1.00 Pg
SHM  21.310 1.00 Sg
# 2006 05 07 09 47 06.000000 35.647 51.512  12.9  1.7 0.0 0.0 0.0       212
AFJ   4.950 1.00 Pg
AFJ   9.090 1.00 Sg
ANJ  35.020 0.00 Pn
DMV   7.640 1.00 Pg
DMV  13.740 1.00 Sg
FIR  18.590 1.00 Pg
VRN  12.070 1.00 Pg
VRN  21.730 1.00 Sg
# 2006 05 07 12 20 24.500000 36.203 52.726  10.0  2.0 0.0 0.0 0.0       213
VRN  27.390 1.00 Pg
SHM  10.980 1.00 Pg
SFB  34.820 0.50 Pn
PRN   7.210 1.00 Pg
LAS  16.100 1.00 Pg
KIA  13.520 1.00 Pg
GZV  39.000 0.00 Pn
GLO  17.460 1.00 Pg
FIR  10.030 1.00 Pg
DMV  16.070 1.00 Pg
ANJ  21.970 1.00 Pg
SHM  20.040 1.00 Sg
PRN  13.330 1.00 Sg
KIA  23.980 1.00 Sg
GLO  29.980 1.00 Sg
DMV  26.950 1.00 Sg
# 2006 05 07 15 43 02.800000 36.487 50.721  12.0  1.7 0.0 0.0 0.0       214
VRN  28.130 1.00 Pg
SFB  40.970 1.00 Pn
RAZ  31.870 0.00 Pg
GZV   7.750 1.00 Pg
DMV  25.120 1.00 Pg
AFJ  18.840 1.00 Pg
GZV  13.570 1.00 Sg
# 2006 05 07 20 06 27.700000 35.479 53.401   7.6  2.7 0.0 0.0 0.0       215
AFJ  26.350 1.00 Pg
ANJ   7.660 1.00 Pg
DMV  20.890 1.00 Pg
FIR  10.410 1.00 Pg
GLO  20.960 1.00 Pg
KIA  14.080 1.00 Pg
KLH  44.750 0.50 Pn
LAS   6.950 1.00 Pg
PRN  19.890 0.00 Pg
RAZ  53.720 0.00 Pn
SFB  26.590 1.00 Pg
SHM   6.130 1.00 Pg
VRN  26.080 1.00 Pg
ZEF  46.520 0.00 Pn
# 2006 05 07 20 54 15.200000 35.481 53.414   2.0  2.8 0.0 0.0 0.0       216
AFJ  25.750 1.00 Pg
ANJ   7.410 1.00 Pg
DMV  20.130 1.00 Pg
FIR  10.060 1.00 Pg
GLO  20.240 1.00 Pg
KIA  13.280 1.00 Pg
LAS   7.340 1.00 Pg
PRN  20.870 0.00 Pg
RAZ  50.280 0.00 Pn
SFB  26.030 1.00 Pg
SHM   5.740 1.00 Pg
VRN  25.750 1.00 Pg
FIR  17.960 1.00 Sg
ANJ  12.650 1.00 Sg
ZEF  44.910 1.00 Pn
PIR  55.460 1.00 Pn
KLH  43.980 0.50 Pn
# 2006 05 07 23 09 24.400000 35.360 52.301  36.0  1.3 0.0 0.0 0.0       217
VRN  12.530 1.00 Pg
FIR  10.340 1.00 Pg
DMV   8.140 1.00 Pg
DMV  14.500 1.00 Sg
LAS  11.630 1.00 Pg
LAS  19.860 1.00 Sg
FIR  17.900 1.00 Sg
VRN  21.160 1.00 Sg
# 2006 05 08 09 56 50.100000 35.408 51.956  12.5  2.5 0.0 0.0 0.0       218
AFJ   9.490 1.00 Pg
VRN   8.230 1.00 Pg
SFB  18.780 1.00 Pg
SFB  34.060 1.00 Sg
MHD  19.920 1.00 Pg
FIR  11.460 0.00 Pg
DMV   3.260 1.00 Pg
SHM  20.360 1.00 Pg
LAS  14.020 0.00 Pg
LAS  26.690 1.00 Sg
ANJ  27.850 1.00 Pg
# 2006 05 08 10 01 54.000000 35.412 51.986  20.0  2.9 0.0 0.0 0.0       219
AFJ   8.880 1.00 Pg
AFJ  17.540 1.00 Sg
ANJ  27.600 1.00 Pg
DMV   3.490 0.00 Pg
DMV   7.370 1.00 Sg
FIR  11.640 0.00 Pg
LAS  14.620 1.00 Pg
LAS  26.160 1.00 Sg
MHD  20.310 1.00 Pg
RAZ  37.410 0.00 Pg
SFB  19.080 0.00 Pg
SHM  20.730 1.00 Pg
VRN   8.480 1.00 Pg
VRN  15.660 1.00 Sg
# 2006 05 08 11 15 23.400000 35.516 53.426  28.7  1.6 0.0 0.0 0.0       220
ANJ   8.810 1.00 Pg
ANJ  14.830 1.00 Sg
LAS   8.520 1.00 Pg
LAS  15.190 1.00 Sg
SHM   7.250 1.00 Pg
SHM  12.650 1.00 Sg
# 2006 05 08 14 05 06.400000 35.453 53.103  11.5  1.2 0.0 0.0 0.0       221
ANJ  13.690 0.50 Pg
ANJ  21.390 1.00 Sg
DMV  18.510 1.00 Pg
FIR   7.310 1.00 Pg
FIR  11.360 1.00 Sg
LAS   1.590 0.50 Pg
LAS   6.550 0.00 Sg
SFB  -9.860 0.00 Pg
SHM   6.390 1.00 Pg
SHM  12.370 1.00 Sg
# 2006 05 08 14 39 15.300000 35.637 53.511   5.4  2.6 0.0 0.0 0.0       222
VRN  28.650 1.00 Pg
SHM   4.050 1.00 Pg
SFB  29.850 1.00 Pg
SFB  51.370 1.00 Sg
LAS   9.710 1.00 Pg
FIR  10.840 1.00 Pg
DMV  21.680 1.00 Pg
ANJ   6.680 1.00 Pg
AFJ  27.060 1.00 Pg
SHM   8.180 1.00 Sg
# 2006 05 08 16 51 16.500000 36.001 52.182  12.7  1.9 0.0 0.0 0.0       223
AFJ   7.620 1.00 Pg
DMV   8.020 1.00 Pg
FIR  10.800 1.00 Pg
LAS  17.470 1.00 Pg
PRN   4.910 1.00 Pg
SFB  29.890 1.00 Pg
SHM  16.820 1.00 Pg
VRN  20.330 1.00 Pg
KIA  22.400 1.00 Pg
# 2006 05 09 02 15 57.700000 35.747 49.176  16.8  3.0 0.0 0.0 0.0       224
AFJ  36.410 0.00 Pn
ANJ  70.920 0.00 Pn
DHR  41.350 1.00 Pn
DMV  39.920 0.00 Pn
FIR  51.370 0.00 Pn
GHG  43.540 1.00 Pn
KLH  50.330 1.00 Pn
LIN  31.030 0.00 Pn
MHD  22.850 1.00 Pg
PRN  47.680 0.00 Pn
RAZ  26.800 0.00 Pg
SFB  47.540 1.00 Pn
SHM  59.860 0.00 Pn
VRN  37.880 1.00 Pn
ZEF  60.660 1.00 Pn
CHTH 29.270 1.00 Pg
DAMV 38.500 1.00 Pn
GRMI 51.890 1.00 Pn
SNGE 24.380 0.00 Pg
MHD  42.050 1.00 Sg
# 2006 05 09 06 19 03.900000 35.676 53.543  15.1  1.8 0.0 0.0 0.0       225
ANJ   7.150 1.00 Pg
ANJ  12.450 1.00 Sg
LAS  10.380 1.00 Pg
LAS  18.310 1.00 Sg
SHM   4.620 1.00 Pg
SHM   9.180 1.00 Sg
VRN  28.520 1.00 Pg
# 2006 05 09 07 07 21.300000 35.473 51.917  27.4  1.6 0.0 0.0 0.0       226
DMV   5.050 1.00 Pg
VRN  10.090 1.00 Pg
VRN  17.410 1.00 Sg
FIR  13.510 1.00 Pg
FIR  23.210 1.00 Sg
DMV   8.970 1.00 Sg
# 2006 05 09 12 16 41.600000 35.378 52.020   1.5  2.5 0.0 0.0 0.0       227
AFJ   9.490 1.00 Pg
ANJ  28.130 1.00 Pg
DMV   2.850 1.00 Pg
FIR  10.950 1.00 Pg
GLO  34.220 0.50 Pn
GZV  31.400 1.00 Pg
KIA  28.720 1.00 Pg
LAS  14.280 1.00 Pg
MHD  19.970 1.00 Pg
PRN  15.570 1.00 Pg
RAZ  40.980 0.00 Pg
SHM  20.490 1.00 Pg
VRN   8.050 1.00 Pg
DMV   6.690 1.00 Sg
FIR  20.980 1.00 Sg
LAS  23.620 1.00 Sg
MHD  36.270 1.00 Sg
PRN  27.310 1.00 Sg
SHM  35.230 1.00 Sg
VRN  14.450 1.00 Sg
AFJ  17.490 1.00 Sg
# 2006 05 10 06 26 40.800000 35.452 53.149   8.1  1.4 0.0 0.0 0.0       228
VRN  23.490 1.00 Pg
SHM   6.060 0.00 Pg
SHM  12.220 1.00 Sg
SFB  24.910 1.00 Pg
LAS   2.770 1.00 Pg
FIR   6.410 1.00 Pg
DMV  16.350 1.00 Pg
FIR  12.390 1.00 Sg
KIA  27.160 1.00 Sg
ANJ  11.550 1.00 Pg
LAS   6.350 1.00 Sg
# 2006 05 14 13 55 24.500000 35.594 53.015  26.1  1.1 0.0 0.0 0.0       229
ANJ  14.090 1.00 Pg
LAS   5.660 1.00 Pg
SHM   7.210 1.00 Pg
LAS  10.120 1.00 Sg
SHM  12.090 1.00 Sg
# 2006 05 14 14 09 56.300000 35.801 52.029  18.4  1.8 0.0 0.0 0.0       230
AFJ   5.200 0.00 Pg
DMV   2.910 0.00 Pg
SFB  25.780 1.00 Pg
RAZ  39.860 0.00 Pg
VRN  15.080 1.00 Pg
AFJ   9.740 1.00 Sg
VRN  26.940 1.00 Sg
# 2006 05 14 14 39 57.200000 35.963 51.709  12.8  1.4 0.0 0.0 0.0       231
AFJ   2.950 1.00 Pg
DMV  11.070 0.00 Pg
RAZ  27.340 1.00 Pg
SFB  28.770 1.00 Pg
VRN  17.210 1.00 Pg
VRN  30.310 1.00 Sg
# 2006 05 14 19 02 58.100000 35.403 52.437   2.0  1.6 0.0 0.0 0.0       232
AFJ  13.350 1.00 Pg
DMV   6.420 1.00 Pg
DMV  12.480 1.00 Sg
FIR   6.070 1.00 Pg
FIR  11.870 1.00 Sg
SFB  18.890 1.00 Pg
SFB  33.690 1.00 Sg
VRN  12.770 1.00 Pg
VRN  23.090 1.00 Sg
# 2006 05 15 07 14 24.900000 35.550 53.078  30.7  0.6 0.0 0.0 0.0       233
SHM   7.330 1.00 Pg
LAS   6.060 1.00 Pg
ANJ  13.410 1.00 Pg
ANJ  23.010 1.00 Sg
SHM  13.010 1.00 Sg
# 2006 05 15 08 06 06.000000 35.586 53.250  27.6  0.5 0.0 0.0 0.0       234
SHM   6.160 1.00 Pg
LAS   7.180 1.00 Pg
ANJ  11.000 1.00 Pg
SHM  10.420 1.00 Sg
LAS  12.590 1.00 Sg
# 2006 05 16 14 53 18.100000 36.018 51.196   8.6  1.4 0.0 0.0 0.0       235
AFJ   7.650 1.00 Pg
DMV  15.210 1.00 Pg
GZV  15.720 1.00 Pg
VRN  21.590 1.00 Pg
GLO  36.420 1.00 Pn
