# 2006 06 10 10 03 42.500000 35.636 51.524   3.7  1.5 0.0 0.0 0.0       304
AFJ   6.070 1.00 Pg
AFJ  11.430 1.00 Sg
DMV   8.320 1.00 Pg
FIR  19.540 1.00 Pg
GZV  25.370 1.00 Pg
MHD  13.720 1.00 Pg
MHD  23.820 1.00 Sg
SFB  26.570 1.00 Pg
TEH   3.470 1.00 Pg
VRN  13.270 1.00 Pg
VRN  24.250 1.00 Sg
DMV  15.740 1.00 Sg
FIR  34.420 1.00 Sg
SFB  47.510 1.00 Sg
# 2006 06 10 11 52 27.900000 36.060 53.689   3.9  1.4 0.0 0.0 0.0       305
ANJ  13.090 1.00 Pg
GLO   9.960 0.50 Pg
GLO  19.360 1.00 Sg
ANJ  22.680 1.00 Sg
KIA   3.290 1.00 Pg
SHM   8.680 1.00 Pg
KIA   6.050 1.00 Sg
SHM  15.200 1.00 Sg
# 2006 06 10 15 17 24.600000 35.063 53.209  15.6  2.6 0.0 0.0 0.0       306
AFJ  26.990 1.00 Pg
AFJ  46.230 1.00 Sg
ANJ  13.530 1.00 Pg
ANJ  23.170 1.00 Sg
DMV  20.230 1.00 Pg
DMV  35.850 1.00 Sg
FIR  13.350 1.00 Pg
FIR  22.790 1.00 Sg
GLO  29.620 0.00 Pg
GLO  51.920 1.00 Sg
KIA  22.980 1.00 Pg
LAS   8.740 0.50 Pg
PRN  26.380 1.00 Pg
PRN  45.000 1.00 Sg
RAZ  53.330 0.00 Pn
SFB  20.740 1.00 Pg
SFB  35.470 1.00 Sg
SHM  14.590 1.00 Pg
SHM  24.590 1.00 Sg
VRN  22.420 1.00 Pg
VRN  39.040 1.00 Sg
LAS  14.510 1.00 Sg
CHTH 34.320 1.00 Pn
THKV 37.810 0.50 Pn
NASN 40.880 0.50 Pn
ASAO 44.750 1.00 Pn
# 2006 06 10 16 14 03.600000 36.069 50.583   4.5  1.6 0.0 0.0 0.0       307
VRN  26.440 1.00 Pg
RAZ  23.540 0.00 Pg
MHD   7.870 1.00 Pg
GZV   8.610 1.00 Pg
DMV  24.530 1.00 Pg
DMV  42.570 1.00 Sg
GZV  15.570 1.00 Sg
MHD  14.690 1.00 Sg
SFB  39.370 1.00 Pn
AFJ  18.570 1.00 Pg
# 2006 06 11 00 24 59.000000 36.332 51.710  23.3  2.2 0.0 0.0 0.0       308
AFJ   9.440 1.00 Pg
AFJ  17.340 1.00 Sg
ANJ  36.080 0.00 Pn
DMV  15.400 1.00 Pg
DMV  27.640 1.00 Sg
FIR  20.880 1.00 Pg
GLO  31.060 1.00 Pg
GLO  56.460 1.00 Sg
GZV  22.220 1.00 Pg
GZV  40.040 1.00 Sg
KIA  28.760 1.00 Pg
KIA  51.350 1.00 Sg
LAS  26.810 0.00 Pg
MHD  20.580 1.00 Pg
PRN   9.170 1.00 Pg
PRN  17.670 1.00 Sg
RAZ  34.770 0.00 Pg
SHM  25.940 1.00 Pg
# 2006 06 11 09 46 23.100000 35.646 51.540  11.9  1.3 0.0 0.0 0.0       309
VRN  12.940 1.00 Pg
VRN  24.220 1.00 Sg
RAZ  25.560 1.00 Pg
FIR  19.130 1.00 Pg
DMV   8.330 1.00 Pg
AFJ   5.750 1.00 Pg
AFJ  10.530 1.00 Sg
DMV  15.270 1.00 Sg
FIR  33.710 1.00 Sg
# 2006 06 11 11 39 48.900000 35.746 52.127   5.3  1.5 0.0 0.0 0.0       310
AFJ   7.370 1.00 Pg
AFJ  13.120 1.00 Sg
DMV   4.060 1.00 Pg
DMV   7.380 1.00 Sg
FIR  10.670 1.00 Pg
FIR  18.070 1.00 Sg
SFB  26.150 1.00 Pg
SFB  45.490 1.00 Sg
VRN  16.360 1.00 Pg
VRN  28.400 1.00 Sg
# 2006 06 11 19 02 46.900000 35.558 52.617  12.3  1.8 0.0 0.0 0.0       311
AFJ  15.550 1.00 Pg
AFJ  26.870 1.00 Sg
DMV   9.480 1.00 Pg
DMV  17.000 1.00 Sg
FIR   3.790 1.00 Pg
FIR   6.770 1.00 Sg
RAZ  53.450 0.00 Pn
VRN  17.540 1.00 Pg
# 2006 06 12 07 05 23.800000 35.560 53.253  10.0  1.0 0.0 0.0 0.0       312
ANJ  11.060 1.00 Pg
LAS   6.460 1.00 Pg
SHM   5.540 1.00 Pg
SHM  10.100 1.00 Sg
# 2006 06 12 07 18 12.300000 35.552 53.250  10.0  1.3 0.0 0.0 0.0       313
ANJ  11.120 1.00 Pg
LAS   6.300 1.00 Pg
SHM   5.450 1.00 Pg
SHM  10.140 1.00 Sg
LAS  11.940 1.00 Sg
# 2006 06 12 07 24 00.700000 35.583 53.321  10.0  1.4 0.0 0.0 0.0       314
ANJ  10.070 1.00 Pg
LAS   7.450 1.00 Pg
SHM   4.980 1.00 Pg
SHM   9.820 1.00 Sg
LAS  13.330 1.00 Sg
# 2006 06 12 07 49 56.500000 35.624 51.489   8.0  1.7 0.0 0.0 0.0       315
AFJ   6.280 1.00 Pg
AFJ  11.260 1.00 Sg
ANJ  35.970 1.00 Pn
DMV   8.520 1.00 Pg
DMV  15.760 1.00 Sg
FIR  19.640 1.00 Pg
RAZ  24.550 1.00 Pg
SHM  27.940 1.00 Pg
VRN  13.270 1.00 Pg
FIR  33.820 1.00 Sg
SHM  48.130 0.00 Sg
# 2006 06 12 08 18 58.100000 35.711 52.142   7.0  1.5 0.0 0.0 0.0       316
AFJ   7.960 1.00 Pg
DMV   3.830 1.00 Pg
DMV   6.770 1.00 Sg
VRN  16.230 1.00 Pg
SFB  25.790 0.00 Pg
FIR  10.170 1.00 Pg
AFJ  14.040 1.00 Sg
# 2006 06 12 09 21 09.600000 35.541 53.239  10.0  1.3 0.0 0.0 0.0       317
ANJ  11.240 1.00 Pg
LAS   5.810 1.00 Pg
LAS  10.790 1.00 Sg
SHM   5.860 1.00 Pg
SHM  11.020 1.00 Sg
# 2006 06 13 08 48 45.000000 35.538 53.228  10.0  1.3 0.0 0.0 0.0       318
SHM   5.870 1.00 Pg
SHM  10.970 1.00 Sg
LAS   5.770 1.00 Pg
LAS  10.850 1.00 Sg
ANJ  11.140 1.00 Pg
# 2006 06 13 09 15 46.000000 35.618 51.464  10.4  1.3 0.0 0.0 0.0       319
AFJ   6.730 1.00 Pg
AFJ  12.330 1.00 Sg
DMV   9.340 1.00 Pg
DMV  17.220 1.00 Sg
FIR  20.350 1.00 Pg
VRN  12.900 1.00 Pg
# 2006 06 14 03 01 06.000000 35.707 52.421  15.4  1.4 0.0 0.0 0.0       320
AFJ  11.920 1.00 Pg
DMV   7.390 1.00 Pg
FIR   6.360 1.00 Pg
DMV  13.050 1.00 Sg
FIR  10.980 1.00 Sg
# 2006 06 14 09 16 23.300000 35.558 53.239   8.1  1.5 0.0 0.0 0.0       321
ANJ  11.010 1.00 Pg
AFJ  24.440 1.00 Pg
FIR   7.950 1.00 Pg
LAS   6.120 1.00 Pg
SHM   5.440 1.00 Pg
SHM  10.360 1.00 Sg
LAS  11.160 1.00 Sg
# 2006 06 15 07 54 04.100000 35.534 53.183  10.3  0.9 0.0 0.0 0.0       322
ANJ  11.780 1.00 Pg
FIR   7.510 1.00 Pg
LAS   5.200 1.00 Pg
SHM   6.100 1.00 Pg
SHM  10.780 1.00 Sg
LAS   9.220 1.00 Sg
FIR  13.690 1.00 Sg
# 2006 06 15 12 22 30.100000 36.171 52.703  10.0  1.8 0.0 0.0 0.0       323
DMV  16.400 1.00 Pg
FIR  10.530 1.00 Pg
GLO  18.610 1.00 Pg
KIA  14.150 1.00 Pg
PRN   7.650 1.00 Pg
SFB  35.320 0.50 Pn
SHM  11.130 1.00 Pg
VRN  27.980 0.50 Pg
GLO  36.150 1.00 Sg
KIA  27.190 1.00 Sg
PRN  14.010 1.00 Sg
DMV  29.860 1.00 Sg
# 2006 06 15 12 25 01.800000 35.922 53.523  15.8  1.3 0.0 0.0 0.0       324
ANJ  11.310 1.00 Pg
GLO  13.490 1.00 Pg
KIA   6.010 1.00 Pg
SHM   5.380 1.00 Pg
SHM  10.380 1.00 Sg
KIA  10.890 1.00 Sg
GLO  24.130 1.00 Sg
ANJ  19.630 1.00 Sg
FIR  13.550 1.00 Pg
DMV  25.530 0.00 Pg
# 2006 06 17 01 12 09.500000 36.070 53.605   7.3  2.0 0.0 0.0 0.0       325
ANJ  12.340 1.00 Pg
DMV  25.770 1.00 Pg
FIR  15.400 1.00 Pg
GLO  10.150 1.00 Pg
KIA   3.610 1.00 Pg
LAS  16.430 1.00 Pg
PRN  19.910 1.00 Pg
SHM   7.620 1.00 Pg
VRN  34.590 1.00 Pn
KIA   6.550 1.00 Sg
AFJ  29.900 1.00 Pg
SHM  13.940 1.00 Sg
# 2006 06 17 07 12 58.100000 35.555 53.224  10.0  1.2 0.0 0.0 0.0       326
ANJ  11.280 1.00 Pg
LAS   5.900 1.00 Pg
SHM   5.640 1.00 Pg
SHM  10.320 1.00 Sg
LAS  11.150 1.00 Sg
# 2006 06 17 07 57 49.000000 35.610 53.314  10.0  1.2 0.0 0.0 0.0       327
ANJ  10.120 1.00 Pg
FIR   8.810 1.00 Pg
LAS   7.620 1.00 Pg
SHM   4.550 1.00 Pg
SHM   8.750 1.00 Sg
ANJ  18.230 1.00 Sg
# 2006 06 17 08 18 43.900000 35.527 53.175  10.0  1.0 0.0 0.0 0.0       328
SHM   6.200 1.00 Pg
SHM  12.050 1.00 Sg
LAS   5.040 1.00 Pg
ANJ  12.180 1.00 Pg
LAS   9.510 1.00 Sg
# 2006 06 18 07 44 44.800000 35.561 53.238  14.9  1.2 0.0 0.0 0.0       329
SHM   5.760 1.00 Pg
LAS   6.440 1.00 Pg
FIR   8.470 1.00 Pg
SHM  10.600 1.00 Sg
ANJ  11.220 1.00 Pg
# 2006 06 18 11 11 30.200000 35.567 53.225  10.0  1.1 0.0 0.0 0.0       330
SHM   5.430 1.00 Pg
LAS   6.110 1.00 Pg
ANJ  11.270 1.00 Pg
SHM  10.250 1.00 Sg
LAS  10.710 1.00 Sg
# 2006 06 18 12 24 14.500000 36.411 53.935   4.0  1.6 0.0 0.0 0.0       331
ANJ  18.830 1.00 Pg
FIR  24.180 1.00 Pg
GLO   2.750 1.00 Pg
KIA   5.600 1.00 Pg
SHM  15.950 1.00 Pg
ANJ  31.240 1.00 Sg
KIA  10.600 1.00 Sg
SHM  27.390 1.00 Sg
GLO   6.290 1.00 Sg
# 2006 06 18 14 30 47.500000 36.368 53.688  10.0  1.2 0.0 0.0 0.0       332
GLO   4.080 1.00 Pg
KIA   3.840 1.00 Pg
SHM  12.700 1.00 Pg
KIA   7.840 1.00 Sg
SHM  23.040 1.00 Sg
GLO   9.580 1.00 Sg
# 2006 06 19 05 05 33.300000 35.719 52.676   4.3  1.5 0.0 0.0 0.0       333
AFJ  15.980 1.00 Pg
DMV  10.620 1.00 Pg
FIR   2.460 1.00 Pg
FIR   5.380 1.00 Sg
VRN  20.880 1.00 Pg
DMV  19.160 1.00 Sg
VRN  36.680 1.00 Sg
AFJ  29.400 1.00 Sg
# 2006 06 19 07 45 11.600000 35.528 53.151   3.6  0.9 0.0 0.0 0.0       334
ANJ  11.270 1.00 Pg
ANJ  20.890 1.00 Sg
LAS   4.210 1.00 Pg
LAS   6.630 1.00 Sg
SHM   5.190 1.00 Pg
SHM   9.630 1.00 Sg
# 2006 06 19 11 27 39.400000 36.251 52.768  29.2  2.2 0.0 0.0 0.0       335
ANJ  21.950 0.00 Pg
DMV  16.870 1.00 Pg
DMV  29.870 1.00 Sg
FIR  11.440 1.00 Pg
GLO  19.350 0.00 Pg
KIA  14.770 1.00 Pg
LAS  15.950 1.00 Pg
PRN   8.590 1.00 Pg
SFB  36.140 0.00 Pn
SHM  10.870 0.00 Pg
VRN  28.760 0.00 Pg
# 2006 06 20 10 04 34.500000 35.695 51.932   9.3  1.9 0.0 0.0 0.0       336
AFJ   5.750 1.00 Pg
DMV   3.600 1.00 Pg
FIR  13.150 1.00 Pg
MHD  19.400 1.00 Pg
SFB  25.470 1.00 Pg
VRN  14.000 1.00 Pg
DMV   6.760 1.00 Sg
AFJ  10.060 1.00 Sg
# 2006 06 20 10 10 55.700000 35.620 51.535   3.0  1.2 0.0 0.0 0.0       337
AFJ   5.680 1.00 Pg
AFJ  10.480 1.00 Sg
DMV   8.280 1.00 Pg
SFB  26.150 1.00 Pg
VRN  12.810 1.00 Pg
FIR  19.640 1.00 Pg
DMV  14.660 1.00 Sg
# 2006 06 20 10 34 46.700000 35.640 53.257  10.0  1.3 0.0 0.0 0.0       338
ANJ  11.220 1.00 Pg
LAS   7.380 1.00 Pg
SHM   4.180 1.00 Pg
SHM   6.540 1.00 Sg
ANJ  18.420 1.00 Sg
LAS  12.200 1.00 Sg
# 2006 06 20 10 55 35.200000 35.736 53.379  12.1  1.2 0.0 0.0 0.0       339
SHM   3.390 1.00 Pg
SHM   5.770 1.00 Sg
LAS   9.810 1.00 Pg
LAS  17.730 1.00 Sg
ANJ  10.240 1.00 Pg
ANJ  17.640 1.00 Sg
# 2006 06 20 11 49 32.600000 35.738 53.223  13.2  2.6 0.0 0.0 0.0       340
VRN  25.720 1.00 Pg
SFB  27.890 1.00 Pg
FIR   7.380 1.00 Pg
DMV  17.900 1.00 Pg
AFJ  22.170 1.00 Pg
# 2006 06 20 20 19 33.500000 37.051 50.430  18.0  2.3 0.0 0.0 0.0       341
AFJ  26.800 1.00 Pg
DMV  32.320 1.00 Pn
GLO  43.230 1.00 Pn
PRN  28.380 1.00 Pg
SHM  41.850 1.00 Pn
# 2006 06 20 21 53 27.000000 35.508 53.272  13.2  1.4 0.0 0.0 0.0       342
ANJ  10.530 1.00 Pg
LAS   6.270 1.00 Pg
SHM   6.550 1.00 Pg
LAS  10.860 1.00 Sg
# 2006 06 21 08 39 28.200000 35.510 53.252  23.4  1.2 0.0 0.0 0.0       343
ANJ  10.610 1.00 Pg
ANJ  18.050 1.00 Sg
LAS   6.350 1.00 Pg
LAS  10.630 1.00 Sg
SHM   6.460 1.00 Pg
SHM  11.470 1.00 Sg
VRN  23.410 1.00 Pg
# 2006 06 21 13 17 15.700000 37.353 52.749   5.0  2.5 0.0 0.0 0.0       344
ANJ  35.700 1.00 Pn
DMV  32.930 1.00 Pn
FIR  30.480 1.00 Pg
GLO  21.030 1.00 Pg
GLO  38.330 1.00 Sg
KIA  24.470 1.00 Pg
KIA  42.690 1.00 Sg
LAS  34.550 1.00 Pn
PRN  20.810 1.00 Pg
PRN  37.190 1.00 Sg
SHM  28.350 1.00 Pg
# 2006 06 21 14 09 16.500000 35.575 53.138  14.3  0.8 0.0 0.0 0.0       345
ANJ  12.640 1.00 Pg
ANJ  19.880 1.00 Sg
FIR   5.700 1.00 Pg
FIR  11.000 1.00 Sg
LAS   4.830 1.00 Pg
LAS   8.650 1.00 Sg
SHM   5.130 1.00 Pg
SHM   9.270 1.00 Sg
# 2006 06 21 20 00 46.100000 36.307 53.840  18.0  1.5 0.0 0.0 0.0       346
ANJ  15.300 1.00 Pg
ANJ  25.220 0.00 Sg
FIR  20.600 1.00 Pg
FIR  35.400 1.00 Sg
GLO   8.850 0.50 Pg
GLO  15.430 0.00 Sg
KIA   4.040 0.00 Pg
KIA   5.840 1.00 Sg
KIA   4.120 1.00 Pg
SHM  13.250 1.00 Pg
SHM  22.010 0.00 Sg
# 2006 06 21 21 11 40.300000 36.365 51.972  21.7  1.9 0.0 0.0 0.0       347
AFJ  10.150 1.00 Pg
ANJ  30.350 1.00 Pn
DMV  14.450 1.00 Pg
DMV  25.270 1.00 Sg
FIR  16.950 1.00 Pg
FIR  30.450 1.00 Sg
GLO  25.650 1.00 Pg
GLO  47.370 1.00 Sg
GZV  24.640 1.00 Pg
KIA  23.530 0.00 Pg
LAS  23.250 1.00 Pg
PRN   5.660 1.00 Pg
PRN  11.040 1.00 Sg
RAZ  33.120 0.00 Pn
SHM  21.260 1.00 Pg
SHM  37.750 1.00 Sg
VRN  23.990 1.00 Pg
# 2006 06 22 01 47 49.300000 35.141 51.544  24.7  1.8 0.0 0.0 0.0       348
AFJ  13.640 1.00 Pg
DMV  11.160 1.00 Pg
DMV  19.780 1.00 Sg
FIR  20.010 1.00 Pg
MHD  16.820 1.00 Pg
MHD  28.720 1.00 Sg
RAZ  31.880 0.00 Pg
RAZ  50.430 0.00 Sg
VRN   5.470 1.00 Pg
VRN   9.500 1.00 Sg
# 2006 06 22 02 57 17.400000 36.273 49.988   6.8  2.5 0.0 0.0 0.0       349
DMV  30.510 1.00 Pg
FIR  38.780 1.00 Pn
GZV   0.120 0.50 Pg
GZV   5.720 0.00 Sg
KLH  49.740 1.00 Pn
MHD  14.560 1.00 Pg
VRN  32.840 1.00 Pn
# 2006 06 22 06 46 50.700000 35.511 53.248  24.7  1.4 0.0 0.0 0.0       350
FIR   8.720 1.00 Pg
FIR  14.980 1.00 Sg
LAS   6.350 1.00 Pg
LAS  10.950 1.00 Sg
SHM   6.710 1.00 Pg
SHM  11.680 1.00 Sg
# 2006 06 22 11 14 26.000000 35.746 51.820  34.2  1.8 0.0 0.0 0.0       351
AFJ   5.990 1.00 Pg
AFJ  11.290 1.00 Sg
DMV   8.190 1.00 Pg
FIR  18.610 0.00 Pg
RAZ  29.730 1.00 Pg
SFB  26.260 1.00 Pg
VRN  12.980 0.50 Pg
VRN  24.820 1.00 Sg
# 2006 06 24 11 18 37.300000 36.139 52.794   3.7  1.8 0.0 0.0 0.0       352
VRN  26.570 1.00 Pg
SHM   9.280 1.00 Pg
SFB  33.800 0.00 Pn
PRN   6.500 0.00 Pg
LAS  13.780 1.00 Pg
KIA  12.840 1.00 Pg
GLO  16.710 1.00 Pg
FIR   9.360 1.00 Pg
DMV  14.860 1.00 Pg
ANJ  20.090 0.00 Pg
PRN  14.400 1.00 Sg
# 2006 06 24 15 59 41.600000 35.750 53.075   8.3  1.3 0.0 0.0 0.0       353
ANJ  13.040 1.00 Pg
ANJ  23.460 1.00 Sg
DMV  15.910 1.00 Pg
DMV  27.570 1.00 Sg
FIR   4.850 1.00 Pg
FIR   9.180 1.00 Sg
KIA  12.080 1.00 Pg
KIA  21.200 1.00 Sg
LAS   6.310 1.00 Pg
LAS  12.450 1.00 Sg
SFB  27.490 1.00 Pg
SHM   3.100 1.00 Pg
SHM   7.040 1.00 Sg
VRN  24.660 1.00 Pg
# 2006 06 24 19 36 53.900000 36.346 52.178  11.9  2.1 0.0 0.0 0.0       354
AFJ  10.800 1.00 Pg
AFJ  19.900 1.00 Sg
DMV  13.550 1.00 Pg
DMV  24.510 1.00 Sg
FIR  14.920 1.00 Pg
FIR  26.400 1.00 Sg
GLO  24.130 1.00 Pg
KIA  21.520 1.00 Pg
KIA  38.880 1.00 Sg
LAS  21.280 1.00 Pg
LAS  35.790 1.00 Sg
PRN   2.790 1.00 Pg
PRN   5.350 1.00 Sg
RAZ  40.380 0.00 Pn
SFB  34.330 1.00 Pn
SHM  19.280 1.00 Pg
SHM  32.710 1.00 Sg
# 2006 06 25 07 45 08.800000 35.567 53.242  24.8  1.1 0.0 0.0 0.0       355
ANJ  11.180 1.00 Pg
ANJ  18.760 1.00 Sg
LAS   6.590 1.00 Pg
LAS  11.690 1.00 Sg
SHM   5.780 1.00 Pg
SHM  10.480 1.00 Sg
# 2006 06 25 07 46 06.200000 35.617 53.094  22.2  1.1 0.0 0.0 0.0       356
ANJ  12.830 1.00 Pg
ANJ  19.720 1.00 Sg
LAS   5.790 1.00 Pg
LAS  10.270 1.00 Sg
SHM   5.840 1.00 Pg
SHM   9.900 1.00 Sg
# 2006 06 25 16 39 19.100000 36.131 53.110  23.0  1.2 0.0 0.0 0.0       357
ANJ  17.410 1.00 Pg
LAS  14.130 1.00 Pg
LAS  24.550 1.00 Sg
SHM   7.250 1.00 Pg
SHM  13.010 1.00 Sg
# 2006 06 26 12 51 56.800000 36.706 49.845   8.0  3.4 0.0 0.0 0.0       358
AFJ  32.260 1.00 Pg
AZR  54.060 1.00 Pn
BST  43.780 1.00 Pn
DMV  38.950 0.50 Pn
FIR  47.880 0.00 Pn
GLO  52.520 1.00 Pn
GZV   8.990 1.00 Pg
GZV  15.030 1.00 Sg
HSH  38.210 1.00 Pn
KIA  52.600 1.00 Pn
MHD  23.370 1.00 Pg
PRN  36.810 1.00 Pn
RAZ  38.570 0.00 Pg
SFB  50.950 1.00 Pn
SRB  37.900 1.00 Pn
VRN  41.640 0.50 Pn
CHTH 24.520 1.00 Pg
DAMV 37.420 1.00 Pn
ASAO 38.640 1.00 Pn
GRMI 43.410 0.00 Pn
SNGE 45.030 1.00 Pn
NASN 71.960 1.00 Pn
# 2006 06 27 00 35 49.400000 36.641 49.959  16.9  2.5 0.0 0.0 0.0       359
AFJ  27.500 1.00 Pg
DMV  33.080 1.00 Pn
FIR  42.240 0.00 Pn
GZV   3.930 0.00 Pg
GZV  11.430 1.00 Sg
MHD  17.930 0.00 Pg
MHD  34.990 1.00 Sg
RAZ  32.550 0.00 Pg
VRN  35.590 1.00 Pn
# 2006 06 27 09 27 42.100000 35.638 51.537  10.0  1.6 0.0 0.0 0.0       360
AFJ   5.810 1.00 Pg
AFJ  10.830 1.00 Sg
DMV   8.430 1.00 Pg
VRN  12.940 1.00 Pg
DMV  15.350 1.00 Sg
MHD  13.920 1.00 Pg
MHD  23.960 1.00 Sg
# 2006 06 27 09 59 37.800000 35.614 53.168  34.0  1.7 0.0 0.0 0.0       361
ANJ  12.590 1.00 Pg
LAS   7.500 1.00 Pg
LAS  13.260 1.00 Sg
SHM   6.960 1.00 Pg
SHM  11.720 1.00 Sg
# 2006 06 27 23 46 45.600000 35.090 51.470  17.6  2.2 0.0 0.0 0.0       362
AFJ  15.340 1.00 Pg
DMV  13.150 1.00 Pg
LAS  23.220 1.00 Pg
MHD  16.750 1.00 Pg
SHM  30.580 1.00 Pg
VRN   5.460 1.00 Pg
VRN   9.620 1.00 Sg
# 2006 06 28 16 21 44.900000 35.299 52.434  29.4  2.4 0.0 0.0 0.0       363
DMV   8.880 1.00 Pg
FIR   9.160 1.00 Pg
SFB  17.850 1.00 Pg
VRN  12.720 1.00 Pg
VRN  22.040 1.00 Sg
SFB  30.810 1.00 Sg
FIR  15.760 1.00 Sg
# 2006 06 30 23 53 51.100000 35.931 53.177   5.1  1.5 0.0 0.0 0.0       364
VRN  27.550 1.00 Pg
SHM   2.650 1.00 Pg
PRN  13.880 1.00 Pg
LAS  10.040 1.00 Pg
GLO  14.430 1.00 Pg
FIR   7.940 1.00 Pg
DMV  18.360 1.00 Pg
SHM   5.190 1.00 Sg
PRN  25.240 1.00 Sg
LAS  17.940 1.00 Sg
FIR  14.540 1.00 Sg
DMV  32.080 1.00 Sg
GLO  24.710 1.00 Sg
# 2006 07 02 09 34 08.500000 35.644 51.562   4.9  1.7 0.0 0.0 0.0       365
VRN  11.840 1.00 Pg
RAZ  25.620 1.00 Pg
DMV   7.040 1.00 Pg
AFJ   4.420 1.00 Pg
# 2006 07 02 14 57 25.100000 35.761 50.059  21.0  2.1 0.0 0.0 0.0       366
DMV  27.470 1.00 Pg
GZV  11.930 1.00 Pg
GZV  20.890 1.00 Sg
MHD   9.510 1.00 Pg
MHD  16.730 1.00 Sg
RAZ  10.100 0.00 Pg
RAZ  13.020 1.00 Sg
VRN  26.570 1.00 Pg
# 2006 07 02 17 17 58.500000 35.971 52.233  14.0  2.3 0.0 0.0 0.0       367
AFJ   7.540 0.00 Pg
AFJ  14.200 1.00 Sg
DMV   7.250 0.00 Pg
DMV  13.950 1.00 Sg
FIR   8.630 0.00 Pg
FIR  17.230 1.00 Sg
GLO  47.630 0.00 Pg
GLO  64.350 1.00 Sg
GZV  30.490 0.00 Pg
KIA  42.230 0.00 Pg
KIA  55.880 1.00 Sg
LAS  36.610 0.00 Pg
LAS  44.450 1.00 Sg
MHD  23.850 1.00 Pg
PRN  26.620 0.00 Pg
PRN  30.900 1.00 Sg
RAZ  49.060 0.00 Pn
SFB  28.140 1.00 Pg
SHM  36.540 0.00 Pg
SHM  45.940 1.00 Sg
VRN  18.990 1.00 Pg
VRN  33.350 1.00 Sg
# 2006 07 03 06 42 33.700000 35.547 53.187  27.8  1.0 0.0 0.0 0.0       368
ANJ  11.730 1.00 Pg
ANJ  20.270 1.00 Sg
LAS   6.340 1.00 Pg
LAS  11.140 1.00 Sg
SHM   6.610 1.00 Pg
SHM  11.470 1.00 Sg
# 2006 07 03 07 24 46.500000 35.362 52.031   2.0  1.9 0.0 0.0 0.0       369
AFJ   9.340 1.00 Pg
AFJ  16.700 1.00 Sg
DMV   3.130 1.00 Pg
DMV   6.950 1.00 Sg
FIR  11.570 1.00 Pg
FIR  21.150 1.00 Sg
MHD  20.550 1.00 Pg
MHD  36.210 1.00 Sg
SFB  17.940 1.00 Pg
SFB  32.060 1.00 Sg
VRN   7.930 1.00 Pg
VRN  13.570 1.00 Sg
# 2006 07 03 07 25 23.800000 35.496 52.038  18.9  1.7 0.0 0.0 0.0       370
ANJ  26.680 1.00 Pg
LAS  13.570 1.00 Pg
LAS  24.630 1.00 Sg
SHM  19.740 1.00 Pg
SHM  33.600 1.00 Sg
# 2006 07 03 08 09 41.400000 35.493 53.054  19.9  1.1 0.0 0.0 0.0       371
ANJ  12.960 1.00 Pg
ANJ  22.770 1.00 Sg
LAS   4.110 1.00 Pg
LAS   7.010 1.00 Sg
SHM   7.440 1.00 Pg
SHM  12.840 1.00 Sg
# 2006 07 03 09 29 48.400000 35.868 53.028   8.5  2.1 0.0 0.0 0.0       372
VRN  24.950 1.00 Pg
VRN  42.570 1.00 Sg
SFB  29.180 1.00 Pg
FIR   5.720 1.00 Pg
FIR  10.400 1.00 Sg
DMV  15.400 1.00 Pg
DMV  27.150 1.00 Sg
AFJ  19.200 1.00 Pg
# 2006 07 03 09 30 28.400000 35.870 52.792   8.9  1.7 0.0 0.0 0.0       373
ANJ  17.380 1.00 Pg
SHM   6.640 0.00 Pg
PRN  10.600 1.00 Pg
LAS   9.020 1.00 Pg
LAS  16.220 1.00 Sg
GLO  21.070 1.00 Pg
KIA  14.330 1.00 Pg
SHM  13.340 1.00 Sg
# 2006 07 03 11 57 57.100000 36.120 52.720  34.9  1.7 0.0 0.0 0.0       374
ANJ  22.680 1.00 Pg
ANJ  36.940 1.00 Sg
DMV  -23.390 0.00 Pg
FIR  -29.620 0.00 Pg
KIA  15.130 1.00 Pg
KIA  26.470 1.00 Sg
PRN   8.830 1.00 Pg
PRN  16.250 1.00 Sg
SFB  -5.930 0.00 Pn
SHM  11.680 1.00 Pg
SHM  20.360 1.00 Sg
VRN  -12.470 0.00 Pg
# 2006 07 03 14 22 02.000000 35.924 53.205   9.7  2.1 0.0 0.0 0.0       375
ANJ  13.160 1.00 Pg
ANJ  23.160 1.00 Sg
DMV  12.980 0.00 Pg
FIR   2.740 0.00 Pg
GLO  14.790 1.00 Pg
GLO  23.550 1.00 Sg
KIA   8.580 1.00 Pg
LAS  11.250 1.00 Pg
LAS  17.550 1.00 Sg
PRN  15.070 1.00 Pg
PRN  26.460 1.00 Sg
SFB  24.920 0.00 Pg
SHM   2.970 1.00 Pg
SHM   5.270 1.00 Sg
VRN  22.130 0.00 Pg
# 2006 07 03 16 21 57.700000 35.906 52.153   5.0  2.0 0.0 0.0 0.0       376
AFJ   0.280 0.00 Pg
ANJ  26.990 1.00 Pg
DMV   0.010 0.00 Pg
FIR   1.470 0.00 Pg
GLO  27.800 1.00 Pg
LAS  16.180 1.00 Pg
LAS  26.040 1.00 Sg
PRN   6.240 1.00 Pg
PRN  10.980 1.00 Sg
SFB  21.560 0.00 Pg
SHM  16.440 1.00 Pg
SHM  28.340 1.00 Sg
VRN  11.940 0.00 Pg
# 2006 07 04 07 21 35.900000 35.492 53.096   2.5  1.5 0.0 0.0 0.0       377
ANJ  11.870 1.00 Pg
ANJ  20.970 1.00 Sg
LAS   2.900 1.00 Pg
LAS   4.880 1.00 Sg
SHM   6.390 1.00 Pg
SHM  10.970 1.00 Sg
# 2006 07 04 12 46 46.900000 35.850 50.114  26.8  2.3 0.0 0.0 0.0       378
AFJ  23.570 1.00 Pg
DMV  27.950 0.00 Pg
MHD   8.480 0.00 Pg
RAZ   9.400 1.00 Pg
SFB  36.320 1.00 Pn
VRN  25.850 1.00 Pg
GZV  10.670 1.00 Pg
# 2006 07 04 16 45 39.800000 35.622 53.157   3.8  1.6 0.0 0.0 0.0       379
AFJ  22.340 0.00 Pg
ANJ  11.550 1.00 Pg
DMV  16.460 1.00 Pg
FIR   5.670 1.00 Pg
GLO   3.710 0.00 Pg
KIA  13.240 1.00 Pg
LAS   5.290 1.00 Pg
SFB  27.380 1.00 Pg
SHM   2.910 0.00 Pg
VRN  25.080 1.00 Pg
DMV  29.090 1.00 Sg
PRN  17.170 1.00 Pg
FIR  10.510 1.00 Sg
KIA  23.000 1.00 Sg
SHM   6.570 1.00 Sg
# 2006 07 05 09 52 39.300000 35.922 53.200   9.3  2.5 0.0 0.0 0.0       380
AFJ  22.620 1.00 Pg
ANJ  13.950 1.00 Pg
DMV  19.480 1.00 Pg
FIR   9.300 1.00 Pg
FIR  16.080 1.00 Sg
GLO  15.500 1.00 Pg
GZV  44.750 0.00 Pn
KIA   9.520 1.00 Pg
LAS  11.420 1.00 Pg
PRN  15.680 1.00 Pg
SFB  31.910 1.00 Pg
SHM   3.610 1.00 Pg
SHM   6.450 1.00 Sg
VRN  28.800 1.00 Pg
# 2006 07 05 15 08 56.200000 35.461 53.155  21.8  2.0 0.0 0.0 0.0       381
FIR   7.570 1.00 Pg
FIR  13.700 1.00 Sg
LAS   3.210 0.00 Pg
LAS   8.250 1.00 Sg
SFB  24.940 1.00 Pg
SFB  41.900 1.00 Sg
SHM   7.450 1.00 Pg
SHM  12.930 1.00 Sg
