# 2006 07 06 11 24 49.200000 35.560 53.135  17.8  1.0 0.0 0.0 0.0       382
ANJ  11.890 1.00 Pg
ANJ  20.750 1.00 Sg
LAS   5.270 1.00 Pg
LAS   8.690 1.00 Sg
SHM   5.740 1.00 Pg
SHM  10.120 1.00 Sg
# 2006 07 06 13 48 30.200000 36.337 53.240  22.4  1.4 0.0 0.0 0.0       383
ANJ  19.000 1.00 Pg
DMV  22.870 1.00 Pg
GLO  10.150 1.00 Pg
GLO  17.390 1.00 Sg
KIA   6.690 1.00 Pg
KIA  13.330 1.00 Sg
PRN  14.730 1.00 Pg
PRN  26.110 1.00 Sg
SHM   9.850 1.00 Pg
SHM  18.150 1.00 Sg
# 2006 07 06 16 21 17.400000 34.203 52.911   5.0  1.8 0.0 0.0 0.0       384
ZEF  27.940 1.00 Pg
VRN  24.630 1.00 Pg
SFB  11.440 1.00 Pg
LAS  23.690 1.00 Pg
FIR  27.140 1.00 Pg
DMV  29.220 1.00 Pg
ZEF  47.160 1.00 Sg
# 2006 07 08 07 24 56.800000 35.552 53.144  25.5  0.8 0.0 0.0 0.0       385
SHM   6.540 1.00 Pg
LAS   5.890 1.00 Pg
ANJ  12.160 1.00 Pg
SHM  11.400 1.00 Sg
LAS  10.090 1.00 Sg
# 2006 07 08 07 31 29.000000 35.572 53.187  31.5  0.4 0.0 0.0 0.0       386
ANJ  12.040 1.00 Pg
LAS   7.150 1.00 Pg
LAS  12.130 1.00 Sg
SHM   6.770 1.00 Pg
SHM  11.910 1.00 Sg
# 2006 07 08 09 36 17.800000 35.732 51.869  13.5  1.9 0.0 0.0 0.0       387
AFJ   3.650 1.00 Pg
AFJ   6.910 1.00 Sg
DMV   4.410 1.00 Pg
DMV   7.390 1.00 Sg
VRN  13.730 1.00 Pg
VRN  23.410 1.00 Sg
# 2006 07 09 07 46 58.100000 35.465 53.051  21.5  0.9 0.0 0.0 0.0       388
ANJ  13.300 1.00 Pg
ANJ  22.700 1.00 Sg
LAS   3.920 1.00 Pg
LAS   7.060 1.00 Sg
SHM   7.860 1.00 Pg
SHM  13.680 1.00 Sg
# 2006 07 09 07 48 40.400000 35.641 53.049  24.9  0.9 0.0 0.0 0.0       389
SHM   6.100 1.00 Pg
SHM  10.800 1.00 Sg
LAS   6.490 1.00 Pg
ANJ  13.720 1.00 Pg
LAS  10.930 1.00 Sg
# 2006 07 09 09 33 09.200000 35.683 51.468  12.5  1.9 0.0 0.0 0.0       390
VRN  12.830 1.00 Pg
VRN  22.990 1.00 Sg
SHM  26.550 1.00 Pg
MHD  11.960 1.00 Pg
DMV   7.840 0.00 Pg
AFJ   5.220 1.00 Pg
AFJ   9.120 1.00 Sg
DMV  15.020 1.00 Sg
# 2006 07 09 11 29 05.700000 36.498 52.747   2.8  1.9 0.0 0.0 0.0       391
VRN  30.860 1.00 Pg
SHM  14.430 1.00 Pg
SHM  25.830 1.00 Sg
FIR  14.170 0.00 Pg
DMV  19.710 1.00 Pg
ANJ  24.910 0.00 Pg
DMV  33.870 1.00 Sg
LAS  19.130 0.00 Pg
# 2006 07 10 07 57 13.200000 35.481 53.094  19.1  3.0 0.0 0.0 0.0       392
ANJ  12.760 1.00 Pg
ANJ  21.480 1.00 Sg
LAS   3.970 1.00 Pg
LAS   7.290 1.00 Sg
SHM   7.230 1.00 Pg
SHM  12.630 1.00 Sg
# 2006 07 11 07 43 54.000000 35.447 53.359   2.0  1.1 0.0 0.0 0.0       393
ANJ   8.140 1.00 Pg
LAS   5.940 1.00 Pg
LAS  10.600 1.00 Sg
SHM   6.940 1.00 Pg
SHM  11.040 1.00 Sg
# 2006 07 11 07 52 30.200000 36.557 49.757   6.9  2.0 0.0 0.0 0.0       394
RAZ  23.890 0.00 Pg
GZV  12.960 1.00 Sg
GZV   9.220 0.00 Pg
MHD  20.490 1.00 Pg
MHD  36.170 1.00 Sg
DMV  36.170 1.00 Pn
# 2006 07 11 09 00 54.000000 36.239 52.429   7.5  1.8 0.0 0.0 0.0       395
AFJ  12.710 1.00 Pg
DMV  13.870 1.00 Pg
DMV  24.110 1.00 Sg
FIR  12.220 1.00 Pg
FIR  20.980 1.00 Sg
GLO  21.770 1.00 Pg
GLO  36.870 1.00 Sg
KIA  19.050 1.00 Pg
KIA  30.850 1.00 Sg
LAS  17.430 1.00 Pg
LAS  29.090 1.00 Sg
PRN   2.390 1.00 Pg
PRN   4.890 1.00 Sg
SFB  19.960 0.00 Pn
SHM  14.720 1.00 Pg
SHM  26.000 1.00 Sg
VRN  25.580 0.00 Pg
# 2006 07 11 12 13 23.800000 35.713 51.886  24.8  1.6 0.0 0.0 0.0       396
VRN  15.910 1.00 Pg
FIR  14.890 1.00 Pg
DMV   5.210 1.00 Pg
AFJ   5.180 1.00 Pg
AFJ   9.300 1.00 Sg
DMV   8.770 1.00 Sg
# 2006 07 11 22 58 54.500000 36.343 51.535  11.2  2.1 0.0 0.0 0.0       397
AFJ   9.230 1.00 Pg
AFJ  16.130 1.00 Sg
DMV  15.720 1.00 Pg
DMV  27.160 1.00 Sg
GZV  19.210 1.00 Pg
GZV  33.330 1.00 Sg
KIA  29.980 1.00 Pg
LAS  26.840 1.00 Pg
PRN  10.610 1.00 Pg
PRN  18.450 1.00 Sg
RAZ  34.010 0.00 Pg
VRN  24.890 1.00 Pg
# 2006 07 12 10 27 00.100000 35.716 51.616  34.1  1.8 0.0 0.0 0.0       398
AFJ   6.240 1.00 Pg
AFJ  10.740 1.00 Sg
DMV   8.650 1.00 Pg
DMV  14.510 1.00 Sg
VRN  13.680 1.00 Pg
VRN  24.970 1.00 Sg
# 2006 07 13 07 49 49.100000 35.584 53.242  23.3  0.7 0.0 0.0 0.0       399
ANJ  10.480 1.00 Pg
ANJ  18.980 1.00 Sg
DMV  18.780 1.00 Pg
DMV  31.740 1.00 Sg
FIR   7.520 1.00 Pg
FIR  13.880 1.00 Sg
SHM   4.980 1.00 Pg
SHM  10.120 1.00 Sg
# 2006 07 13 10 41 54.300000 36.242 52.783   5.0  1.7 0.0 0.0 0.0       400
AFJ  17.390 1.00 Pg
ANJ  21.170 1.00 Pg
DMV  16.380 1.00 Pg
DMV  28.500 1.00 Sg
FIR  10.280 1.00 Pg
FIR  18.830 1.00 Sg
KIA  13.880 1.00 Pg
KIA  22.840 1.00 Sg
PRN   7.480 1.00 Pg
SFB  35.140 0.50 Pn
SHM  10.350 1.00 Pg
SHM  19.030 1.00 Sg
VRN  24.600 0.00 Pg
# 2006 07 13 15 13 01.700000 35.744 51.962   9.7  1.6 0.0 0.0 0.0       401
AFJ   4.400 1.00 Pg
ANJ  28.100 1.00 Pg
DMV   2.420 0.50 Pg
DMV   5.560 1.00 Sg
FIR  11.210 1.00 Pg
FIR  21.430 1.00 Sg
PRN  10.340 1.00 Pg
RAZ  44.620 0.00 Pg
SFB  25.600 1.00 Pg
SHM  19.320 1.00 Pg
VRN  14.240 1.00 Pg
VRN  24.580 1.00 Sg
# 2006 07 14 21 59 22.200000 36.170 53.796   0.0  2.8 0.0 0.0 0.0       402
VRN  36.720 0.00 Pn
SHM   9.480 1.00 Pg
SFR  58.570 0.00 Pn
RAZ  62.180 0.00 Pn
PRN  21.870 0.00 Pg
MYA  79.380 0.00 Pn
KRD  73.850 0.00 Pn
KIA   1.750 1.00 Pg
GLO   7.180 0.00 Pg
FIR  17.700 1.00 Pg
DMV  27.530 1.00 Pg
CHK  61.670 1.00 Pn
BAF  74.020 0.00 Pn
ANJ  12.900 1.00 Pg
AFJ  31.000 1.00 Pg
SHM  17.780 1.00 Sg
ANJ  22.220 1.00 Sg
FIR  30.820 1.00 Sg
PRN  39.170 1.00 Sg
MEH  73.040 1.00 Pn
KIA   3.490 1.00 Sg
# 2006 07 15 08 59 06.700000 35.627 51.426  20.3  1.5 0.0 0.0 0.0       403
AFJ   6.620 1.00 Pg
AFJ  11.760 1.00 Sg
DMV   9.540 1.00 Pg
DMV  16.500 1.00 Sg
VRN  12.680 1.00 Pg
VRN  21.760 1.00 Sg
# 2006 07 15 18 59 45.000000 36.903 50.504   5.0  2.6 0.0 0.0 0.0       404
AFJ  25.470 1.00 Pg
DMV  32.240 1.00 Pn
FIR  38.540 0.50 Pn
GZV  10.190 1.00 Pg
GZV  17.730 1.00 Sg
MHD  21.950 1.00 Pg
MHD  38.430 1.00 Sg
PRN  27.960 1.00 Pg
RAZ  32.910 0.00 Pg
SHM  38.580 0.00 Pn
VRN  36.380 1.00 Pn
# 2006 07 15 23 51 56.800000 36.028 52.256  19.5  1.2 0.0 0.0 0.0       405
AFJ   9.240 1.00 Pg
DMV   9.190 1.00 Pg
DMV  16.330 1.00 Sg
FIR  10.030 1.00 Pg
FIR  17.970 1.00 Sg
PRN   4.910 1.00 Pg
PRN   8.650 1.00 Sg
SHM  28.240 1.00 Sg
# 2006 07 16 08 13 01.000000 35.955 53.379  15.6  1.4 0.0 0.0 0.0       406
ANJ  12.080 1.00 Pg
ANJ  20.440 1.00 Sg
LAS  12.510 1.00 Pg
LAS  20.930 1.00 Sg
SHM   3.730 1.00 Pg
SHM   6.810 1.00 Sg
# 2006 07 16 09 09 55.100000 35.599 53.239  28.9  1.0 0.0 0.0 0.0       407
ANJ  11.330 1.00 Pg
ANJ  19.430 1.00 Sg
LAS   7.480 1.00 Pg
LAS  12.960 1.00 Sg
SHM   6.050 1.00 Pg
SHM  10.590 1.00 Sg
# 2006 07 16 16 33 24.200000 35.747 53.703  18.0  1.8 0.0 0.0 0.0       408
ANJ   6.550 1.00 Pg
DMV  24.920 1.00 Pg
FIR  14.460 1.00 Pg
KIA   8.810 1.00 Pg
LAS  13.190 1.00 Pg
SFB  32.520 0.00 Pn
SHM   6.200 1.00 Pg
VRN  32.180 0.00 Pg
FIR  26.380 1.00 Sg
KIA  16.490 1.00 Sg
AFJ  29.800 0.00 Pg
# 2006 07 17 06 49 28.400000 36.389 53.065   4.7  1.7 0.0 0.0 0.0       409
GLO  11.610 1.00 Pg
KIA   9.590 1.00 Pg
KIA  16.350 1.00 Sg
LAS  18.160 1.00 Pg
LAS  31.520 1.00 Sg
PRN  12.200 1.00 Pg
PRN  21.280 1.00 Sg
SHM  10.250 1.00 Pg
SHM  18.770 1.00 Sg
# 2006 07 17 08 04 01.400000 35.537 53.177  28.3  1.0 0.0 0.0 0.0       410
ANJ  11.300 1.00 Pg
ANJ  20.900 1.00 Sg
LAS   6.620 1.00 Pg
LAS  10.740 1.00 Sg
SHM   7.240 1.00 Pg
SHM  12.050 1.00 Sg
# 2006 07 18 06 35 46.900000 35.522 53.201  14.1  1.0 0.0 0.0 0.0       411
SHM   6.440 1.00 Pg
LAS   5.550 1.00 Pg
ANJ  11.540 1.00 Pg
SHM  11.220 1.00 Sg
# 2006 07 18 21 37 41.900000 35.504 52.548  18.0  0.9 0.0 0.0 0.0       412
SHM  12.730 1.00 Pg
FIR   4.510 1.00 Pg
DMV   7.950 1.00 Pg
SHM  22.510 1.00 Sg
FIR   7.970 1.00 Sg
DMV  14.750 1.00 Sg
# 2006 07 19 09 57 21.800000 35.708 51.427  30.4  1.8 0.0 0.0 0.0       413
AFJ   6.980 1.00 Pg
AFJ  12.180 1.00 Sg
VRN  14.310 1.00 Pg
VRN  24.990 1.00 Sg
FIR  19.670 1.00 Pg
FIR  34.830 1.00 Sg
DMV   9.610 0.00 Pg
SHM  25.170 1.00 Pg
# 2006 07 19 11 51 30.400000 36.269 52.849   0.7  1.9 0.0 0.0 0.0       414
DMV  16.890 1.00 Pg
FIR  10.720 0.00 Pg
GLO  18.610 1.00 Pg
KIA  14.010 0.00 Pg
LAS  15.980 1.00 Pg
PRN   7.880 0.00 Pg
SFB  35.710 0.00 Pn
SHM  10.940 1.00 Pg
AFJ  18.450 1.00 Pg
ANJ  21.670 1.00 Pg
VRN  28.670 1.00 Pg
PRN  15.320 1.00 Sg
SHM  17.920 1.00 Sg
# 2006 07 19 14 43 19.200000 35.619 51.583  31.7  1.8 0.0 0.0 0.0       415
AFJ   6.820 1.00 Pg
DMV   8.290 1.00 Pg
SFB  25.340 1.00 Pg
VRN  12.310 1.00 Pg
SFB  43.680 1.00 Sg
DMV  14.490 1.00 Sg
AFJ  12.120 1.00 Sg
# 2006 07 19 15 24 38.800000 35.613 53.174  32.4  1.0 0.0 0.0 0.0       416
ANJ  12.390 1.00 Pg
LAS   7.400 1.00 Pg
SHM   6.610 1.00 Pg
SHM  11.330 1.00 Sg
LAS  12.900 1.00 Sg
# 2006 07 20 09 10 46.900000 35.732 52.166   5.3  1.8 0.0 0.0 0.0       417
AFJ   7.070 1.00 Pg
AFJ  12.230 1.00 Sg
DMV   3.400 1.00 Pg
DMV   6.140 1.00 Sg
FIR   8.960 1.00 Pg
FIR  15.320 1.00 Sg
LAS  13.260 1.00 Pg
LAS  22.920 1.00 Sg
SFB  25.810 1.00 Pg
SHM  16.590 1.00 Pg
SHM  28.710 1.00 Sg
VRN  14.850 1.00 Pg
VRN  25.620 1.00 Sg
# 2006 07 21 06 59 03.700000 35.938 53.213   5.2  1.5 0.0 0.0 0.0       418
GLO  14.100 1.00 Pg
KIA   8.290 1.00 Pg
LAS  10.580 1.00 Pg
SHM   2.430 1.00 Pg
ANJ  12.740 1.00 Pg
VRN  27.880 1.00 Pg
PRN  14.320 1.00 Pg
FIR   8.440 1.00 Pg
DMV  18.710 1.00 Pg
SHM   4.710 1.00 Sg
KIA  15.330 1.00 Sg
FIR  15.560 1.00 Sg
DMV  32.530 1.00 Sg
LAS  18.760 1.00 Sg
PRN  25.920 1.00 Sg
# 2006 07 21 09 34 59.000000 35.590 53.312   8.6  1.4 0.0 0.0 0.0       419
VRN  26.120 1.00 Pg
SHM   3.690 1.00 Pg
SFB  27.680 1.00 Pg
LAS   6.260 1.00 Pg
FIR   7.900 1.00 Pg
ANJ   8.960 1.00 Pg
LAS  11.900 1.00 Sg
SHM   7.930 1.00 Sg
ANJ  16.320 1.00 Sg
# 2006 07 21 17 15 42.100000 35.571 52.699  21.4  1.0 0.0 0.0 0.0       420
LAS   6.160 1.00 Pg
FIR   3.890 1.00 Pg
DMV  10.550 1.00 Pg
FIR   6.680 1.00 Sg
LAS  10.760 1.00 Sg
VRN  31.290 1.00 Sg
DMV  17.850 1.00 Sg
# 2006 07 21 18 46 47.000000 36.238 53.348  18.0  1.3 0.0 0.0 0.0       421
SHM   8.330 1.00 Pg
FIR  14.080 1.00 Pg
DMV  22.760 1.00 Pg
# 2006 07 21 21 08 39.700000 36.341 53.962  18.0  1.1 0.0 0.0 0.0       422
GLO   4.360 1.00 Pg
KIA   5.220 1.00 Pg
SHM  14.190 1.00 Pg
GLO   8.180 1.00 Sg
KIA   9.000 1.00 Sg
SHM  24.810 1.00 Sg
# 2006 07 22 07 48 51.400000 35.585 53.110  21.9  0.9 0.0 0.0 0.0       423
ANJ  12.210 1.00 Pg
ANJ  21.910 1.00 Sg
LAS   5.720 1.00 Pg
LAS   9.800 1.00 Sg
SHM   6.050 1.00 Pg
SHM  10.290 1.00 Sg
# 2006 07 23 06 59 02.300000 36.162 51.540   6.5  2.2 0.0 0.0 0.0       424
AFJ   5.270 1.00 Pg
AFJ  10.790 1.00 Sg
DMV  12.850 1.00 Pg
DMV  22.910 1.00 Sg
GLO  32.230 1.00 Pn
KIA  30.700 1.00 Pg
MHD  14.240 0.00 Pg
MHD  26.100 1.00 Sg
PRN  10.350 1.00 Pg
PRN  18.930 1.00 Sg
RAZ  27.550 1.00 Pg
VRN  21.160 1.00 Pg
VRN  35.960 1.00 Sg
# 2006 07 23 07 03 56.700000 35.639 53.023  24.7  1.1 0.0 0.0 0.0       425
ANJ  13.990 1.00 Pg
LAS   6.200 1.00 Pg
LAS  10.700 1.00 Sg
SHM   6.340 1.00 Pg
SHM  11.060 1.00 Sg
# 2006 07 23 09 44 13.000000 35.467 53.039  18.7  1.1 0.0 0.0 0.0       426
ANJ  13.220 1.00 Pg
ANJ  22.900 1.00 Sg
LAS   3.710 1.00 Pg
LAS   6.170 1.00 Sg
SHM   7.650 1.00 Pg
SHM  13.530 1.00 Sg
# 2006 07 23 09 58 56.200000 35.548 53.251   5.0  1.2 0.0 0.0 0.0       427
VRN  25.850 1.00 Pg
SHM   5.540 1.00 Pg
LAS   5.900 1.00 Pg
FIR   8.250 1.00 Pg
ANJ  10.960 1.00 Pg
DMV  19.730 1.00 Pg
FIR  14.910 1.00 Sg
SHM  10.220 1.00 Sg
# 2006 07 23 11 01 10.100000 34.426 52.349  16.4  2.0 0.0 0.0 0.0       428
ANJ  28.680 1.00 Pg
DMV  21.290 1.00 Pg
DMV  36.970 1.00 Sg
FIR  22.900 1.00 Pg
FIR  39.320 1.00 Sg
LAS  19.680 1.00 Pg
LAS  34.260 1.00 Sg
SFB   3.120 1.00 Pg
SFB   5.960 1.00 Sg
SHM  27.510 1.00 Pg
VRN  14.200 1.00 Pg
VRN  23.340 1.00 Sg
# 2006 07 23 11 13 08.200000 36.270 53.196   2.7  1.9 0.0 0.0 0.0       429
FIR  13.120 1.00 Pg
DMV  20.890 1.00 Pg
VRN  54.460 1.00 Sg
VRN  31.440 1.00 Pg
FIR  22.540 1.00 Sg
# 2006 07 23 11 20 39.800000 35.162 52.587  18.0  1.8 0.0 0.0 0.0       430
FIR   9.620 1.00 Pg
VRN  23.250 1.00 Sg
DMV  10.850 1.00 Pg
DMV  19.970 1.00 Sg
# 2006 07 23 11 26 08.000000 35.699 51.438  29.4  1.3 0.0 0.0 0.0       431
VRN  14.040 1.00 Pg
FIR  20.090 1.00 Pg
AFJ   6.850 1.00 Pg
VRN  24.640 1.00 Sg
SFB  27.210 1.00 Pg
SFB  47.350 1.00 Sg
MHD  21.300 1.00 Sg
MHD  14.780 0.00 Pg
FIR  34.450 1.00 Sg
DMV   9.150 0.00 Pg
# 2006 07 23 14 38 19.000000 34.817 52.865  28.8  1.8 0.0 0.0 0.0       432
VRN  17.620 1.00 Pg
SHM  19.260 1.00 Pg
SFB  13.150 1.00 Pg
LAS  11.400 1.00 Pg
FIR  15.750 1.00 Pg
DMV  18.840 1.00 Pg
ANJ  19.970 1.00 Pg
SFB  23.210 1.00 Sg
# 2006 07 23 17 17 01.200000 35.358 52.532   6.0  2.7 0.0 0.0 0.0       433
VRN  13.610 1.00 Pg
MHD  28.190 1.00 Pg
LAS   6.620 1.00 Pg
FIR   6.160 1.00 Pg
ANJ  20.350 1.00 Pg
VRN  23.190 1.00 Sg
DMV   8.880 0.00 Pg
SHM  13.820 1.00 Pg
AFJ  15.030 1.00 Pg
AFJ  26.350 1.00 Sg
ANJ  35.690 1.00 Sg
DMV  14.800 1.00 Sg
FIR  10.620 1.00 Sg
LAS  11.280 1.00 Sg
RAZ  35.970 1.00 Pn
SHM  23.900 1.00 Sg
# 2006 07 24 04 17 59.900000 36.478 51.468  13.4  1.8 0.0 0.0 0.0       434
AFJ  12.060 1.00 Pg
AFJ  20.800 1.00 Sg
DMV  18.260 1.00 Pg
DMV  31.640 1.00 Sg
FIR  24.200 1.00 Pg
FIR  41.740 1.00 Sg
GZV  20.050 1.00 Pg
RAZ  31.340 0.00 Pg
# 2006 07 24 05 22 04.200000 35.633 53.050  29.1  0.9 0.0 0.0 0.0       435
SHM   6.740 1.00 Pg
SHM  11.580 1.00 Sg
LAS   6.640 1.00 Pg
LAS  11.580 1.00 Sg
ANJ  13.860 1.00 Pg
# 2006 07 24 07 08 22.400000 35.555 53.155  24.9  0.9 0.0 0.0 0.0       436
ANJ  12.090 1.00 Pg
ANJ  20.620 1.00 Sg
LAS   5.670 1.00 Pg
LAS   9.910 1.00 Sg
SHM   6.370 1.00 Pg
SHM  11.070 1.00 Sg
# 2006 07 24 08 14 41.800000 35.591 53.194  35.9  1.0 0.0 0.0 0.0       437
SHM   7.300 1.00 Pg
SHM  12.380 1.00 Sg
LAS   7.710 1.00 Pg
LAS  13.530 1.00 Sg
ANJ  12.320 1.00 Pg
# 2006 07 24 08 25 00.500000 36.303 51.586  27.3  1.4 0.0 0.0 0.0       438
VRN  22.410 1.00 Pg
DMV  15.970 1.00 Pg
FIR  20.420 1.00 Pg
# 2006 07 24 09 15 40.900000 35.563 53.163  29.9  0.9 0.0 0.0 0.0       439
SHM   6.690 1.00 Pg
SHM  11.830 1.00 Sg
LAS   6.630 1.00 Pg
LAS  11.290 1.00 Sg
ANJ  12.140 1.00 Pg
# 2006 07 24 12 48 02.300000 35.262 52.274  16.7  1.3 0.0 0.0 0.0       440
ANJ  24.400 1.00 Pg
DMV   6.330 1.00 Pg
DMV  12.610 1.00 Sg
FIR   9.640 1.00 Pg
FIR  17.720 1.00 Sg
LAS  10.890 1.00 Pg
RAZ  45.940 0.00 Pn
SFB  16.540 1.00 Pg
SFB  28.080 1.00 Sg
SHM  18.130 1.00 Pg
SHM  31.750 1.00 Sg
VRN   9.550 1.00 Pg
VRN  17.870 1.00 Sg
# 2006 07 24 16 01 12.400000 35.292 52.236   5.0  1.8 0.0 0.0 0.0       441
AFJ  12.190 1.00 Pg
DMV   5.830 1.00 Pg
FIR   9.760 1.00 Pg
GLO  32.980 0.50 Pg
KIA  28.330 1.00 Pg
LAS  10.660 1.00 Pg
RAZ  33.700 0.50 Pn
SFB  16.370 1.00 Pg
SHM  17.790 1.00 Pg
VRN   9.260 1.00 Pg
DMV  12.210 1.00 Sg
FIR  19.000 1.00 Sg
ANJ  24.210 0.50 Pg
LAS  19.060 1.00 Sg
SFB  29.670 1.00 Sg
VRN  16.810 1.00 Sg
# 2006 07 24 21 26 44.600000 35.304 50.460   3.2  2.8 0.0 0.0 0.0       442
AFJ  20.430 1.00 Pg
BST  57.250 1.00 Pn
DMV  22.890 1.00 Pg
FIR  32.730 1.00 Pn
GZV  19.450 1.00 Pg
HSH  51.270 1.00 Pn
KLH  36.720 1.00 Pn
MHD   7.600 1.00 Pg
PIR  45.460 0.50 Pn
RAZ  16.460 0.00 Pg
VRN  19.370 1.00 Pg
ZEF  46.750 1.00 Pn
VRN  33.930 1.00 Sg
PRN  31.410 1.00 Pg
SHM  39.190 1.00 Pn
LAS  34.550 1.00 Pn
KIA  45.160 1.00 Pn
GLO  47.790 1.00 Pn
GZV  34.510 1.00 Sg
MHD  13.980 1.00 Sg
DMV  41.720 1.00 Sg
AFJ  36.490 1.00 Sg
# 2006 07 25 00 06 52.300000 35.685 52.774   1.5  0.9 0.0 0.0 0.0       443
DMV  10.820 1.00 Pg
DMV  19.660 1.00 Sg
FIR   0.390 1.00 Pg
FIR   1.790 1.00 Sg
LAS   6.040 1.00 Pg
LAS  10.720 1.00 Sg
SHM   7.240 1.00 Pg
SHM  14.380 1.00 Sg
# 2006 07 25 06 59 56.200000 35.281 52.270  35.3  1.4 0.0 0.0 0.0       444
DMV   8.500 1.00 Pg
DMV  14.480 1.00 Sg
FIR  11.350 1.00 Pg
FIR  19.450 1.00 Sg
LAS  12.100 1.00 Pg
SFB  17.670 1.00 Pg
SFB  29.790 1.00 Sg
VRN  10.980 1.00 Pg
VRN  20.040 1.00 Sg
# 2006 07 25 07 00 37.100000 35.474 52.850  19.0  1.2 0.0 0.0 0.0       445
ANJ  15.990 1.00 Pg
DMV  12.640 1.00 Pg
DMV  22.020 1.00 Sg
FIR   4.410 1.00 Pg
FIR   8.950 1.00 Sg
SFB  21.670 1.00 Pg
SFB  39.130 1.00 Sg
SHM   9.130 1.00 Pg
SHM  17.230 1.00 Sg
VRN  18.980 1.00 Pg
# 2006 07 25 07 56 32.900000 35.595 53.184  30.6  0.6 0.0 0.0 0.0       446
SHM   6.390 1.00 Pg
SHM  11.170 1.00 Sg
LAS   7.090 1.00 Pg
LAS  12.230 1.00 Sg
ANJ  11.990 1.00 Pg
# 2006 07 26 07 34 00.300000 35.549 53.179  27.1  1.1 0.0 0.0 0.0       447
ANJ  11.890 1.00 Pg
ANJ  20.250 1.00 Sg
LAS   6.150 1.00 Pg
LAS  10.790 1.00 Sg
SHM   6.450 1.00 Pg
SHM  11.470 1.00 Sg
# 2006 07 26 07 39 18.100000 35.608 53.092  28.9  0.9 0.0 0.0 0.0       448
ANJ  12.980 1.00 Pg
ANJ  23.020 1.00 Sg
LAS   6.410 1.00 Pg
LAS  10.210 1.00 Sg
SHM   6.960 1.00 Pg
SHM  11.780 1.00 Sg
# 2006 07 26 07 43 49.800000 35.576 53.147  26.8  1.1 0.0 0.0 0.0       449
ANJ  12.330 1.00 Pg
ANJ  21.210 1.00 Sg
LAS   6.220 1.00 Pg
LAS  10.960 1.00 Sg
SHM   6.440 1.00 Pg
SHM  11.100 1.00 Sg
# 2006 07 26 07 52 47.600000 35.543 53.303  28.5  0.9 0.0 0.0 0.0       450
SHM   6.670 1.00 Pg
SHM  11.510 1.00 Sg
LAS   7.460 1.00 Pg
LAS  12.920 1.00 Sg
ANJ  10.220 1.00 Pg
# 2006 07 26 11 46 57.000000 35.622 51.456  16.8  1.5 0.0 0.0 0.0       451
DMV   8.740 1.00 Pg
AFJ   6.280 1.00 Pg
VRN  21.090 1.00 Sg
DMV  15.560 1.00 Sg
VRN  12.390 1.00 Pg
# 2006 07 26 14 01 47.000000 35.949 53.392   9.1  2.4 0.0 0.0 0.0       452
SHM   3.260 1.00 Pg
LAS  12.070 1.00 Pg
FIR  10.950 1.00 Pg
DMV  21.380 1.00 Pg
ANJ  11.780 1.00 Pg
AFJ  24.970 1.00 Pg
SHM   5.800 1.00 Sg
DMV  37.060 1.00 Sg
ANJ  19.680 1.00 Sg
LAS  20.990 1.00 Sg
# 2006 07 27 09 07 52.700000 35.598 53.287  29.1  0.7 0.0 0.0 0.0       453
LAS   7.580 1.00 Pg
FIR   9.210 1.00 Pg
ANJ  10.570 1.00 Pg
LAS  13.080 1.00 Sg
ANJ  18.850 1.00 Sg
SHM   5.360 1.00 Pg
FIR  16.670 1.00 Sg
# 2006 07 27 10 51 01.600000 36.236 52.736   5.0  1.7 0.0 0.0 0.0       454
SFB  35.450 0.50 Pn
DMV  16.400 1.00 Pg
FIR  10.140 1.00 Pg
PRN   7.450 1.00 Pg
LAS  15.300 1.00 Pg
KIA  13.680 1.00 Pg
GZV  36.070 0.50 Pn
ANJ  22.780 1.00 Pg
VRN  27.770 1.00 Pg
KIA  25.400 1.00 Sg
FIR  17.900 1.00 Sg
ANJ  39.180 1.00 Sg
PRN  12.750 1.00 Sg
# 2006 07 27 13 39 22.300000 35.542 53.148   7.0  0.9 0.0 0.0 0.0       455
ANJ  12.270 1.00 Pg
FIR   5.980 1.00 Pg
LAS   4.130 1.00 Pg
SHM   4.630 1.00 Pg
SHM   9.650 1.00 Sg
LAS   7.230 1.00 Sg
FIR  10.920 1.00 Sg
ANJ  19.330 1.00 Sg
# 2006 07 27 14 21 11.400000 37.666 49.166  10.0  2.4 0.0 0.0 0.0       456
BST  31.510 1.00 Pg
HSH  27.610 1.00 Pg
SRB  21.490 1.00 Pg
GZV  24.760 0.50 Pg
SRB  37.090 1.00 Sg
# 2006 07 27 19 57 26.800000 36.787 51.065  18.0  2.2 0.0 0.0 0.0       457
AFJ  19.130 1.00 Pg
DMV  25.030 1.00 Pg
FIR  30.280 1.00 Pg
GLO  35.570 1.00 Pn
GZV  14.570 1.00 Pg
MHD  20.460 1.00 Pg
PRN  19.440 1.00 Pg
RAZ  39.850 0.00 Pg
SHM  33.820 1.00 Pn
PRN  35.340 1.00 Sg
GZV  25.730 1.00 Sg
AFJ  33.470 1.00 Sg
MHD  35.620 1.00 Sg
# 2006 07 28 15 26 39.900000 36.516 50.822   5.0  2.8 0.0 0.0 0.0       458
AFJ  17.300 1.00 Pg
ANJ  44.440 1.00 Pn
DMV  24.520 1.00 Pg
FIR  31.410 1.00 Pg
GLO  39.920 1.00 Pn
GZV   7.770 0.00 Pg
KIA  38.670 1.00 Pn
MHD  14.910 1.00 Pg
PRN  20.860 1.00 Pg
RAZ  29.620 0.00 Pg
SFB  40.890 1.00 Pn
SHM  35.870 1.00 Pn
VRN  28.080 0.00 Pg
GZV  15.510 1.00 Sg
# 2006 07 28 16 04 30.400000 36.236 53.038  18.0  2.4 0.0 0.0 0.0       459
AFJ  20.730 1.00 Pg
ANJ  19.120 1.00 Pg
DMV  18.870 1.00 Pg
FIR  11.710 1.00 Pg
LAS  15.700 1.00 Pg
RAZ  54.990 0.00 Pn
SFB  36.100 0.00 Pn
SHM   8.710 1.00 Pg
VRN  30.020 0.00 Pg
GLO  13.380 1.00 Pg
KIA   9.630 1.00 Pg
PRN  10.210 0.00 Pg
FIR  20.870 1.00 Sg
LAS  27.180 1.00 Sg
# 2006 07 28 21 25 21.000000 36.342 52.486   5.6  2.1 0.0 0.0 0.0       460
AFJ  14.550 1.00 Pg
ANJ  26.270 1.00 Pg
DMV  15.610 1.00 Pg
FIR  13.170 1.00 Pg
GLO  19.850 1.00 Pg
GZV  32.300 1.00 Pn
KIA  17.450 1.00 Pg
LAS  18.900 1.00 Pg
PRN   3.910 1.00 Pg
SHM  14.880 1.00 Pg
PRN   7.050 1.00 Sg
SHM  26.700 1.00 Sg
DMV  26.430 1.00 Sg
AFJ  24.520 1.00 Sg
# 2006 07 29 06 59 08.200000 35.648 53.028  26.9  1.0 0.0 0.0 0.0       461
ANJ  14.140 1.00 Pg
ANJ  21.480 1.00 Sg
LAS   6.740 1.00 Pg
LAS  11.340 1.00 Sg
SHM   6.430 1.00 Pg
SHM  11.390 1.00 Sg
# 2006 07 29 07 15 21.100000 35.609 53.199  25.4  0.9 0.0 0.0 0.0       462
ANJ  11.560 1.00 Pg
LAS   6.660 1.00 Pg
LAS  11.840 1.00 Sg
SHM   5.750 1.00 Pg
SHM   9.650 1.00 Sg
# 2006 07 29 09 07 21.500000 35.595 53.196  34.1  0.9 0.0 0.0 0.0       463
ANJ  12.120 1.00 Pg
LAS   7.560 1.00 Pg
LAS  13.120 1.00 Sg
SHM   6.880 1.00 Pg
SHM  11.890 1.00 Sg
