# 2006 05 17 10 18 29.900000 35.594 51.478  10.0  1.5 0.0 0.0 0.0       236
AFJ   5.780 1.00 Pg
AFJ  10.580 1.00 Sg
DMV   8.160 1.00 Pg
DMV  15.280 1.00 Sg
VRN  12.620 1.00 Pg
# 2006 05 17 22 50 14.300000 36.165 53.449   4.7  2.9 0.0 0.0 0.0       237
VRN  32.140 1.00 Pn
SFB  35.150 1.00 Pn
MHD  40.560 0.00 Pn
GZV  46.500 0.00 Pn
FIR  13.730 1.00 Pg
DMV  23.440 1.00 Pg
AFJ  26.470 1.00 Pg
ANJ  13.920 1.00 Pg
GLO   9.400 0.00 Pg
KIA   3.840 1.00 Pg
LAS  15.900 1.00 Pg
PRN  17.530 1.00 Pg
SHM   7.150 1.00 Pg
# 2006 05 18 00 21 09.600000 36.104 53.462   4.9  1.9 0.0 0.0 0.0       238
AFJ  26.260 1.00 Pg
DMV  23.240 1.00 Pg
FIR  13.260 1.00 Pg
SFB  34.650 1.00 Pn
ANJ  12.820 1.00 Pg
GLO   8.800 1.00 Pg
KIA   4.760 0.00 Pg
LAS  16.320 0.00 Pg
PRN  17.410 1.00 Pg
SHM   5.950 1.00 Pg
VRN  31.590 1.00 Pg
GLO  15.920 1.00 Sg
FIR  23.260 1.00 Sg
# 2006 05 18 02 35 18.100000 35.379 52.229  34.9  1.4 0.0 0.0 0.0       239
DMV   7.230 1.00 Pg
DMV  12.710 1.00 Sg
FIR  10.790 1.00 Pg
FIR  17.850 1.00 Sg
LAS  12.160 1.00 Pg
LAS  20.060 1.00 Sg
SFB  19.180 1.00 Pg
SFB  32.840 1.00 Sg
VRN  11.750 1.00 Pg
VRN  20.230 1.00 Sg
# 2006 05 18 08 48 16.800000 35.492 53.144   5.2  1.8 0.0 0.0 0.0       240
ANJ  11.430 1.00 Pg
FIR   6.370 1.00 Pg
FIR  11.210 1.00 Sg
LAS   3.500 1.00 Pg
LAS   6.840 1.00 Sg
SFB  25.580 1.00 Pg
SHM   6.090 1.00 Pg
SHM  10.710 1.00 Sg
VRN  22.790 1.00 Pg
VRN  39.300 1.00 Sg
# 2006 05 18 15 54 32.800000 35.138 53.694   5.9  2.9 0.0 0.0 0.0       241
AFJ  30.700 1.00 Pg
ANJ   4.840 0.00 Pg
ANJ  12.000 1.00 Sg
BAF  59.630 1.00 Pn
CHK  47.610 1.00 Pn
DMV  24.750 1.00 Pg
DMV  45.930 1.00 Sg
FIR  15.930 1.00 Pg
FIR  29.770 1.00 Sg
GLO  25.440 1.00 Pg
KIA  18.860 1.00 Pg
KIA  33.460 1.00 Sg
KLH  41.520 1.00 Pn
LAS  11.070 1.00 Pg
LAS  20.520 1.00 Sg
PIR  53.760 1.00 Pn
PRN  28.780 1.00 Pg
RAZ  48.840 1.00 Pn
SFB  24.080 0.00 Pg
SFB  44.160 1.00 Sg
SHM  12.580 1.00 Pg
SHM  22.990 1.00 Sg
VRN  27.250 0.00 Pg
ZEF  41.060 1.00 Pn
# 2006 05 18 19 33 36.000000 35.101 53.755   9.7  1.6 0.0 0.0 0.0       242
ANJ   7.320 1.00 Pg
ANJ  12.340 1.00 Sg
DMV  26.910 1.00 Pg
FIR  17.740 1.00 Pg
FIR  30.800 1.00 Sg
LAS  12.700 1.00 Pg
LAS  22.290 1.00 Sg
SFB  26.210 1.00 Pg
SHM  14.670 1.00 Pg
SHM  24.750 1.00 Sg
VRN  28.990 1.00 Pg
# 2006 05 19 12 18 50.400000 36.363 52.782   5.0  2.0 0.0 0.0 0.0       243
ANJ  23.000 1.00 Pg
DMV  17.730 1.00 Pg
DMV  31.220 1.00 Sg
GLO  19.210 0.00 Pg
KIA  15.340 0.00 Pg
KIA  24.020 1.00 Sg
PRN   8.090 1.00 Pg
PRN  15.150 1.00 Sg
SFB  36.470 1.00 Pn
SHM  12.010 1.00 Pg
SHM  20.900 1.00 Sg
VRN  29.020 1.00 Pg
# 2006 05 19 13 46 48.800000 35.692 53.633   3.7  1.7 0.0 0.0 0.0       244
VRN  30.380 1.00 Pg
SHM   4.590 1.00 Pg
LAS  11.530 1.00 Pg
KIA   9.120 1.00 Pg
GLO  15.860 1.00 Pg
DMV  23.890 1.00 Pg
ANJ   5.780 1.00 Pg
ANJ   9.920 1.00 Sg
DMV  40.900 1.00 Sg
LAS  20.370 1.00 Sg
SHM   9.210 1.00 Sg
# 2006 05 19 18 33 32.600000 35.784 52.463  15.6  1.4 0.0 0.0 0.0       245
VRN  18.550 1.00 Pg
SFB  26.100 1.00 Pg
PRN   9.230 1.00 Pg
LAS  10.780 1.00 Pg
FIR   4.770 1.00 Pg
DMV   7.770 1.00 Pg
FIR   9.170 1.00 Sg
DMV  13.830 1.00 Sg
LAS  18.600 1.00 Sg
VRN  30.850 1.00 Sg
SHM  21.920 1.00 Sg
# 2006 05 20 01 18 27.100000 35.961 53.180   0.9  1.6 0.0 0.0 0.0       246
DMV  18.710 1.00 Pg
FIR   8.340 1.00 Pg
GLO  15.040 0.50 Pg
KIA   8.270 1.00 Pg
LAS  10.930 1.00 Pg
PRN  13.850 1.00 Pg
SFB  31.380 1.00 Pg
SHM   2.410 1.00 Pg
SHM   5.250 1.00 Sg
PRN  24.630 1.00 Sg
KIA  15.310 1.00 Sg
FIR  14.760 1.00 Sg
GLO  24.100 1.00 Sg
LAS  19.320 1.00 Sg
VRN  28.390 1.00 Pg
DMV  32.170 1.00 Sg
# 2006 05 20 06 31 22.900000 35.536 53.205  16.6  1.3 0.0 0.0 0.0       247
DMV  17.750 1.00 Pg
DMV  31.990 1.00 Sg
FIR   7.050 1.00 Pg
FIR  13.180 1.00 Sg
LAS   4.990 1.00 Pg
LAS   9.490 1.00 Sg
SHM   5.390 1.00 Pg
SHM  10.230 1.00 Sg
VRN  24.390 1.00 Pg
# 2006 05 20 08 41 03.600000 35.788 51.905  24.6  2.0 0.0 0.0 0.0       248
VRN  15.130 1.00 Pg
VRN  25.910 1.00 Sg
DMV   5.720 1.00 Pg
AFJ   5.040 1.00 Pg
AFJ   8.760 1.00 Sg
DMV  10.160 1.00 Sg
# 2006 05 21 06 09 58.200000 37.049 49.927  27.1  2.7 0.0 0.0 0.0       249
DMV  35.330 1.00 Pn
AFJ  30.170 1.00 Pn
VRN  38.960 1.00 Pn
RAZ  27.130 1.00 Pg
SRB  33.320 0.00 Pn
HSH  33.590 1.00 Pn
BST  38.680 1.00 Pn
# 2006 05 21 09 24 35.200000 35.656 51.459  35.8  1.3 0.0 0.0 0.0       250
AFJ   7.710 1.00 Pg
AFJ  13.590 1.00 Sg
DMV  10.300 1.00 Pg
DMV  17.960 1.00 Sg
RAZ  57.720 0.00 Pg
VRN  13.990 1.00 Pg
VRN  23.830 1.00 Sg
# 2006 05 21 10 46 45.600000 36.186 52.795   7.0  1.8 0.0 0.0 0.0       251
DMV  15.110 1.00 Pg
DMV  28.330 1.00 Sg
FIR   9.420 1.00 Pg
GLO  16.600 1.00 Pg
KIA  12.780 1.00 Pg
PRN   6.320 0.00 Pg
PRN  13.910 1.00 Sg
SFB  33.950 0.00 Pn
VRN  26.830 1.00 Pg
# 2006 05 21 11 02 10.100000 34.310 51.151  19.3  1.9 0.0 0.0 0.0       252
AFJ  27.260 1.00 Pg
DMV  25.680 1.00 Pg
SFB  16.480 1.00 Pg
VRN  15.380 1.00 Pg
# 2006 05 23 07 00 24.500000 34.224 50.156  31.4  2.4 0.0 0.0 0.0       253
AFJ  31.760 0.00 Pn
DMV  32.050 1.00 Pn
KLH  24.540 1.00 Pg
PIR  26.490 1.00 Pg
RAZ  23.370 0.00 Pg
RAZ  38.190 1.00 Sg
SFB  28.840 1.00 Pg
VRN  23.940 1.00 Pg
ZEF  38.800 0.00 Pn
# 2006 05 23 17 35 29.700000 36.245 49.297  24.0  1.9 0.0 0.0 0.0       254
RAZ  19.460 0.00 Pg
GZV  15.140 1.00 Pg
DMV  36.740 1.00 Pn
AFJ  32.220 1.00 Pn
VRN  36.680 1.00 Pn
RAZ  31.440 1.00 Sg
BST  36.110 0.00 Pn
HSH  30.860 1.00 Pn
SRB  33.470 1.00 Pn
# 2006 05 25 04 40 08.400000 35.773 52.273  12.9  1.7 0.0 0.0 0.0       255
VRN  16.450 1.00 Pg
SFB  25.400 1.00 Pg
DMV   4.960 1.00 Pg
AFJ   8.490 1.00 Pg
FIR   7.570 1.00 Pg
DMV   9.080 1.00 Sg
AFJ  15.910 1.00 Sg
VRN  27.490 1.00 Sg
FIR  13.820 1.00 Sg
PRN  14.600 1.00 Sg
# 2006 05 25 04 42 07.300000 35.769 52.221  14.8  1.5 0.0 0.0 0.0       256
DMV   4.770 1.00 Pg
SFB  25.220 1.00 Pg
VRN  16.310 1.00 Pg
DMV   8.890 1.00 Sg
VRN  27.350 1.00 Sg
# 2006 05 25 07 29 04.000000 35.474 53.171   3.3  2.1 0.0 0.0 0.0       257
VRN  23.400 1.00 Pg
SFB  25.710 1.00 Pg
FIR   6.540 1.00 Pg
DMV  17.420 1.00 Pg
AFJ  22.290 1.00 Pg
KIA  15.770 1.00 Pg
SHM   6.750 1.00 Pg
ANJ   9.800 1.00 Pg
LAS   3.630 1.00 Pg
FIR  11.460 1.00 Sg
VRN  39.740 1.00 Sg
KIA  26.270 1.00 Sg
DMV  28.480 1.00 Sg
# 2006 05 25 07 53 33.000000 35.903 52.846   1.1  1.3 0.0 0.0 0.0       258
DMV  13.360 1.00 Pg
FIR   3.590 0.00 Pg
KIA  13.450 1.00 Pg
VRN  23.480 1.00 Pg
LAS   9.940 1.00 Pg
SHM   6.910 1.00 Pg
DMV  22.180 1.00 Sg
KIA  22.750 1.00 Sg
PRN  18.930 1.00 Sg
SFB  29.560 1.00 Pg
# 2006 05 25 09 18 23.100000 35.319 52.441  24.5  1.8 0.0 0.0 0.0       259
VRN  12.660 1.00 Pg
FIR   8.220 1.00 Pg
DMV   8.830 1.00 Pg
DMV  14.750 1.00 Sg
FIR  14.700 1.00 Sg
VRN  21.980 1.00 Sg
# 2006 05 25 09 47 05.700000 36.030 52.157   7.7  1.9 0.0 0.0 0.0       260
AFJ   6.630 1.00 Pg
DMV   7.810 1.00 Pg
FIR   8.690 0.00 Pg
GLO  26.360 1.00 Pg
KIA  22.390 1.00 Pg
PRN   3.690 1.00 Pg
RAZ  36.650 0.00 Pn
VRN  19.700 1.00 Pg
ANJ  28.070 1.00 Pg
SHM  16.990 1.00 Pg
DMV  14.910 1.00 Sg
FIR  19.170 1.00 Sg
PRN   7.750 1.00 Sg
VRN  34.300 1.00 Sg
AFJ  13.070 1.00 Sg
KIA  39.000 1.00 Sg
# 2006 05 26 03 22 39.000000 35.304 52.415  21.8  2.4 0.0 0.0 0.0       261
DMV   8.230 1.00 Pg
FIR   8.450 1.00 Pg
SFB  17.070 1.00 Pg
VRN  12.060 1.00 Pg
DMV  14.310 1.00 Sg
ANJ  23.000 1.00 Pg
SHM  17.660 0.50 Pg
FIR  14.930 1.00 Sg
SFB  30.630 1.00 Sg
VRN  21.380 1.00 Sg
# 2006 05 26 09 59 59.500000 36.047 52.152   5.2  2.0 0.0 0.0 0.0       262
AFJ   6.960 1.00 Pg
DMV   7.970 1.00 Pg
FIR  10.340 0.00 Pg
SFB  30.140 1.00 Pg
VRN  19.990 1.00 Pg
AFJ  13.020 1.00 Sg
DMV  15.230 1.00 Sg
GLO  26.370 1.00 Pg
KIA  22.680 1.00 Pg
PRN   3.900 1.00 Pg
# 2006 05 27 19 33 43.000000 35.946 53.704   8.0  2.9 0.0 0.0 0.0       263
AFJ  28.700 1.00 Pg
DMV  25.480 1.00 Pg
DMV  45.080 1.00 Sg
FIR  14.800 1.00 Pg
FIR  26.060 1.00 Sg
GLO  11.210 1.00 Pg
GLO  19.330 1.00 Sg
KIA   4.770 1.00 Pg
KIA   8.510 1.00 Sg
MHD  42.600 0.00 Pn
PRN  20.240 0.00 Pg
PRN  37.900 1.00 Sg
RAZ  58.630 0.00 Pn
SFB  34.970 0.00 Pn
VRN  32.940 1.00 Pn
# 2006 05 28 00 33 46.800000 34.291 49.930  10.8  3.3 0.0 0.0 0.0       264
AFJ  35.830 1.00 Pn
DHR  46.400 1.00 Pn
DMV  35.620 1.00 Pn
FIR  44.080 0.00 Pn
GAR  45.340 0.00 Pn
GHG  44.300 1.00 Pn
GLO  63.070 0.00 Pn
KIA  55.670 1.00 Pn
KLH  28.890 1.00 Pg
MHD  24.760 0.00 Pg
PIR  31.150 1.00 Pg
PRN  43.710 1.00 Pn
RAZ  28.850 0.00 Pg
RAZ  40.590 1.00 Sg
SFB  32.510 1.00 Pn
VRN  28.460 1.00 Pg
ZEF  41.710 0.00 Pn
# 2006 05 28 02 12 14.200000 35.368 50.977   7.7  3.2 0.0 0.0 0.0       265
AFJ  13.660 1.00 Pg
AFJ  24.240 1.00 Sg
DMV  15.800 1.00 Pg
DMV  27.560 1.00 Sg
FIR  26.200 1.00 Pg
GLO  42.280 1.00 Pn
KIA  39.150 1.00 Pn
MHD   7.390 1.00 Pg
MHD  13.500 1.00 Sg
PRN  25.310 1.00 Pg
RAZ  29.250 0.00 Pg
RAZ  40.650 1.00 Sg
SFB  25.660 1.00 Pg
SFB  45.480 1.00 Sg
TEH   7.950 1.00 Pg
TEH  15.370 1.00 Sg
VRN  13.050 1.00 Pg
VRN  23.920 1.00 Sg
# 2006 05 28 05 50 41.700000 35.372 52.837  23.4  1.7 0.0 0.0 0.0       266
DMV  13.040 1.00 Pg
DMV  22.760 1.00 Sg
FIR   6.020 1.00 Pg
FIR  10.970 1.00 Sg
SFB  21.100 1.00 Pg
SFB  35.800 1.00 Sg
VRN  17.690 1.00 Pg
VRN  31.130 1.00 Sg
# 2006 05 28 10 32 04.700000 35.649 51.569  18.8  2.1 0.0 0.0 0.0       267
AFJ   4.520 0.00 Pg
AFJ   9.080 1.00 Sg
DMV   6.840 1.00 Pg
DMV  13.220 1.00 Sg
FIR  17.770 1.00 Pg
FIR  32.430 1.00 Sg
GZV  23.910 1.00 Pg
RAZ  33.350 0.00 Pg
SFB  25.000 1.00 Pg
SHM  23.970 0.00 Pg
TEH   1.990 0.00 Pg
VRN  11.690 1.00 Pg
VRN  21.890 1.00 Sg
# 2006 05 28 11 44 49.500000 36.855 49.592   3.4  2.9 0.0 0.0 0.0       268
AFJ  35.890 0.50 Pn
BST  38.780 1.00 Pn
DMV  41.390 0.50 Pn
MHD  25.720 0.00 Pg
PRN  37.550 1.00 Pn
RAZ  36.700 0.00 Pg
VRN  41.880 1.00 Pn
# 2006 05 28 23 45 41.400000 35.381 52.032   4.3  1.8 0.0 0.0 0.0       269
AFJ   9.650 1.00 Pg
AFJ  17.290 1.00 Sg
ANJ  27.480 1.00 Pg
DMV   2.870 1.00 Pg
DMV   6.310 1.00 Sg
FIR  10.930 1.00 Pg
FIR  20.510 1.00 Sg
KIA  28.940 1.00 Pg
LAS  12.980 1.00 Pg
LAS  23.930 1.00 Sg
PRN  15.860 1.00 Pg
PRN  28.200 1.00 Sg
RAZ  42.000 0.00 Pg
SFB  18.500 1.00 Pg
SFB  32.890 1.00 Sg
SHM  19.910 1.00 Pg
SHM  35.360 1.00 Sg
VRN   7.890 1.00 Pg
VRN  15.150 1.00 Sg
# 2006 05 29 09 29 05.900000 36.116 52.197   1.0  2.1 0.0 0.0 0.0       270
DMV   9.640 1.00 Pg
GLO  24.450 1.00 Pg
GLO  46.690 1.00 Sg
GZV  29.690 1.00 Pg
KIA  21.220 0.00 Pg
PRN   1.510 0.00 Pg
PRN   4.270 1.00 Sg
SFB  31.410 1.00 Pg
VRN  21.510 1.00 Pg
# 2006 05 30 05 35 18.000000 36.243 50.774  10.0  1.9 0.0 0.0 0.0       271
AFJ  17.980 1.00 Pg
DMV  24.300 0.00 Pg
GZV   8.220 1.00 Pg
GZV  15.320 1.00 Sg
MHD  10.040 1.00 Pg
MHD  17.760 1.00 Sg
RAZ  22.230 0.00 Pg
SFB  40.500 0.00 Pn
VRN  26.880 1.00 Pg
# 2006 05 30 09 11 12.800000 35.097 51.217  35.8  2.0 0.0 0.0 0.0       272
DMV  18.080 0.00 Pg
GZV  24.300 1.00 Pg
MHD  10.710 0.00 Pg
RAZ  20.740 1.00 Pg
RAZ  35.530 1.00 Sg
SFB  15.730 0.00 Pg
SFB  36.310 1.00 Sg
VRN   9.660 1.00 Pg
# 2006 05 30 09 40 14.000000 35.874 50.026  36.0  1.9 0.0 0.0 0.0       273
GZV  11.230 1.00 Pg
GZV  24.090 1.00 Sg
RAZ  10.350 1.00 Pg
VRN  26.060 1.00 Pg
# 2006 05 30 11 31 50.100000 35.676 51.546  30.9  1.4 0.0 0.0 0.0       274
AFJ   6.420 1.00 Pg
AFJ  11.160 1.00 Sg
DMV   8.730 1.00 Pg
DMV  15.490 1.00 Sg
VRN  13.590 1.00 Pg
VRN  23.210 1.00 Sg
# 2006 05 31 13 29 05.100000 35.721 53.697   3.9  2.3 0.0 0.0 0.0       275
ANJ   6.230 1.00 Pg
AFJ  30.860 0.00 Pg
DMV  24.900 1.00 Pg
FIR  13.830 1.00 Pg
GLO  15.400 0.00 Pg
KIA   8.500 1.00 Pg
LAS  11.990 1.00 Pg
PRN  22.200 1.00 Pg
SFB  32.120 1.00 Pn
SHM   5.690 1.00 Pg
VRN  31.670 1.00 Pg
ANJ   9.310 1.00 Sg
LAS  21.640 1.00 Sg
KIA  15.450 1.00 Sg
SHM  10.440 1.00 Sg
GLO  25.000 1.00 Sg
FIR  24.830 1.00 Sg
DMV  42.260 1.00 Sg
# 2006 05 31 18 51 54.100000 37.467 53.995   5.0  1.7 0.0 0.0 0.0       276
SHM  31.060 1.00 Pg
KIA  23.370 1.00 Pg
GLO  17.140 1.00 Pg
KIA  39.830 1.00 Sg
GLO  30.160 1.00 Sg
# 2006 05 31 21 15 45.600000 35.858 53.180   4.9  1.6 0.0 0.0 0.0       277
ANJ  12.560 1.00 Pg
DMV  17.340 1.00 Pg
FIR   6.950 1.00 Pg
GLO  14.920 1.00 Pg
KIA   9.030 1.00 Pg
LAS   9.400 1.00 Pg
SFB  29.810 1.00 Pg
SHM   1.860 1.00 Pg
VRN  26.480 1.00 Pg
AFJ  21.730 1.00 Pg
FIR  12.390 1.00 Sg
ANJ  22.560 1.00 Sg
KIA  17.960 1.00 Sg
LAS  16.640 1.00 Sg
SHM   3.360 1.00 Sg
DMV  31.180 1.00 Sg
# 2006 06 01 09 33 07.700000 35.444 53.130  11.3  1.8 0.0 0.0 0.0       278
ANJ  12.070 1.00 Pg
ANJ  20.830 1.00 Sg
DMV  17.020 1.00 Pg
FIR   6.810 1.00 Pg
FIR  13.110 1.00 Sg
LAS   3.310 1.00 Pg
LAS   6.570 1.00 Sg
SHM   6.710 1.00 Pg
VRN  23.200 1.00 Pg
# 2006 06 01 11 35 03.000000 36.203 52.739   1.4  1.8 0.0 0.0 0.0       279
VRN  27.260 1.00 Pg
PRN   7.260 1.00 Pg
LAS  14.930 1.00 Pg
GLO  17.560 1.00 Pg
FIR  10.120 1.00 Pg
DMV  14.920 1.00 Pg
DMV  27.240 1.00 Sg
SHM  18.300 1.00 Sg
KIA  13.600 1.00 Pg
# 2006 06 01 16 12 14.100000 35.720 53.657  10.2  1.1 0.0 0.0 0.0       280
SHM   6.580 1.00 Pg
LAS  13.110 1.00 Pg
KIA   9.420 1.00 Pg
GLO  16.010 1.00 Pg
ANJ   6.950 1.00 Pg
SHM  12.940 1.00 Sg
# 2006 06 02 09 43 08.400000 35.751 52.910  26.9  1.5 0.0 0.0 0.0       281
ANJ  16.520 1.00 Pg
DMV  23.490 1.00 Sg
FIR   4.530 1.00 Pg
FIR  10.290 1.00 Sg
LAS   7.950 1.00 Pg
LAS  16.990 1.00 Sg
SHM   5.050 0.00 Pg
SHM  12.360 1.00 Sg
VRN  21.200 1.00 Pg
# 2006 06 02 16 08 52.000000 35.794 53.729  29.8  2.4 0.0 0.0 0.0       282
ANJ   7.870 1.00 Pg
ANJ  14.630 1.00 Sg
DMV  21.600 0.00 Pg
FIR  14.920 1.00 Pg
FIR  26.560 1.00 Sg
GLO   1.300 0.00 Pg
KIA   9.410 0.00 Pg
KIA  15.670 1.00 Sg
LAS  14.150 1.00 Pg
LAS  25.040 1.00 Sg
PRN  23.400 1.00 Pg
PRN  41.920 1.00 Sg
RAZ  51.550 0.00 Pn
SHM   7.510 1.00 Pg
SHM  13.550 1.00 Sg
# 2006 06 02 23 26 21.100000 34.271 52.982  10.8  3.0 0.0 0.0 0.0       283
AFJ  32.230 1.00 Pn
ANJ  25.050 1.00 Pg
ANJ  44.080 1.00 Sg
BAF  53.220 1.00 Pn
CHK  38.490 1.00 Pn
DMV  26.770 1.00 Pg
FIR  24.240 1.00 Pg
FIR  43.540 1.00 Sg
GAR  33.800 1.00 Pn
GLO  41.700 0.00 Pn
GZV  48.680 0.00 Pn
KIA  33.840 1.00 Pn
KLH  25.280 0.00 Pg
KLH  46.130 1.00 Sg
LAS  20.040 1.00 Pg
LAS  35.910 1.00 Sg
MEH  52.890 0.00 Pn
MHD  39.140 0.00 Pn
PIR  40.140 0.00 Pn
PRN  34.170 1.00 Pn
RAZ  48.510 0.00 Pn
SHM  27.650 1.00 Pg
VRN  22.180 1.00 Pg
VRN  39.520 1.00 Sg
ZEF  24.490 0.00 Pg
# 2006 06 03 05 13 12.100000 34.496 53.523  21.9  1.8 0.0 0.0 0.0       284
SHM  23.110 1.00 Pg
LAS  18.550 1.00 Pg
ANJ  18.740 1.00 Pg
LAS  31.680 1.00 Sg
# 2006 06 03 13 11 50.900000 35.570 53.117  13.9  1.3 0.0 0.0 0.0       285
ANJ  11.840 1.00 Pg
DMV  16.340 1.00 Pg
DMV  28.020 1.00 Sg
FIR   4.760 0.50 Pg
FIR   9.860 1.00 Sg
LAS   4.320 1.00 Pg
LAS   8.500 1.00 Sg
SHM   5.110 1.00 Pg
SHM  10.090 1.00 Sg
VRN  23.460 1.00 Pg
# 2006 06 03 14 37 25.300000 35.809 52.911   3.3  1.4 0.0 0.0 0.0       286
VRN  23.440 1.00 Pg
SHM   5.570 1.00 Pg
LAS   7.670 1.00 Pg
FIR   3.280 1.00 Pg
DMV  13.510 1.00 Pg
SHM   9.840 1.00 Sg
LAS  13.170 1.00 Sg
FIR   7.100 1.00 Sg
DMV  23.070 1.00 Sg
# 2006 06 03 20 12 46.700000 36.640 49.541   5.0  2.1 0.0 0.0 0.0       287
AFJ  32.600 1.00 Pn
BST  38.800 1.00 Pn
GZV   7.790 0.00 Pg
HSH  33.630 1.00 Pn
MHD  21.340 0.00 Pg
PRN  37.890 1.00 Pn
RAZ  22.470 1.00 Pg
RAZ  39.760 1.00 Sg
# 2006 06 03 22 10 38.400000 36.860 50.669   6.8  2.0 0.0 0.0 0.0       288
DMV  29.740 1.00 Pg
GLO  42.260 1.00 Pn
GZV  10.520 1.00 Pg
PRN  25.320 1.00 Pg
RAZ  31.630 0.00 Pg
GZV  19.220 1.00 Sg
MHD  36.240 1.00 Sg
# 2006 06 04 01 54 27.200000 36.553 53.467   4.7  1.7 0.0 0.0 0.0       289
DMV  27.640 1.00 Pg
FIR  20.010 1.00 Pg
GLO   5.370 1.00 Pg
KIA   6.240 1.00 Pg
LAS  23.450 1.00 Pg
PRN  18.490 1.00 Pg
SHM  13.000 1.00 Pg
KIA  11.900 1.00 Sg
GLO  10.190 1.00 Sg
PRN  32.350 1.00 Sg
FIR  33.870 1.00 Sg
SHM  24.170 1.00 Sg
# 2006 06 06 10 16 06.000000 35.796 52.091   9.6  1.9 0.0 0.0 0.0       290
AFJ   5.580 1.00 Pg
ANJ  27.010 1.00 Pg
DMV   2.540 0.00 Pg
FIR   8.890 0.00 Pg
GLO  28.250 1.00 Pg
MHD  21.200 1.00 Pg
PRN   8.640 1.00 Pg
SHM  17.640 1.00 Pg
VRN  15.070 1.00 Pg
VRN  27.030 1.00 Sg
# 2006 06 06 14 07 44.900000 36.220 51.276  22.0  2.1 0.0 0.0 0.0       291
DMV  15.590 1.00 Pg
GZV  15.510 1.00 Pg
MHD  12.970 1.00 Pg
PRN  14.600 1.00 Pg
RAZ  38.450 0.00 Pg
VRN  22.860 1.00 Pg
GZV  28.470 1.00 Sg
DMV  28.490 1.00 Sg
MHD  23.770 1.00 Sg
PRN  25.420 1.00 Sg
# 2006 06 06 21 44 15.400000 35.382 52.822  13.6  1.9 0.0 0.0 0.0       292
AFJ  19.430 1.00 Pg
AFJ  33.650 1.00 Sg
ANJ  17.220 1.00 Pg
DMV  13.410 1.00 Pg
DMV  23.510 1.00 Sg
FIR   5.730 1.00 Pg
FIR  10.250 1.00 Sg
GLO  27.040 0.50 Pg
GLO  46.380 1.00 Sg
LAS   3.670 1.00 Pg
LAS   6.170 1.00 Sg
PRN  19.020 1.00 Pg
PRN  32.360 1.00 Sg
RAZ  52.130 0.00 Pn
SHM  11.170 1.00 Pg
SHM  18.510 1.00 Sg
VRN  18.350 1.00 Pg
VRN  31.850 1.00 Sg
# 2006 06 07 02 28 08.400000 35.430 52.390   2.7  2.2 0.0 0.0 0.0       293
ANJ  21.980 1.00 Pg
ANJ  39.130 1.00 Sg
DMV   5.460 1.00 Pg
DMV  11.340 1.00 Sg
FIR   6.550 1.00 Pg
FIR  12.110 1.00 Sg
KLH  36.930 1.00 Pn
LAS   8.440 1.00 Pg
LAS  15.080 1.00 Sg
PRN  15.060 1.00 Pg
PRN  25.100 1.00 Sg
RAZ  34.350 1.00 Pn
SHM  14.670 1.00 Pg
SHM  25.110 1.00 Sg
VRN  11.800 1.00 Pg
VRN  21.740 1.00 Sg
ZEF  41.930 1.00 Pn
# 2006 06 07 06 05 49.800000 35.329 52.684  19.9  1.7 0.0 0.0 0.0       294
AFJ  19.480 0.00 Pg
AFJ  29.740 1.00 Sg
DMV  11.900 1.00 Pg
DMV  16.980 1.00 Sg
FIR   6.400 1.00 Pg
SFB  18.760 1.00 Pg
SFB  32.940 1.00 Sg
VRN  15.360 1.00 Pg
# 2006 06 07 11 39 51.900000 35.651 51.544  11.8  1.9 0.0 0.0 0.0       295
VRN  12.010 1.00 Pg
SFB  25.320 1.00 Pg
RAZ  36.370 0.00 Pg
MHD  12.780 1.00 Pg
GZV  24.330 1.00 Pg
DMV   7.360 1.00 Pg
AFJ   4.890 1.00 Pg
FIR  17.880 1.00 Pg
VRN  21.470 1.00 Sg
# 2006 06 07 13 19 07.200000 36.216 52.721  10.0  1.9 0.0 0.0 0.0       296
DMV  15.290 1.00 Pg
FIR  10.040 1.00 Pg
GLO  17.070 1.00 Pg
GZV  38.240 0.00 Pn
KIA  13.740 1.00 Pg
PRN   7.060 1.00 Pg
SFB  34.830 0.00 Pn
VRN  26.980 1.00 Pg
KIA  24.700 1.00 Sg
# 2006 06 07 15 51 04.400000 35.453 50.126  27.4  1.7 0.0 0.0 0.0       297
DMV  28.480 1.00 Pg
MHD  10.460 1.00 Pg
RAZ   6.020 1.00 Pg
VRN  25.130 1.00 Pg
RAZ   9.440 1.00 Sg
AFJ  25.500 1.00 Pg
GZV  17.730 1.00 Pg
# 2006 06 07 18 46 11.100000 35.963 49.839   1.4  1.5 0.0 0.0 0.0       298
AFJ  27.780 1.00 Pg
DMV  32.340 1.00 Pn
GZV   9.610 1.00 Pg
MHD  13.040 1.00 Pg
RAZ  10.240 1.00 Pg
# 2006 06 09 01 15 03.100000 34.306 52.151   7.0  2.6 0.0 0.0 0.0       299
VRN  13.630 1.00 Pg
SHM  31.010 1.00 Pg
RAZ  35.620 1.00 Pn
PRN  33.810 0.00 Pn
LAS  23.370 0.00 Pg
FIR  25.500 1.00 Pg
DMV  22.500 0.00 Pg
CHK  45.030 1.00 Pn
ANJ  31.870 1.00 Pn
AFJ  27.830 0.00 Pg
VRN  24.210 1.00 Sg
LAS  39.310 1.00 Sg
FIR  44.920 1.00 Sg
DMV  39.620 1.00 Sg
# 2006 06 09 03 59 05.300000 35.979 53.369   9.0  2.1 0.0 0.0 0.0       300
ANJ  12.100 1.00 Pg
ANJ  20.880 1.00 Sg
DMV  20.600 1.00 Pg
DMV  35.780 1.00 Sg
FIR  10.740 1.00 Pg
FIR  19.380 1.00 Sg
GLO  11.450 1.00 Pg
GLO  20.530 1.00 Sg
GZV  46.710 1.00 Pn
KIA   6.390 1.00 Pg
KIA  11.230 1.00 Sg
PRN  16.130 0.00 Pg
PRN  29.490 1.00 Sg
SHM   3.800 1.00 Pg
SHM   6.960 1.00 Sg
VRN  29.360 1.00 Pg
# 2006 06 09 06 52 29.600000 36.025 52.184   3.0  1.7 0.0 0.0 0.0       301
AFJ   6.870 1.00 Pg
AFJ  12.990 1.00 Sg
ANJ  27.780 1.00 Pg
DMV   7.940 1.00 Pg
DMV  15.180 1.00 Sg
FIR  10.410 1.00 Pg
FIR  18.310 1.00 Sg
GLO  26.940 1.00 Pg
GZV  29.430 1.00 Pg
PRN   4.170 1.00 Pg
PRN   6.950 1.00 Sg
RAZ  43.380 0.00 Pn
SFB  30.130 1.00 Pg
SHM  18.230 0.50 Pg
SHM  29.130 1.00 Sg
VRN  20.100 1.00 Pg
VRN  34.100 1.00 Sg
# 2006 06 10 08 58 55.400000 35.655 51.470  30.3  1.7 0.0 0.0 0.0       302
AFJ   6.850 1.00 Pg
AFJ  12.360 1.00 Sg
VRN  13.070 1.00 Pg
VRN  23.330 1.00 Sg
TEH   2.510 0.00 Pg
MHD  22.250 1.00 Sg
DMV   9.750 1.00 Pg
FIR  19.750 1.00 Pg
# 2006 06 10 09 46 39.300000 34.884 50.050   8.8  2.4 0.0 0.0 0.0       303
AFJ  29.600 1.00 Pg
DMV  31.100 1.00 Pg
GZV  27.490 1.00 Pg
MHD  17.020 1.00 Pg
MHD  30.040 1.00 Sg
SFB  32.380 1.00 Pn
VRN  24.280 1.00 Pg
VRN  43.200 1.00 Sg
