 2021  8 8  6 4 49.9 LQ 26.903  55.033 19.9  Teh 18 0.3 3.5LTeh                1
 GAP=174   Teh                                                                 E
 Action:ARG 22-08-28 16:25 OP:OBSP STATUS:               ID:20210808060449     I
 STAT SP IPHASW D HRMM SECON CODA AMPLIT PERI AZIMU VELO AIN AR TRES W  DIS CAZ7
 BNB  BZ E    0    6 558.420     12964.6 0.38                                   
 JASK BZ E    0    6 610.000      1821.0 0.22                                   
 KSHB BZ E    0    6 657.880       849.2 0.50                                   
 KBAM BZ E    0    6 554.140       848.3 0.18                                   
 KHJ1 BZ E    0    6 6 0.060      1519.5 0.20                                   
 KANR BZ E    0    6 556.820       367.3 0.12                                   
 RAM  SZ E    0    6 614.720       432.6 0.36                                   
 CHMN BZ E    0    6 553.920       818.1 0.16                                   
 KSHD BZ E    0    6 652.980       351.4 0.52                                   
 MEH  SZ E    0    6 6 1.940       275.7 0.16                                   
 TAFT BN E    0    6 741.520       487.0 0.42                                   
 ZEF  SZ E    0    6 630.900       117.3 0.20                                   
 KLNJ BZ E    0    6 712.080       312.2 0.32                                   
 BNDS BZ EPg  0    6 511.340                                   -0.00    125  64 
 MZN1 BZ EPg  0    6 512.660                                    0.00    133 344 
 LMD1 BZ EPn  0    6 520.800                                    0.30    191 285 
 JHRM BZ EPn  0    6 525.160                                   -0.00    228 321 
 JASK BZ EPn  0    6 534.400                                   -0.20    305 111 
 KHJ1 BZ EPn  0    6 540.400                                    0.40    348  62 
 KSHB BZ EPn  0    6 543.380                                    0.50    370   1 
 CHMN BZ EPn  0    6 547.700                                   -0.20    409  36 
 KHGB BN EPn  0    6 548.060                                    0.20    410  20 
 KBAM BZ EPn  0    6 548.700                                    0.10    417  53 
 KANR BZ EPn  0    6 552.700                                    0.10    449   5 
 KSHD BZ EPn  0    6 552.740                                   -0.20    452  32 
 MEH  SZ EPn  0    6 558.680                                   -0.20    499 355 
 BAF  SZ EPn  4    6 6 1.230                                   -0.50    522   6 
 TAFT BN EPn  4    6 6 4.320                                    0.30    540 351 
 KLNJ BZ EPn  4    6 6 6.640                                   -0.60    565 324 
 RAM  SZ EPn  4    6 610.860                                   -0.80    601 335 
 ZEF  SZ EPn  0    6 624.960                                   -0.60    713 339 
                                                                                

 2021  8 8 2155 37.6 LQ 27.175  55.032 10.0  Teh  9 0.2 2.9LTeh                1
 GAP=198   Teh                                                                 E
 Action:ARG 22-08-28 16:25 OP:OBSP STATUS:               ID:20210808215537     I
 STAT SP IPHASW D HRMM SECON CODA AMPLIT PERI AZIMU VELO AIN AR TRES W  DIS CAZ7
 BNDS BZ E    0   215621.700       908.0 0.14                                   
 BNB  BZ E    0   215641.720      5211.1 0.42                                   
 LMD1 BE E    0   215642.600      7605.1 0.46                                   
 MEH  SZ E    0   215647.920        93.9 0.14                                   
 RAM  SZ E    0   2157 0.360       134.0 0.32                                   
 KRBR BZ E    0   215644.260       127.5 0.16                                   
 KHGB BZ E    0   215637.420       212.1 0.26                                   
 KANR BZ E    0   215655.180       136.6 0.26                                   
 CHMN BZ E    0   215644.040       194.4 0.18                                   
 BNDS BZ EPg  0   215557.600                                   -0.10    115  77 
 BNB  BZ EPg  0   2156 3.760                                   -0.10    152  78 
 LMD1 BE EPn  0   2156 8.480                                    0.10    186 276 
 KRBR BZ EPn  0   215629.860                                   -0.20    354  28 
 KHGB BZ EPn  0   215633.480                                    0.10    382  21 
 CHMN BZ EPn  0   215634.460                                    0.50    386  39 
 KANR BZ EPn  0   215637.960                                    0.00    419   5 
 MEH  SZ EPn  0   215644.230                                    0.00    469 355 
 RAM  SZ EPn  0   215657.000                                   -0.30    574 334 
                                                                                

 2021  815  019 17.2 LQ 28.165  55.876 10.0  Teh 10 0.5 2.9LTeh                1
 GAP=104   Teh                                                                 E
 Action:ARG 22-08-28 16:25 OP:OBSP STATUS:               ID:20210815001917     I
 STAT SP IPHASW D HRMM SECON CODA AMPLIT PERI AZIMU VELO AIN AR TRES W  DIS CAZ7
 GENO BZ E    0    01951.420      4629.7 0.20                                   
 MEH  SZ E    0    02023.080       176.8 0.22                                   
 KRBR BZ E    0    01955.520       869.0 0.12                                   
 CHMN BZ E    0    020 1.760       739.8 0.14                                   
 KSHB BZ E    0    01959.780      1306.9 0.12                                   
 BAF  SZ E    0    02027.680       233.6 0.14                                   
 KSHD BZ E    0    02050.600       411.9 0.34                                   
 KBAM BZ E    0    02037.760       798.2 0.24                                   
 MZN1 BZ E    0    01958.460      2358.7 0.14                                   
 KHGB BZ E    0    02035.420       512.9 0.16                                   
 GENO BZ EPg  0    01932.840                                   -0.20   90.0 161 
 MZN1 BZ EPg  0    01938.620                                    0.40    120 265 
 GENO BN ESg  0    01946.720                                    0.00   90.0 161 
 KRBR BZ EPn  0    01952.140                                   -0.80    219  23 
 KSHB BZ EPn  0    01956.360                                    0.70    241 342 
 CHMN BZ EPn  0    01956.760                                    0.30    247  40 
 KHGB BZ EPn  0    01957.260                                    0.40    252  13 
 KBAM BZ EPn  0    01959.640                                    0.20    274  66 
 KSHD BZ EPn  0    020 2.040                                    0.60    289  33 
 BAF  SZ EPn  2    02011.630                                   -1.20    381 356 
 MEH  SZ EPn  0    02011.780                                   -0.70    378 341 
                                                                                

 2021  822 21 3 57.1 LQ 27.585  55.377 16.9  Teh  6 0.4 2.8LTeh                1
 GAP=256   Teh                                                                 E
 Action:ARG 22-08-28 16:25 OP:OBSP STATUS:               ID:20210822210357     I
 STAT SP IPHASW D HRMM SECON CODA AMPLIT PERI AZIMU VELO AIN AR TRES W  DIS CAZ7
 GENO BZ E    0   21 427.240      4010.6 0.26                                   
 GENO BZ EPg  0   21 411.060                                   -0.30   81.0 104 
 BNB  BZ E    0   21 451.400      4854.1 0.18                                   
 BNB  BZ EPn  0   21 417.160                                    0.60    116  97 
 GENO BN ESg  0   21 422.120                                    0.00   81.0 104 
 KHJ1 BZ E    0   21 441.360       832.5 0.12                                   
 KHGB BZ E    0   21 527.000       176.5 0.30                                   
 KHJ1 BZ EPn  0   21 439.360                                   -0.60    287  72 
 KANR BZ E    0   21 5 2.120       159.8 0.16                                   
 CHMN BZ E    0   21 452.420       215.4 0.14                                   
 KHGB BZ EPn  0   21 444.900                                   -0.10    327  19 
 CHMN BZ EPn  0   21 445.680                                    0.30    329  39 
 KANR BZ EPn  0   21 450.600                                    0.10    372   0 
                                                                                

 2021  822 2227 49.6 LQ 28.016  55.563 19.5  Teh 37 0.3 4.1LTeh                1
 GAP=84    Teh                                                                 E
 Action:ARG 22-08-28 16:25 OP:OBSP STATUS:               ID:20210822222749     I
 STAT SP IPHASW D HRMM SECON CODA AMPLIT PERI AZIMU VELO AIN AR TRES W  DIS CAZ7
 KHJ1 BZ E    0   2229 6.700      6675.3 0.20                                   
 LMD1 BZ E    0   222933.620       -99.0 0.36                                   
 KSHB BZ E    0   222834.160     16190.4 0.18                                   
 MEH  SZ E    0   222941.930      2514.3 0.28                                   
 GENO BZ E    0   222824.520     64221.6 0.18                                   
 SHI  BZ E    0   2230 1.240      4863.0 0.42                                   
 KHGB BZ E    0   222913.800      7355.8 0.48                                   
 MZN1 BE E    0   222829.220     66038.1 0.16                                   
 RAM  SZ E    0   223029.200      1455.5 0.54                                   
 KRVR BZ E    0   222957.460       -99.0 0.50                                   
 CHMN BZ E    0   222917.420      6822.6 0.28                                   
 KANR BZ E    0   222932.800      7139.9 0.32                                   
 KBAM BZ E    0   222842.200      5056.1 0.32                                   
 BAF  SZ E    0   222846.740      4269.9 0.20                                   
 GAR  SZ E    0   222912.900       863.8 0.28                                   
 GENO BZ EPg  0   2228 5.320                                   -0.20   91.0 138 
 MZN1 BZ EPg  0   2228 5.360                                    0.10   90.0 273 
 ANAR BZ E    0   222935.860       607.7 0.24                                   
 JHRM BE EPg  0   222823.620                                    0.10    202 286 
 LMD1 BZ EPn  0   222827.280                                   -0.10    247 253 
 KSHB BZ EPn  0   222827.860                                    0.00    250 350 
 KHJ1 BZ EPn  0   222828.220                                   -0.40    258  81 
 KHGB BZ EPn  0   222831.280                                    0.30    276  19 
 CHMN BZ EPn  0   222831.880                                    0.20    281  43 
 KBAM BZ EPn  0   222835.040                                    0.10    309  66 
 KSHD BE EPn  0   222836.800                                    0.40    320  36 
 KANR BZ EPn  0   222837.100                                    0.10    324 357 
 JASK BE EPn  0   222837.760                                    0.30    330 136 
 UOSS BZ EPn  0   222839.790                                    0.30    346 169 
 SHI  BZ EPn  0   222839.840                                    0.10    347 302 
 MEH  SZ EPn  4   222844.790                                    0.30    385 346 
 BAF  SZ EPn  4   222845.600                                   -0.20    396   0 
 KAZ2 SN EPn  0   222848.540                                   -0.20    420 296 
 KRVR BZ EPn  4   222848.600                                   -0.40    422  17 
 BAZ1 BZ EPn  0   222852.520                                   -0.60    455  91 
 KLNJ BZ EPn  0   222859.340                                   -0.60    508 312 
 RAM  SZ EPn  0   2229 1.520                                    0.20    521 325 
 TPRV BZ EPn  4   2229 6.600                                   -0.20    566  11 
 NHDN BZ EPn  0   2229 7.540                                   -0.20    573  48 
 GAR  SZ EPn  4   2229 9.840                                   -0.50    593 326 
 KOO  SN EPn  4   2229 9.890                                   -0.10    590  33 
 ANAR BZ EPn  4   222911.140                                    0.10    600 343 
 BRJ  SZ EPn  4   222911.300                                    0.30    598 317 
 ZEF  SZ EPn  4   222913.480                                   -0.70    623 331 
 TEG  SZ EPn  4   222913.740                                   -0.10    621  29 
 TSHB BZ EPn  4   222915.320                                   -0.10    635   8 
 ZNGN BZ EPn  4   222916.700                                    0.20    642 316 
 JHBN BZ EPn  0   222919.020                                   -0.20    664 316 
 TNSJ BZ EPn  4   222919.220                                   -0.20    667   8 
 SRVN BE EPn  0   222920.920                                    0.20    677  94 
 TAPT BE EPn  4   222932.640                                   -0.30    776  11 
 VRN  BZ EPn  4   222942.700                                   -0.00    855 336 
 SFR  SZ EPn  4   2230 4.050                                   -0.30   1028  12 
                                                                                

 2021  824  624 40.8 LQ 27.627  56.472 20.8  Teh 25 0.3 3.7LTeh                1
 GAP=90    Teh                                                                 E
 Action:ARG 22-08-28 16:25 OP:OBSP STATUS:               ID:20210824062440     I
 STAT SP IPHASW D HRMM SECON CODA AMPLIT PERI AZIMU VELO AIN AR TRES W  DIS CAZ7
 KSHB BZ E    0    62626.540      1813.0 0.20                                   
 KRBR BZ E    0    62522.920      4528.8 0.16                                   
 KBAM BZ E    0    62526.620      6202.3 0.16                                   
 MEH  SZ E    0    62544.670      1001.1 0.08                                   
 BNB  BZ EPg  0    62445.740                                   -0.10   21.0 161 
 KANR BZ E    0    62631.980      1024.2 0.38                                   
 JASK BZ E    0    62536.640      4622.4 0.14                                   
 KHGB BZ E    0    62532.980      2498.9 0.16                                   
 GENO BZ EPg  0    62448.520                                    0.10   39.0 230 
 CHMN BZ E    0    62528.640      3246.2 0.18                                   
 KRVR BZ E    0    62653.080       -99.0 0.44                                   
 TAFT BZ E    0    62647.420       646.7 0.32                                   
 RAM  SZ E    0    627 6.360       421.1 0.24                                   
 KLNJ BZ E    0    62715.040       414.3 0.18                                   
 BAF  SZ E    0    62543.120       529.0 0.08                                   
 BAZ1 BZ E    0    62633.620      1307.8 0.54                                   
 JASK BZ EPn  0    62517.360                                    0.10    239 144 
 KBAM BZ EPn  0    62519.580                                    0.10    256  49 
 KRBR BZ EPn  0    62520.540                                    0.10    262   6 
 CHMN BZ EPn  0    62521.020                                   -0.20    269  23 
 KHGB BZ EPn  0    62525.980                                    0.40    305   0 
 KSHD BZ EPn  4    62527.420                                    0.30    318  18 
 KSHB BZ EPn  0    62527.820                                    0.50    318 336 
 BAZ1 BZ EPn  0    62533.000                                   -0.20    367  85 
 KANR BZ EPn  4    62534.840                                   -0.30    381 344 
 KRVR BZ EPn  0    62543.000                                   -0.20    448   5 
 MEH  SZ EPn  4    62543.730                                   -0.40    454 337 
 TAFT BZ EPn  4    62550.680                                    0.20    505 334 
 RAM  SE EPn  0    626 2.720                                   -0.70    609 320 
 GHIR BZ EPn  0    62531.740                                    0.00    349 281 
 BNDS BZ EPg  0    62448.410                                    0.10   43.0 223 
 TABS BZ EPn  0    62611.510                                    0.60    664   5 
 JSSH BZ EPn  0    62514.960                                   -0.20    217 155 
 GTMR BZ EPn  4    62636.390                                   -1.90    886 307 
 LMD1 BZ EPn  0    62529.250                                    0.20    328 263 
 KHMZ BZ EPn  4    62636.270                                   -6.00    915 317 
 YZKH BZ EPn  0    62556.350                                   -0.80    552 341 
 NASN BZ EPn  0    62610.660                                   -0.80    668 328 
 KLNJ BZ EPn  0    626 2.440                                   -0.70    600 308 
                                                                                

 2021  824 1842 48.6 LQ 27.900  56.860  9.0  Teh 18 0.4 3.9LTeh                1
 GAP=114   Teh                                                                 E
 Action:ARG 22-08-28 16:25 OP:OBSP STATUS:               ID:20210824184248     I
 STAT SP IPHASW D HRMM SECON CODA AMPLIT PERI AZIMU VELO AIN AR TRES W  DIS CAZ7
 CHMN BZ E    0   184353.720      8874.3 0.12                                   
 KBAM BZ E    0   184349.280     20463.2 0.12                                   
 KSHD BZ E    0   184414.860      4136.6 0.22                                   
 KANR BZ E    0   184342.980      2113.1 0.12                                   
 BAZ1 BZ E    0   184426.500      3076.9 0.22                                   
 BNB  BZ E    0   1843 7.180     34516.0 0.08                                   
 MEH  SZ E    0   1844 6.700       748.6 0.10                                   
 KBAM BZ EPn  0   184322.280                                   -0.40    207  48 
 CHMN BZ EPn  0   184325.700                                    0.30    227  17 
 KRBR BZ EPn  0   184326.360                                    0.50    231 358 
 JASK BZ EPn  0   184327.840                                    0.40    246 156 
 KSHB BE EPn  0   184335.520                                   -0.10    310 327 
 BAZ1 BZ EPn  0   184337.560                                   -0.00    328  90 
 UOSS BZ EPn  0   184338.770                                    0.50    334 191 
 KANR BZ EPn  0   184342.600                                    0.20    365 338 
 KRVR BE EPn  4   184348.000                                   -0.60    416 360 
 CHBR BZ EPn  0   184350.960                                   -0.70    441 124 
 MEH  SZ EPn  4   184352.110                                   -0.10    444 331 
 TAFT BZ EPn  4   184358.980                                    0.20    497 329 
 NHDN BN EPn  4   184359.020                                    0.60    495  38 
 SRVN BZ EPn  0   1844 5.480                                    0.30    549  94 
 RAM  SE EPn  0   184412.680                                   -0.40    612 316 
 KLNJ BE EPn  0   184413.240                                   -0.40    616 305 
 WBK  BZ EPn  0   184413.860                                   -0.40    623 160 
 ZNGN BZ EPn  4   184429.900                                    0.40    744 310 
                                                                                

