 2021  824 1943 53.3 LQ 27.852  56.562  6.0  Teh  9 0.2 2.9LTeh                1
 GAP=124   Teh                                                                 E
 Action:ARG 22-08-28 16:25 OP:OBSP STATUS:               ID:20210824194353     I
 STAT SP IPHASW D HRMM SECON CODA AMPLIT PERI AZIMU VELO AIN AR TRES W  DIS CAZ7
 BNB  BZ E    0   1944 3.480     55041.6 0.06                                   
 KBAM BZ E    0   194435.580       655.1 0.16                                   
 CHMN BZ E    0   194513.900       560.8 0.16                                   
 GENO BZ E    0   194419.160     12729.1 0.10                                   
 JASK BZ E    0   1945 6.380      1372.4 0.14                                   
 KRBR BZ E    0   1945 6.220      1062.9 0.18                                   
 KHGB BZ E    0   194515.960       619.9 0.16                                   
 BNB  BZ EPg  0   1944 2.140                                    0.00   45.0 183 
 BNDS BZ EPg  0   1944 5.220                                   -0.30   63.0 218 
 GENO BZ ESg  0   194414.800                                    0.00   63.0 218 
 KANR BZ E    0   194542.440       179.1 0.24                                   
 KBAM BZ EPn  0   194432.080                                    0.20    233  52 
 KRBR BZ EPn  0   194432.680                                   -0.10    237   5 
 CHMN BZ EPn  0   194433.400                                    0.00    241  23 
 JASK BZ EPn  0   194434.260                                   -0.10    254 149 
 KHGB BZ EPn  0   194438.200                                    0.40    280 358 
 KANR BZ EPn  0   194447.400                                   -0.30    360 342 
                                                                                

 2021  825 1939 22.5 LQ 28.100  56.935 18.1  Teh 18 0.3 3.4LTeh                1
 GAP=79    Teh                                                                 E
 Action:ARG 22-08-28 16:25 OP:OBSP STATUS:               ID:20210825193922     I
 STAT SP IPHASW D HRMM SECON CODA AMPLIT PERI AZIMU VELO AIN AR TRES W  DIS CAZ7
 BNB  BZ E    0   1940 5.160     35976.2 0.42                                   
 KANR BZ E    0   1941 4.220       756.5 0.32                                   
 BAZ1 BZ E    0   194056.640       750.1 0.28                                   
 KBAM BZ E    0   193959.400      3418.5 0.10                                   
 CHMN BZ E    0   194023.040      4945.7 0.38                                   
 KSHD BZ E    0   194042.660      1699.2 0.22                                   
 JASK BZ E    0   194046.760      2478.9 0.16                                   
 KSHB BZ E    0   194057.500      1928.2 0.22                                   
 BAF  SZ E    0   194039.020       329.1 0.16                                   
 BNB  BZ EPg  0   193937.600                                   -0.10   82.0 208 
 BNDS BZ EPg  4   193942.260                                   -0.00    108 224 
 GENO BE EPg  0   193942.420                                    0.10    108 224 
 KHGB BZ E    0   194043.880      2320.2 0.26                                   
 TAFT BZ E    0   194135.480       296.7 0.38                                   
 KBAM BZ EPn  0   193953.540                                   -0.40    188  52 
 CHMN BZ EPn  0   193956.800                                    0.30    204  17 
 KRBR BZ EPn  0   193956.960                                   -0.20    209 355 
 JASK BZ EPn  0   1940 3.380                                    0.10    264 159 
 BAZ1 BZ EPn  4   194012.680                                    2.20    321  94 
 KANR BZ EPn  0   194014.540                                    0.50    348 335 
 KRVR BZ EPn  4   194020.440                                    0.90    394 359 
 BAF  SZ EPn  4   194021.800                                    0.30    409 341 
 MEH  SZ EPn  4   194023.390                                   -0.60    428 329 
 TAFT BZ EPn  0   194031.040                                    0.40    482 327 
 KLNJ BE EPn  0   194046.240                                   -0.40    610 303 
 ANAR BZ EPn  4   194050.300                                    0.00    642 332 
 ZEF  SZ EPn  4   194055.590                                   -1.00    691 321 
 ZNGN BZ EPn  4   1941 1.600                                   -0.60    736 309 
 JHBN BE EPn  0   1941 4.380                                   -0.50    757 309 
                                                                                

 2021  831  123 48.8 LQ 27.932  56.824 10.0  Teh  7 0.5 2.8LTeh                1
 GAP=158   Teh                                                                 E
 Action:ARG 22-08-28 16:25 OP:OBSP STATUS:               ID:20210831012348     I
 STAT SP IPHASW D HRMM SECON CODA AMPLIT PERI AZIMU VELO AIN AR TRES W  DIS CAZ7
 BNB  BZ E    0    12418.420     17550.3 0.24                                   
 BNDS BZ E    0    12422.000      1790.5 0.14                                   
 GENO BZ E    0    12421.980      4166.2 0.14                                   
 CHMN BZ E    0    12458.220       789.3 0.16                                   
 KHGB BN E    0    12513.940       611.4 0.34                                   
 KBAM BZ E    0    12426.720      2469.1 0.18                                   
 BNB  BZ EPg  0    12359.300                                   -0.30   60.0 208 
 GENO BZ EPg  0    124 4.260                                    0.00   87.0 228 
 BNDS BZ EPg  0    124 4.480                                    0.20   87.0 228 
 KBAM BZ EPn  0    12423.280                                    0.40    208  50 
 CHMN BZ EPg  0    12426.700                                   -0.70    225  18 
 KHGB BN EPn  0    12431.940                                    0.80    273 353 
 KANR BZ EPn  0    12441.620                                   -0.40    361 338 
                                                                                

 2021  9 1 1632  6.6 LQ 27.871  56.337  1.2  Teh  4 0.2 2.8LTeh                1
 GAP=173   Teh                                                                 E
 Action:ARG 22-08-28 16:25 OP:OBSP STATUS:               ID:20210901163206     I
 STAT SP IPHASW D HRMM SECON CODA AMPLIT PERI AZIMU VELO AIN AR TRES W  DIS CAZ7
 BNB  BZ E    0   163235.240     18467.0 0.26                                   
 GENO BN E    0   163230.860     40410.5 0.14                                   
 KRBR BZ E    0   163254.500       341.9 0.28                                   
 KBAM BZ E    0   163328.500       605.8 0.26                                   
 BNB  BZ EPg  0   163216.240                                    0.20   51.0 157 
 GENO BN EPg  0   163216.560                                   -0.20   55.0 197 
 GENO BE ESg  0   163224.620                                    0.00   55.0 197 
 KRBR BZ EPn  0   163246.320                                    0.20    237  10 
 KBAM BZ EPn  0   163247.240                                   -0.20    250  55 
                                                                                

 2021  913 1832 19.5 LQ 27.720  56.694 20.0  Teh  7 0.5 2.5LTeh                1
 GAP=125   Teh                                                                 E
 Action:ARG 22-08-28 16:25 OP:OBSP STATUS:               ID:20210913183219     I
 STAT SP IPHASW D HRMM SECON CODA AMPLIT PERI AZIMU VELO AIN AR TRES W  DIS CAZ7
 BNB  BZ E    0   183244.160     17096.3 0.12                                   
 BNDS BZ E    0   183244.360      1811.9 0.14                                   
 KSHD BE E    0   183354.020       167.3 0.34                                   
 KBAM BZ E    0   183328.840       505.3 0.14                                   
 KRBR BZ E    0   183258.940       457.1 0.14                                   
 JASK BZ E    0   183346.180       572.2 0.32                                   
 BNB  BZ EPg  0   183226.320                                    0.10   34.0 207 
 BNDS BZ EPg  0   183230.860                                    0.00   63.0 236 
 CHMN BZ E    0   183338.540       291.9 0.20                                   
 KBAM BZ EPn  0   183254.760                                   -0.30    233  47 
 JASK BZ EPn  0   183255.580                                    0.30    235 150 
 KRBR BZ EPn  0   183256.980                                   -0.50    251   1 
 CHMN BZ EPn  0   183258.340                                    0.80    251  19 
 KSHD BE EPn  0   1833 4.340                                    0.80    302  15 
                                                                                

 2021  919 1616 23.1 LQ 27.663  55.144  7.6  Teh 10 0.4 2.9LTeh                1
 GAP=197   Teh                                                                 E
 Action:ARG 22-08-28 16:25 OP:OBSP STATUS:               ID:20210919161623     I
 STAT SP IPHASW D HRMM SECON CODA AMPLIT PERI AZIMU VELO AIN AR TRES W  DIS CAZ7
 LMD1 BZ E    0   161729.300      2932.3 0.18                                   
 MZN1 BZ E    0   161653.640      4719.6 0.20                                   
 MEH  SZ E    0   161724.870       195.3 0.08                                   
 KSHB BZ E    0   161714.280       766.0 0.16                                   
 KBAM BZ E    0   1618 8.500       266.0 0.22                                   
 BAF  SZ E    0   161727.170       205.4 0.06                                   
 KANR BZ E    0   161729.980       285.4 0.20                                   
 MZN1 BZ EPg  0   161634.440                                   -0.30   65.0 312 
 MZN1 BE ESg  0   161643.320                                    0.00   65.0 312 
 RAM  SZ E    0   161835.280        82.9 0.40                                   
 JHRM BN EPg  0   161654.620                                    0.60    180 302 
 LMD1 BZ EPg  0   161656.900                                   -0.20    199 260 
 KSHB BZ EPn  0   1617 7.680                                    0.50    286 359 
 CHMN BZ EPn  2   161712.720                                   -1.00    338  43 
 KBAM BZ EPn  0   161716.580                                   -0.10    363  63 
 KANR BZ EPn  0   161717.040                                    0.20    364   4 
 MEH  SZ EPn  0   161723.550                                    0.20    416 353 
 BAF  SZ EPn  0   161725.250                                   -0.70    437   5 
 RAM  SZ EPn  0   161737.840                                    0.10    531 330 
                                                                                

 2021  922 1558 44.6 LQ 28.257  55.203 21.5  Teh 18 0.2 3.4LTeh                1
 GAP=113   Teh                                                                 E
 Action:ARG 22-08-28 16:25 OP:OBSP STATUS:               ID:20210922155844     I
 STAT SP IPHASW D HRMM SECON CODA AMPLIT PERI AZIMU VELO AIN AR TRES W  DIS CAZ7
 BNB  BZ E    0   155954.940     10572.7 0.30                                   
 KLNJ BZ E    0   16 111.880       317.3 0.44                                   
 MEH  SZ E    0   16 030.540       578.7 0.30                                   
 KSHB BZ E    0   155952.160      4406.8 0.18                                   
 KBAM BZ E    0   16 019.560      1191.6 0.18                                   
 CHMN BE E    0   16 014.400      1636.2 0.28                                   
 KHGB BZ E    0   155929.780      2261.4 0.24                                   
 KSHD BZ E    0   16 014.840       620.5 0.24                                   
 BAF  SZ E    0   155948.650       475.2 0.16                                   
 KANR BZ E    0   16 010.580      1410.6 0.36                                   
 MZN1 BZ EPg  0   155856.400                                    0.20   58.0 248 
 TAFT BZ E    0   16 042.560       689.8 0.50                                   
 KRVR BZ E    0   16 051.760       -99.0 0.44                                   
 BNDS BZ EPg  0   1559 8.720                                   -0.20    135 135 
 BNB  BZ EPg  0   155912.580                                   -0.00    159 124 
 JHRM BE EPg  0   155913.240                                    0.00    162 280 
 KSHB BZ EPn  0   155919.960                                   -0.10    220 358 
 KHGB BZ EPn  0   155925.500                                   -0.10    265  27 
 CHMN BE EPn  0   155928.660                                   -0.00    289  51 
 KANR BZ EPn  0   155929.540                                   -0.10    298   4 
 KSHD BZ EPn  0   155932.580                                    0.10    322  44 
 KBAM BZ EPn  0   155933.920                                    0.30    332  72 
 MEH  SZ EPn  0   155936.320                                   -0.00    352 351 
 BAF  SN EPn  4   155937.990                                   -0.60    371   5 
 TAFT BZ EPn  0   155942.040                                    0.20    397 346 
 KRVR BZ EPn  4   155943.320                                    0.20    409  23 
 KLNJ BE EPn  0   155950.180                                   -0.20    464 312 
 RAM  SZ EPn  0   155951.720                                   -0.20    478 326 
 ZEF  SZ EPn  0   16 0 5.170                                    0.20    583 333 
 SFB  BZ EPn  4   16 022.560                                   -0.40    732 338 
                                                                                

 2021  930 1029  2.6 LQ 26.626  55.669 16.0  Teh  4 0.2 2.9LTeh                1
 GAP=218   Teh                                                                 E
 Action:ARG 22-08-28 16:25 OP:OBSP STATUS:               ID:20210930102902     I
 STAT SP IPHASW D HRMM SECON CODA AMPLIT PERI AZIMU VELO AIN AR TRES W  DIS CAZ7
 BNDS BZ EPg  0   102920.580                                   -0.30   99.0  30 
 BNDS BZ ESg  0   102934.420                                    0.20   99.0  30 
 MZN1 BE EPg  0   102935.560                                    0.10    188 328 
 JASK BZ EPn  0   102940.140                                    0.10    234 110 
 KANR BZ EPn  0   103010.400                                   -0.10    479 357 
 BNDS BZ E    0   102939.800      3380.9 0.16                                   
 JASK BZ E    0   103022.240      2464.6 0.24                                   
 KANR BZ E    0   1030 9.020       352.0 0.06                                   
 MZN1 BE E    0   103011.440      3022.6 0.26                                   
                                                                                

