 2021 1010 1611 25.4 LQ 27.321  55.258 16.7  Teh 48 0.3 4.7LTeh                1
 GAP=111   Teh                                                                 E
 Action:ARG 22-08-28 16:25 OP:OBSP STATUS:               ID:20211010161125     I
 STAT SP IPHASW D HRMM SECON CODA AMPLIT PERI AZIMU VELO AIN AR TRES W  DIS CAZ7
 SHI  BZ E    0   161345.140     11613.4 0.44                                   
 JASK BZ E    0   1613 7.920     60459.1 0.28                                   
 JHRM BZ E    0   161241.060     25716.0 0.26                                   
 CHMN BZ E    0   161324.580     15807.6 0.46                                   
 KANR BZ E    0   161346.280      7701.0 0.40                                   
 KBAM BZ E    0   161325.340     27317.3 0.50                                   
 KSHB BZ E    0   1613 6.980     17158.3 0.58                                   
 TAFT BZ E    0   161331.900      4240.0 0.32                                   
 KRVR BZ E    0   1614 9.400       -99.0 0.46                                   
 KLNJ BZ E    0   161359.020      5723.1 0.34                                   
 KHGB BZ E    0   161313.360     13321.0 0.52                                   
 MEH  SZ E    0   161351.320      8070.5 0.60                                   
 MZN1 BE EPg  0   161142.360                                   -0.50    101 324 
 KOO  SZ E    0   161454.140      2759.4 0.48                                   
 BNB  BE EPg  0   161147.480                                    0.50    128  83 
 JHRM BZ EPn  0   161159.240                                    0.40    211 309 
 LMD1 BZ EPg  0   1612 0.000                                    0.00    207 271 
 UOSS BZ EPn  0   1612 7.590                                    0.30    280 160 
 JASK BZ EPn  0   161210.240                                   -0.20    306 121 
 KSHB BZ EPn  0   161213.160                                    0.20    324 358 
 KRBR BZ EPn  0   161213.600                                   -0.20    329  26 
 CHMN BZ EPn  0   161217.500                                    0.10    359  38 
 KHGB BZ EPn  0   161217.560                                    0.30    359  19 
 SHI  BZ EPn  0   161218.560                                   -0.20    371 314 
 KBAM BZ EPn  0   161218.860                                    0.00    372  57 
 KSHD BE EPn  4   161222.580                                    0.20    401  33 
 KANR BZ EPn  0   161222.640                                    0.10    401   2 
 MEH  SN EPn  0   161229.190                                   -0.10    455 352 
 BAF  SZ EPn  4   161231.330                                   -0.20    474   4 
 TAFT BZ EPn  0   161235.000                                    0.30    499 348 
 KRVR BZ EPn  4   161235.020                                   -0.20    504  18 
 KLNJ BZ EPn  4   161239.560                                   -0.60    542 320 
 CHBR BZ EPn  0   161241.220                                   -0.10    555 109 
 RAM  SZ EPn  4   161243.440                                   -0.10    570 331 
 ZHSF BZ EPn  0   161246.340                                   -0.40    597  64 
 WBK  BZ EPn  0   161252.000                                   -0.30    642 144 
 BRJ  SZ EPn  4   161252.020                                   -0.10    639 324 
 NHDN BZ EPn  0   161252.860                                   -0.20    648  45 
 ANAR BZ EPn  4   161254.860                                   -0.60    667 348 
 KOO  SZ EPn  4   161255.170                                   -0.90    671  32 
 ZNGN BZ EPn  4   161257.760                                    0.40    681 322 
 JHBN BZ EPn  4   161259.720                                   -0.30    702 322 
 TEG  SZ EPn  4   161259.810                                   -0.20    703  28 
 SRVN BZ EPn  0   1613 0.440                                    0.10    706  88 
 TSHB BZ EPn  4   1613 0.580                                   -0.90    715   9 
 TKDS BZ EPn  4   1613 1.980                                   -0.00    720  14 
 PIR  SZ EPn  4   1613 3.010                                   -0.20    728 326 
 TNSJ BZ EPn  4   1613 5.080                                   -0.30    747  10 
 DAH  SZ EPn  4   1613 5.440                                   -0.10    747  35 
 KLH  SE EPn  4   1613 6.260                                    0.00    753 333 
 AFRZ BZ EPn  4   1613 7.840                                   -0.00    767  27 
 SFB  BZ EPn  4   161315.280                                   -0.50    831 340 
 TAPT BN EPn  4   161318.720                                   -0.40    858  12 
 VRN  BZ EPn  4   161325.700                                   -0.50    915 339 
 DMV  SE EPn  4   161332.260                                   -0.30    965 342 
 TBJM BZ EPn  4   161337.240                                   -0.10   1004  27 
 HAGD BZ EPn  4   161338.400                                   -0.40   1015 326 
 GLO  SZ EPn  4   161340.700                                    0.50   1027 353 
 AKL  SZ EPn  4   161346.730                                   -0.10   1080  17 
 SFR  SZ EPn  4   161350.930                                    0.50   1109  13 
 KRD  SN EPn  4   161352.280                                    0.20   1122  20 
                                                                                

 2021 1010 1826 53.8 LQ 27.232  55.340 27.7  Teh  7 0.4 2.8LTeh                1
 GAP=154   Teh                                                                 E
 Action:ARG 22-08-28 16:25 OP:OBSP STATUS:               ID:20211010182653     I
 STAT SP IPHASW D HRMM SECON CODA AMPLIT PERI AZIMU VELO AIN AR TRES W  DIS CAZ7
 CHMN BZ E    0   182747.220       298.8 0.16                                   
 KHGB BZ E    0   182746.840       333.9 0.16                                   
 MZN1 BZ E    0   182731.660      2220.5 0.30                                   
 LMD1 BZ E    0   1828 3.060      2510.1 0.16                                   
 JASK BZ E    0   182842.460       442.9 0.30                                   
 JHRM BZ E    0   1828 5.020      3496.4 0.18                                   
 MZN1 BZ EPg  0   182714.500                                   -0.20    114 324 
 BNB  BZ EPg  0   182715.920                                    0.20    120  78 
 LMD1 BZ EPn  0   182728.080                                    0.40    216 274 
 JHRM BZ EPn  0   182728.600                                   -0.20    224 309 
 JASK BZ EPn  0   182736.820                                   -0.40    294 120 
 KHGB BZ EPn  0   182746.040                                   -0.50    365  17 
 CHMN BZ EPn  0   182746.900                                    0.60    362  36 
                                                                                

 2021 1010 2051 54.2 LQ 27.717  56.562 10.0  Teh  7 0.4 2.8LTeh                1
 GAP=159   Teh                                                                 E
 Action:ARG 22-08-28 16:25 OP:OBSP STATUS:               ID:20211010205154     I
 STAT SP IPHASW D HRMM SECON CODA AMPLIT PERI AZIMU VELO AIN AR TRES W  DIS CAZ7
 BNB  BZ E    0   205216.880     44169.7 0.18                                   
 KHGB BN E    0   205326.140       295.2 0.30                                   
 JASK BN E    0   205324.800      1349.9 0.38                                   
 KBAM BZ E    0   2053 7.780       512.4 0.26                                   
 CHMN BZ E    0   205313.700       408.0 0.18                                   
 BNB  BZ EPg  0   205159.700                                   -0.20   30.0 184 
 KSHD BN E    0   205326.960       363.8 0.32                                   
 KANR BZ E    0   205342.960       138.5 0.42                                   
 KBAM BZ EPn  0   205232.140                                   -0.50    243  49 
 JASK BN EPn  0   205232.740                                    0.30    241 147 
 CHMN BZ EPn  0   205234.500                                    0.00    256  22 
 KHGB BN EPn  0   205238.860                                   -0.30    295 358 
 KSHD BN EPn  0   205241.100                                    0.70    306  17 
 KANR BZ EPn  0   205249.060                                    0.00    374 343 
                                                                                

 2021 1014 1417 46.2 LQ 27.487  56.242 11.2  Teh 15 0.3 2.8LTeh                1
 GAP=154   Teh                                                                 E
 Action:ARG 22-08-28 16:25 OP:OBSP STATUS:               ID:20211014141746     I
 STAT SP IPHASW D HRMM SECON CODA AMPLIT PERI AZIMU VELO AIN AR TRES W  DIS CAZ7
 BNB  BZ E    0   1418 2.240     33298.0 0.08                                   
 CHMN BZ E    0   141914.820       662.0 0.26                                   
 BNB  BZ EPg  0   141752.460                                   -0.20   30.0  98 
 KBAM BZ E    0   141837.000       806.4 0.14                                   
 KSHB BZ E    0   141844.140       472.4 0.12                                   
 KANR BZ E    0   141850.280       340.6 0.14                                   
 KHGB BN E    0   141928.980       437.2 0.22                                   
 KSHD BE E    0   141933.400       357.5 0.46                                   
 MZN1 BZ EPg  0   141816.460                                    0.50    169 292 
 JASK BZ EPn  0   141824.980                                   -0.10    241 138 
 KBAM BZ EPn  0   141830.740                                    0.30    283  49 
 CHMN BZ EPn  0   141831.640                                   -0.30    292  25 
 KHGB BN EPn  0   141835.540                                    0.30    321   4 
 MZN1 BE ESg  0   141837.440                                    0.00    169 292 
 KSHD BE EPn  0   141837.560                                    0.10    340  21 
 KANR BZ EPn  0   141843.440                                   -0.50    391 348 
 GHIR BZ EPn  0   141836.770                                    0.80    326 286 
 BNDS BZ EPg  0   141751.080                                   -0.10   11.0 181 
 KRBR BZ EPn  0   141831.140                                    0.50    281  12 
 JSSH BZ EPn  0   141821.740                                   -0.20    214 146 
 YZKH BZ EPn  0   1419 5.570                                   -0.10    563 344 
 GTMR BZ EPn  0   141943.400                                   -0.90    876 309 
 NASN BZ EPn  0   141918.640                                   -0.50    671 331 
                                                                                

 2021 1016 1911 26.0 LQ 27.587  56.730 27.2  Teh  6 0.4 2.9LTeh                1
 GAP=105   Teh                                                                 E
 Action:ARG 22-08-28 16:25 OP:OBSP STATUS:               ID:20211016191126     I
 STAT SP IPHASW D HRMM SECON CODA AMPLIT PERI AZIMU VELO AIN AR TRES W  DIS CAZ7
 BNB  BZ E    0   191148.080     93157.2 0.14                                   
 KHGB BN E    0   191253.180       554.4 0.14                                   
 KBAM BZ E    0   191241.580      1178.3 0.14                                   
 RAM  SZ E    0   191254.300       103.0 0.06                                   
 BNB  BZ EPg  0   191132.560                                    0.70   24.0 231 
 MEH  SZ E    0   191251.360        89.8 0.14                                   
 BNB  BE ESg  0   191135.880                                    0.00   24.0 231 
 JASK BZ EPg  0   1912 1.900                                   -0.10    221 149 
 KBAM BZ EPg  0   1912 4.840                                   -0.20    241  44 
 KHGB BN EPn  0   191212.020                                    0.50    310 355 
 MEH  SZ EPn  0   191231.320                                    0.10    469 335 
 RAM  SZ EPn  0   191250.540                                   -0.60    629 319 
                                                                                

 2021 1029  526  4.0 LQ 27.151  56.206  6.0  Teh  7 0.4 2.8LTeh                1
 GAP=212   Teh                                                                 E
 Action:ARG 22-08-28 16:25 OP:OBSP STATUS:               ID:20211029052604     I
 STAT SP IPHASW D HRMM SECON CODA AMPLIT PERI AZIMU VELO AIN AR TRES W  DIS CAZ7
 MEH  SZ E    0    52719.330       204.5 0.12                                   
 CHMN BZ E    0    52745.700       555.6 0.28                                   
 KBAM BZ E    0    52742.800       816.6 0.20                                   
 JASK BZ E    0    52723.200      3641.3 0.16                                   
 KHGB BZ E    0    52745.980       456.9 0.34                                   
 BNDS BZ ESg  0    52614.300                                    0.00   28.0 353 
 KANR BZ E    0    52818.360       279.2 0.30                                   
 JASK BZ EPn  0    52639.940                                   -0.60    218 130 
 KBAM BZ EPn  0    52652.760                                    0.60    311  45 
 CHMN BZ EPn  0    52654.440                                   -0.10    327  23 
 KHGB BZ EPn  0    52658.860                                    0.70    358   4 
 KANR BZ EPn  0    527 6.440                                   -0.20    427 350 
 MEH  SZ EPn  0    52715.330                                    0.30    494 342 
                                                                                

 2021 1029  555 26.4 LQ 27.187  56.267 13.3  Teh  5 0.3 2.7LTeh                1
 GAP=206   Teh                                                                 E
 Action:ARG 22-08-28 16:25 OP:OBSP STATUS:               ID:20211029055526     I
 STAT SP IPHASW D HRMM SECON CODA AMPLIT PERI AZIMU VELO AIN AR TRES W  DIS CAZ7
 KBAM BZ E    0    557 7.800       200.3 0.18                                   
 JASK BZ E    0    55613.720       755.9 0.14                                   
 CHMN BN E    0    55659.820       170.5 0.18                                   
 BNDS BZ EPg  0    55532.640                                    0.10   25.0 338 
 BNB  BZ EPg  0    55534.420                                   -0.10   40.0  43 
 JASK BZ EPn  0    556 1.820                                   -0.10    216 132 
 KBAM BZ EPn  0    55613.400                                    0.40    304  44 
 CHMN BN EPn  0    55615.080                                   -0.40    321  23 
                                                                                

 2021 11 1 1548 41.3 LQ 27.319  55.229  6.0  Teh 11 0.4 3.2LTeh                1
 GAP=194   Teh                                                                 E
 Action:ARG 22-08-28 16:25 OP:OBSP STATUS:               ID:20211101154841     I
 STAT SP IPHASW D HRMM SECON CODA AMPLIT PERI AZIMU VELO AIN AR TRES W  DIS CAZ7
 KBAM BZ E    0   155030.640       619.3 0.18                                   
 CHMN BZ E    0   155031.140       528.3 0.44                                   
 JASK BZ E    0   1550 4.480      1425.3 0.16                                   
 KHGB BZ E    0   154940.660       348.5 0.14                                   
 KANR BZ E    0   154941.820       355.5 0.22                                   
 MEH  SZ E    0   154950.930       201.0 0.14                                   
 BNDS BZ EPg  0   154858.120                                   -0.70   94.0  84 
 BNB  BZ EPg  0   1549 5.340                                   -0.30    130  83 
 BNB  BE ESg  0   154924.480                                    0.00    130  83 
 UOSS BZ EPn  0   154925.620                                    0.50    280 159 
 JASK BZ EPn  0   154928.200                                   -0.40    308 121 
 KHGB BZ EPn  0   154935.420                                    0.20    360  19 
 CHMN BZ EPn  0   154935.880                                    0.40    361  38 
 KBAM BZ EPn  0   154937.200                                    0.20    375  57 
 KANR BZ EPn  4   154940.680                                    0.30    402   2 
 MEH  SZ EPn  0   154947.130                                    0.00    455 353 
 BAF  SN EPn  0   154949.040                                   -0.40    474   4 
 SRVN BZ EPn  4   155019.040                                    0.50    709  88 
                                                                                

 2021 1114 11 9 53.6 LQ 28.359  56.205 10.0  Teh  6 0.4 2.7LTeh                1
 GAP=114   Teh                                                                 E
 Action:ARG 22-08-28 16:25 OP:OBSP STATUS:               ID:20211114110953     I
 STAT SP IPHASW D HRMM SECON CODA AMPLIT PERI AZIMU VELO AIN AR TRES W  DIS CAZ7
 CHMN BZ E    0   111036.360       423.0 0.14                                   
 BNDS BZ EPg  0   111012.260                                   -0.80    106 182 
 KSHB BN E    0   1111 9.100       596.0 0.22                                   
 KBAM BZ E    0   111032.820      1072.7 0.12                                   
 MZN1 BE EPg  0   111021.100                                   -0.10    156 258 
 BNDS BZ ESg  0   111027.960                                    0.60    106 182 
 CHMN BZ EPn  0   111029.440                                   -0.00    211  38 
 KHGB BZ EPn  0   111031.220                                    0.30    225   7 
 KBAM BZ EPn  0   111032.000                                   -0.10    235  68 
 KSHB BN EPn  0   111032.240                                    0.10    234 333 
 MZN1 BE E    0   111046.000      1266.2 0.22                                   
 KHGB BZ E    0   111037.020       420.2 0.16                                   
                                                                                

