 2021 1114 13 5 48.4 LQ 27.525  56.245  9.0  Teh 12 0.3 3.6LTeh                1
 GAP=89    Teh                                                                 E
 Action:ARG 22-08-28 16:25 OP:OBSP STATUS:               ID:20211114130548     I
 STAT SP IPHASW D HRMM SECON CODA AMPLIT PERI AZIMU VELO AIN AR TRES W  DIS CAZ7
 KRBR BZ E    0   13 7 7.040      2213.5 0.16                                   
 CHMN BZ E    0   13 7 9.380      1912.4 0.28                                   
 BAZ1 BZ E    0   13 748.520       813.5 0.32                                   
 BNDS BZ ESg  0   13 554.220                                    0.00   16.0 208 
 KBAM BZ E    0   13 7 8.920      2628.6 0.44                                   
 KANR BZ E    0   13 749.040      1083.2 0.32                                   
 MZN1 BE EPg  0   13 617.340                                    0.10    168 291 
 CHMN BE EPn  0   13 632.600                                   -0.20    288  26 
 KSHB BE EPn  0   13 637.120                                    0.40    320 340 
 MZN1 BZ ESg  0   13 639.300                                    0.40    168 291 
 KANR BN EPn  0   13 644.720                                   -0.20    387 348 
 BAF  SN EPn  4   13 652.720                                   -0.60    455 352 
 KRVR BZ EPn  0   13 653.680                                   -0.40    461   7 
 TAFT BZ EPn  4   13 657.860                                   -2.00    507 337 
 NGCH BZ EPn  0   13 7 4.260                                    0.20    543 115 
 WBK  BZ EPn  0   13 712.650                                    0.30    609 153 
 ANAR BZ EPn  4   13 719.460                                   -0.90    673 340 
 ZEF  SZ EPn  4   13 722.120                                   -2.30    704 329 
                                                                                

 2021 1114 1313 15.9 LQ 27.567  56.161 19.7  Teh 16 0.4 4.0LTeh                1
 GAP=133   Teh                                                                 E
 Action:ARG 22-08-28 16:25 OP:OBSP STATUS:               ID:20211114131315     I
 STAT SP IPHASW D HRMM SECON CODA AMPLIT PERI AZIMU VELO AIN AR TRES W  DIS CAZ7
 KBAM BZ E    0   1315 9.660      5675.4 0.22                                   
 MZN1 BE E    0   131434.840     22395.8 0.24                                   
 KSHB BN E    0   131535.380      5197.8 0.48                                   
 BNDS BZ EPg  0   131320.820                                    0.00   19.0 177 
 KANR BZ E    0   131544.860      3103.5 0.44                                   
 BNDS BZ ESg  0   131324.520                                    0.00   19.0 177 
 CHMN BZ E    0   1315 6.560      3888.3 0.50                                   
 BAF  SZ E    0   131556.150      1587.0 0.40                                   
 TAFT BZ E    0   131513.720      1160.1 0.46                                   
 NGCH BZ E    0   131533.600      1671.8 0.34                                   
 KBAM BN EPn  0   131358.580                                    0.50    284  52 
 CHMN BN EPn  0   131359.220                                    0.40    288  28 
 UOSS BZ EPn  0   131359.270                                    0.50    290 179 
 KSHB BZ EPn  0   1314 1.900                                    0.00    313 341 
 KANR BZ EPn  0   131410.360                                    0.10    381 349 
 BAF  SN EPn  0   131418.380                                   -0.30    450 353 
 HOQ  BZ EPn  0   131420.170                                    0.80    456 165 
 TAFT BZ EPn  0   131425.140                                    0.20    499 338 
 NGCH BZ EPn  0   131430.420                                   -0.90    553 115 
 KLNJ BE EPn  0   131435.320                                   -0.40    585 312 
 WBK  BZ EPn  0   131438.750                                   -0.70    617 152 
 ANAR BN EPn  0   131445.460                                   -0.00    665 340 
 BRJ  SZ EPn  0   131446.640                                   -0.20    675 317 
 JHBN BZ EPn  4   131454.040                                   -1.00    741 316 
 PIR  SZ EPn  4   131456.690                                   -0.80    761 319 
                                                                                

 2021 1114 1345  0.8 LQ 27.522  56.135 18.8  Teh 13 0.3 3.6LTeh                1
 GAP=127   Teh                                                                 E
 Action:ARG 22-08-28 16:25 OP:OBSP STATUS:               ID:20211114134500     I
 STAT SP IPHASW D HRMM SECON CODA AMPLIT PERI AZIMU VELO AIN AR TRES W  DIS CAZ7
 CHMN BZ E    0   134635.320      2218.8 0.38                                   
 MZN1 BE E    0   1346 3.620     10597.3 0.62                                   
 BAF  SZ E    0   134627.580       408.2 0.26                                   
 KBAM BZ E    0   134636.900      3522.3 0.40                                   
 KSHB BZ E    0   134653.940      1649.0 0.34                                   
 BNDS BZ EPg  0   1345 5.040                                   -0.10   14.0 165 
 TAFT BZ E    0   134633.580       449.8 0.42                                   
 KANR BZ E    0   134734.760       862.1 0.36                                   
 NGCH BZ E    0   134652.080       829.1 0.24                                   
 KBAM BN EPn  0   134544.260                                    0.60    289  51 
 CHMN BN EPn  0   134544.580                                    0.10    293  28 
 MZN1 BE ESg  0   134547.740                                   -0.20    158 292 
 KANR BZ EPn  0   134555.500                                   -0.30    385 350 
 HOQ  BZ EPn  0   1346 3.460                                   -0.40    452 165 
 BAF  SZ EPn  0   1346 3.930                                   -0.30    454 353 
 TAFT BZ EPn  0   1346 9.920                                   -0.50    502 338 
 NGCH BZ EPn  0   134616.280                                   -0.10    553 115 
 KLNJ BE EPn  0   134621.320                                    0.50    586 312 
 WBK  BZ EPn  0   134624.390                                    0.40    614 152 
 SRVN BZ EPn  0   134624.560                                   -0.10    619  90 
 ANAR BN EPn  4   134630.720                                   -0.20    669 340 
                                                                                

 2021 1114 14 2 56.4 LQ 27.590  56.136 17.0  Teh 62 0.3 4.6LTeh                1
 GAP=86    Teh                                                                 E
 Action:ARG 22-08-28 16:25 OP:OBSP STATUS:               ID:20211114140256     I
 STAT SP IPHASW D HRMM SECON CODA AMPLIT PERI AZIMU VELO AIN AR TRES W  DIS CAZ7
 MZN1 BZ E    0   14 4 0.520     55254.6 0.32                                   
 CHMN BZ E    0   14 431.900     14699.8 0.32                                   
 JASK BZ E    0   14 451.500     52806.8 0.50                                   
 KBAM BZ E    0   14 426.860     29132.3 0.42                                   
 SHI  BZ E    0   14 515.380      5273.5 0.46                                   
 BAZ1 BZ E    0   14 457.920      5838.4 0.32                                   
 TAFT BZ E    0   14 423.340      5316.3 0.44                                   
 KSHB BZ E    0   14 439.320     17756.8 0.44                                   
 KANR BZ E    0   14 446.220     11257.0 0.32                                   
 KAZ2 SN E    0   14 6 1.180     21018.9 0.50                                   
 KRVR BZ E    0   14 517.500       -99.0 0.44                                   
 BNDS BZ EPg  0   14 3 1.340                                   -0.00   21.0 171 
 NGCH BZ E    0   14 440.900      3893.6 0.22                                   
 NHDN BZ E    0   14 543.560      6982.7 0.28                                   
 CHBR BZ E    0   14 512.420       -99.0 0.46                                   
 MZN1 BZ EPg  0   14 323.040                                    0.50    155 290 
 JASK BZ EPn  0   14 335.520                                    0.10    257 138 
 CHMN BZ EPn  0   14 339.160                                   -0.30    287  28 
 KBAM BZ EPn  0   14 339.440                                    0.50    284  52 
 UOSS BZ EPn  0   14 340.390                                    0.50    293 179 
 LMD1 BZ EPn  0   14 340.400                                    0.30    295 265 
 KSHB BZ EPn  0   14 341.700                                   -0.60    310 342 
 MZN1 BZ ESg  0   14 342.020                                   -0.40    155 290 
 KANR BZ EPn  0   14 350.860                                    0.20    378 349 
 BAZ1 BZ EPn  0   14 353.040                                   -0.30    400  85 
 SHI  BZ EPn  0   14 355.420                                   -0.40    420 304 
 KRVR BZ EPn  4   14 359.600                                   -0.60    455   9 
 HOQ  BZ EPn  0   14 4 0.020                                   -0.50    459 165 
 CHBR BZ EPn  0   14 4 3.580                                   -0.20    486 116 
 KAZ2 SN EPn  0   14 4 4.880                                    0.30    490 298 
 TAFT BZ EPn  0   14 4 5.820                                    0.50    495 338 
 NGCH BZ EPn  0   14 412.260                                   -0.30    556 115 
 NHDN BZ EPn  0   14 414.140                                    0.10    567  41 
 BRJ  SZ E    0   14 536.880      3154.8 0.52                                   
 TPRV BZ EPn  4   14 418.460                                   -0.30    605   5 
 SRVN BZ EPn  0   14 420.620                                    0.10    619  90 
 WBK  BZ EPn  0   14 420.710                                    0.10    621 152 
 ANAR BZ EPn  4   14 425.280                                   -0.60    662 340 
 TSHB BZ EPn  4   14 426.360                                   -1.30    677   3 
 BRJ  SZ EPn  0   14 426.940                                   -0.20    671 317 
 TKDS BZ EPn  4   14 427.200                                   -0.10    674   8 
 ZEF  SZ EPn  4   14 428.540                                   -1.20    693 329 
 TNSJ BZ EPn  4   14 431.020                                   -0.50    708   4 
 AFRZ BZ EPn  4   14 431.780                                    0.80    703  22 
 JHBN BZ EPn  4   14 434.640                                   -0.70    737 316 
 PIR  SZ EPn  4   14 436.380                                   -1.50    757 319 
 KLH  SZ EPn  4   14 437.510                                   -2.00    771 327 
 TAPT BZ EPn  4   14 445.360                                    0.60    814   7 
 SFB  BZ EPn  4   14 446.520                                   -0.90    836 335 
 LAS  SZ EPn  4   14 457.240                                    0.00    915 342 
 VRN  BZ EPn  4   14 457.720                                   -0.30    922 334 
 FIR  BZ EPn  4   14 5 0.860                                   -0.60    948 341 
 DMV  SZ EPn  4   14 5 3.140                                   -0.70    967 337 
 PAY  SZ EPn  4   14 5 9.780                                   -0.40   1019  15 
 PRN  SZ EPn  4   14 511.420                                    0.70   1024 340 
 AKL  SZ EPn  4   14 512.090                                    0.60   1028  13 
 SFR  SZ EPn  4   14 514.990                                   -0.80   1064   9 
 MZPU BZ EPn  4   14 516.880                                    0.20   1071 337 
 QABG BZ EPn  4   14 517.540                                   -1.90   1093 327 
 GTMR BZ EPn  4   14 449.020                                   -2.00    862 308 
 AHRM BZ EPn  0   14 4 6.580                                   -0.40    507 286 
 ASAO BZ EPn  0   14 5 3.160                                   -0.50    960 323 
 TBJM BZ EPn  0   14 5 1.100                                    0.60    936  25 
 KHMZ BZ EPn  0   14 455.200                                   -0.40    897 319 
 JSSH BZ EPn  0   14 332.360                                   -0.10    230 146 
 KRBR BZ EPn  4   14 334.910                                   -2.60    268  14 
 KAGH BZ EPn  0   14 520.110                                    0.10   1094  19 
 GHIR BZ EPn  0   14 343.810                                    0.60    315 283 
 SHRT BZ EPn  0   14 441.240                                    0.60    778  31 
 GLO  BZ EPn  0   14 510.190                                    1.00   1005 348 
 ABGH BZ EPn  0   14 510.840                                    0.50   1017 353 
 YZKH BZ EPn  0   14 412.390                                    0.20    547 345 
 CHTH BZ EPn  0   14 512.150                                   -0.20   1032 333 
 ANJ  BZ EPn  0   14 454.170                                   -1.00    893 347 
 TABS BZ EPn  0   14 428.120                                    0.40    674   8 
 BSRN BZ EPn  0   14 413.700                                   -0.20    562  31 
 NASN BZ EPn  0   14 424.850                                   -0.70    655 331 
 KLNJ BZ EPn  0   14 415.760                                   -0.10    576 310 
                                                                                

 2021 1114 1413 57.4 LQ 27.496  56.213 12.5  Teh 27 0.3 3.6LTeh                1
 GAP=91    Teh                                                                 E
 Action:ARG 22-08-28 16:25 OP:OBSP STATUS:               ID:20211114141357     I
 STAT SP IPHASW D HRMM SECON CODA AMPLIT PERI AZIMU VELO AIN AR TRES W  DIS CAZ7
 CHMN BZ E    0   141450.500      1313.0 0.24                                   
 JASK BZ E    0   141555.380      5452.3 0.40                                   
 BNDS BZ EPg  0   1414 0.660                                   -0.00   12.0 201 
 KBAM BZ E    0   141515.060      2289.3 0.18                                   
 KANR BZ E    0   141454.360       947.3 0.14                                   
 KSHB BZ E    0   141542.540      1324.0 0.28                                   
 TAFT BZ E    0   141510.240       431.5 0.12                                   
 KLNJ BZ E    0   141652.700       310.7 0.22                                   
 MZN1 BE EPg  0   141425.420                                    0.10    166 292 
 NHDN BZ E    0   141652.740       703.3 0.26                                   
 JASK BZ EPn  0   141435.400                                    0.10    244 137 
 UOSS BZ EPn  0   141440.420                                    0.30    282 180 
 KBAM BZ EPn  0   141440.560                                    0.10    285  50 
 CHMN BZ EPn  0   141441.640                                    0.00    292  26 
 KSHB BE EPn  0   141445.500                                    0.20    322 341 
 KANR BZ EPn  0   141453.500                                   -0.10    390 349 
 KRVR BZ EPn  0   1415 2.660                                   -0.20    464   8 
 TAFT BZ EPn  0   1415 8.060                                   -0.30    508 338 
 NHDN BZ EPn  0   141515.540                                   -0.40    570  40 
 KLNJ BN EPn  0   141519.300                                    0.20    594 312 
 WBK  BZ EPn  0   141519.810                                   -0.70    608 152 
 SRVN BZ EPn  0   141521.720                                    0.70    611  90 
 JHBN BN EPn  4   141537.980                                   -0.40    750 316 
 GHIR BZ EPn  0   141443.640                                   -0.30    317 285 
 TABS BZ EPn  0   141529.720                                   -0.10    686   8 
 BSRN BZ EPn  0   141515.560                                   -0.20    573  31 
 JSSH BZ EPn  0   141432.350                                    0.40    221 144 
 YZKH BZ EPn  0   141514.730                                    0.70    558 345 
 AHRM BZ EPn  0   1415 7.720                                   -0.00    509 287 
 ZHSF BZ EPn  4   141445.800                                   -22.6    512  63 
 LMD1 BZ EPn  0   141440.650                                    0.10    290 266 
 KRBR BZ EPn  4   141436.320                                   -3.20    280  14 
 GTMR BZ EPn  0   141551.650                                   -0.70    868 309 
 NASN BZ EPn  0   141527.520                                    0.20    664 332 
 CHBR BZ EPn  0   1415 4.780                                   -0.20    487 116 
                                                                                

 2021 1114 1419 32.6 LQ 27.625  56.176 10.0  Teh  5 0.4 2.7LTeh                1
 GAP=168   Teh                                                                 E
 Action:ARG 22-08-28 16:25 OP:OBSP STATUS:               ID:20211114141932     I
 STAT SP IPHASW D HRMM SECON CODA AMPLIT PERI AZIMU VELO AIN AR TRES W  DIS CAZ7
 BNDS BZ EPg  0   141938.520                                   -0.00   25.0 181 
 KRBR BZ EPn  4   142011.100                                   -4.30    267  12 
 CHMN BZ EPn  0   142016.520                                   -0.60    281  28 
 KBAM BZ EPn  0   142016.760                                    0.40    279  53 
 KANR BZ EPn  0   142028.620                                    0.20    375 349 
 CHMN BZ E    0   142018.380       518.9 0.08                                   
 KBAM BZ E    0   142017.900       691.3 0.10                                   
 KANR BZ E    0   142029.780       539.3 0.10                                   
                                                                                

