 2021 1115  032 24.8 LQ 27.566  56.153 11.0  Teh  8 0.3 2.9LTeh                1
 GAP=116   Teh                                                                 E
 Action:ARG 22-08-22 18:16 OP:OBSP STATUS:               ID:20211115003224     I
 STAT SP IPHASW D HRMM SECON CODA AMPLIT PERI AZIMU VELO AIN AR TRES W  DIS CAZ7
 BNDS BZ EPg  0    03229.100                                    0.20   19.0 175 
 BNB  BZ EPg  0    03231.900                                   -0.40   40.0 109 
 MZN1 BE E    0    03315.700      3214.6 0.40                                   
 JASK BZ E    0    03356.280      1043.5 0.44                                   
 JASK BZ EPn  0    033 4.000                                   -0.40    254 137 
 KBAM BZ E    0    03345.480       742.4 0.44                                   
 CHMN BZ E    0    03352.540       383.5 0.32                                   
 KBAM BZ EPn  0    033 8.500                                    0.20    285  52 
 CHMN BZ EPn  0    033 8.900                                   -0.10    288  28 
 MZN1 BE ESg  0    03312.700                                    0.00    158 291 
 KANR BZ E    0    03329.760       212.6 0.88                                   
 KANR BZ EPn  0    03320.100                                   -0.30    381 349 
 SRVN BZ E    0    03352.740        32.3 0.28                                   
 SRVN BZ EPn  0    03350.300                                    0.70    617  90 
                                                                                

 2021 1115  053 51.5 LQ 27.640  56.288  8.3  Teh  6 0.4 2.7LTeh                1
 GAP=145   Teh                                                                 E
 Action:ARG 22-08-22 18:16 OP:OBSP STATUS:               ID:20211115005351     I
 STAT SP IPHASW D HRMM SECON CODA AMPLIT PERI AZIMU VELO AIN AR TRES W  DIS CAZ7
 MZN1 BE E    0    05450.440      1813.2 0.52                                   
 JASK BZ E    0    05443.860       632.0 0.56                                   
 BNB  BZ EPg  0    05358.100                                   -0.20   33.0 130 
 CHMN BZ E    0    05522.940       192.8 0.36                                   
 KBAM BZ E    0    05511.920       359.4 0.32                                   
 KANR BZ E    0    05457.400        95.3 0.24                                   
 MZN1 BE EPg  0    05421.300                                    0.30    168 286 
 JASK BZ EPn  0    05431.900                                    0.00    251 141 
 KBAM BZ EPn  0    05435.000                                    0.70    269  51 
 CHMN BZ EPn  0    05435.200                                   -0.20    275  26 
 KANR BZ EPn  0    05447.000                                   -0.60    376 347 
                                                                                

 2021 1115  1 7  9.2 LQ 27.560  56.059 10.0  Teh  7 0.5 2.9LTeh                1
 GAP=144   Teh                                                                 E
 Action:ARG 22-08-22 18:16 OP:OBSP STATUS:               ID:20211115010709     I
 STAT SP IPHASW D HRMM SECON CODA AMPLIT PERI AZIMU VELO AIN AR TRES W  DIS CAZ7
 BNDS BZ EPg  0    1 714.200                                   -0.30   21.0 148 
 BNB  BZ E    0    1 741.780     42119.5 0.68                                   
 BNB  BZ EPg  0    1 718.600                                   -0.20   49.0 104 
 KBAM BZ E    0    1 814.160       495.2 0.64                                   
 KSHB BZ E    0    1 858.360       487.6 0.84                                   
 CHMN BZ EPn  0    1 754.100                                   -1.00    293  29 
 MZN1 BE ESg  0    1 755.000                                    0.00    149 292 
 KBAM BZ EPn  0    1 755.100                                    0.50    292  53 
 KSHB BZ EPn  0    1 757.400                                    0.20    311 343 
 SRVN BZ E    0    1 839.260        45.8 0.84                                   
 SRVN BZ EPn  0    1 836.700                                    0.70    626  90 
                                                                                

 2021 1115  123 24.6 LQ 27.449  56.007 14.3  Teh  7 0.1 2.9LTeh                1
 GAP=164   Teh                                                                 E
 Action:ARG 22-08-22 18:16 OP:OBSP STATUS:               ID:20211115012324     I
 STAT SP IPHASW D HRMM SECON CODA AMPLIT PERI AZIMU VELO AIN AR TRES W  DIS CAZ7
 BNDS BZ EPg  0    12328.700                                   -0.00   17.0 109 
 BNB  BZ E    0    124 9.100     29811.9 0.52                                   
 BNB  BZ EPg  0    12334.100                                    0.00   53.0  90 
 MZN1 BE E    0    12416.280      3682.8 0.64                                   
 JASK BZ E    0    12513.880      1218.9 0.60                                   
 KBAM BZ E    0    12449.040       487.9 0.40                                   
 CHMN BZ E    0    12448.340       362.4 0.84                                   
 JASK BZ EPn  0    124 3.600                                    0.00    254 133 
 MZN1 BE ESg  0    124 9.100                                    0.00    150 297 
 KBAM BZ EPn  0    12410.000                                    0.20    304  52 
 CHMN BZ EPn  0    12410.200                                   -0.20    306  29 
 SRVN BZ E    0    12711.740        35.4 0.96                                   
 SRVN BZ EPn  0    12450.400                                   -0.10    632  89 
                                                                                

 2021 1115  132 59.7 LQ 27.430  56.160 10.0  Teh  6 0.4 2.7LTeh                1
 GAP=206   Teh                                                                 E
 Action:ARG 22-08-22 18:16 OP:OBSP STATUS:               ID:20211115013259     I
 STAT SP IPHASW D HRMM SECON CODA AMPLIT PERI AZIMU VELO AIN AR TRES W  DIS CAZ7
 BNB  BZ E    0    13322.360     43091.3 0.36                                   
 BNB  BZ EPg  0    133 6.700                                   -0.70   38.0  87 
 KBAM BZ E    0    13350.320       314.2 0.64                                   
 CHMN BZ E    0    13349.420       290.0 0.36                                   
 SRVN BZ E    0    13431.220        35.1 0.44                                   
 KANR BZ E    0    134 3.720       124.6 0.32                                   
 KBAM BZ EPn  0    13345.800                                    0.50    294  49 
 CHMN BZ EPn  0    13346.700                                    0.10    301  26 
 MZN1 BE ESg  0    13349.800                                    0.00    164 295 
 KANR BZ EPn  0    13357.800                                   -0.30    396 349 
 SRVN BZ EPn  0    13425.800                                    0.50    617  89 
                                                                                

 2021 1115  141 27.9 LQ 27.552  55.988 11.1  Teh 17 0.5 3.4LTeh                1
 GAP=158   Teh                                                                 E
 Action:ARG 22-08-22 18:16 OP:OBSP STATUS:               ID:20211115014127     I
 STAT SP IPHASW D HRMM SECON CODA AMPLIT PERI AZIMU VELO AIN AR TRES W  DIS CAZ7
 BNB  BZ E    0    14214.840     82428.3 0.44                                   
 MZN1 BE E    0    14221.200      8942.8 0.56                                   
 JASK BZ E    0    14315.800      2518.5 0.52                                   
 KBAM BZ E    0    14251.740      1421.7 0.96                                   
 KSHB BZ E    0    14312.360      1260.1 0.68                                   
 BNDS BZ EPg  0    14132.800                                   -0.20   25.0 133 
 CHMN BZ E    0    14215.380       978.5 0.44                                   
 BNB  BZ EPg  0    14138.100                                    0.10   56.0 102 
 KANR BZ E    0    14320.540       633.9 0.68                                   
 BNB  BZ ESg  0    14145.200                                   -0.30   56.0 102 
 BAF  SZ E    0    14233.780       367.3 0.28                                   
 TAFT BZ E    0    14241.780       675.8 0.24                                   
 KLNJ BZ E    0    14414.680       198.0 0.64                                   
 MZN1 BE EPg  0    14153.700                                    1.00    143 293 
 JASK BZ EPn  0    142 8.700                                   -0.10    264 135 
 MZN1 BZ ESg  0    14211.100                                    0.00    143 293 
 CHMN BZ EPn  0    14213.200                                   -0.00    297  30 
 KBAM BZ EPn  0    14213.600                                    0.40    298  53 
 KANR BZ EPn  4    14223.800                                    0.50    380 352 
 BAF  SN EPn  0    14231.300                                   -0.60    449 355 
 KRVR BZ EPn  0    14233.300                                   -0.20    462  10 
 TAFT BZ EPn  0    14237.800                                    0.20    494 340 
 NGCH BZ EPn  0    14246.100                                   -0.30    568 114 
 KLNJ BE EPn  0    14246.900                                   -0.60    573 313 
 NHDN BZ EPn  0    14248.200                                    0.10    580  42 
 SRVN BZ EPn  0    14255.700                                    0.90    633  90 
 ANAR BZ EPn  4    14257.600                                   -0.60    661 341 
 ZNGN BZ EPn  4    143 5.100                                    0.90    708 317 
 JHBN BN EPn  4    143 5.800                                   -1.10    730 317 
                                                                                

 2021 1115  145 28.5 LQ 27.473  56.146 21.0  Teh  7 0.4 2.9LTeh                1
 GAP=131   Teh                                                                 E
 Action:ARG 22-08-22 18:16 OP:OBSP STATUS:               ID:20211115014528     I
 STAT SP IPHASW D HRMM SECON CODA AMPLIT PERI AZIMU VELO AIN AR TRES W  DIS CAZ7
 MZN1 BZ E    0    14625.260      4412.3 0.92                                   
 ZNGN BZ E    0    14710.140       161.0 0.24                                   
 BNB  BZ E    0    14549.000     25291.0 0.28                                   
 BNDS BZ EPn  0    14533.800                                   -0.40   9.00 163 
 BNB  BZ EPg  0    14536.800                                   -0.10   39.0  94 
 JASK BZ EPn  0    146 7.100                                    0.20    247 136 
 CHMN BZ E    0    14633.080      1064.5 0.28                                   
 KBAM BZ EPn  0    14612.700                                    0.10    292  50 
 CHMN BZ EPn  0    14613.200                                   -0.60    298  27 
 MZN1 BZ ESg  0    14618.000                                    0.00    161 294 
 SRVN BZ E    0    147 9.800        65.7 0.32                                   
 SRVN BZ EPn  0    14653.600                                    0.60    618  89 
                                                                                

 2021 1115  159 52.1 LQ 27.585  56.315 15.1  Teh  6 0.3 2.8LTeh                1
 GAP=170   Teh                                                                 E
 Action:ARG 22-08-22 18:16 OP:OBSP STATUS:               ID:20211115015952     I
 STAT SP IPHASW D HRMM SECON CODA AMPLIT PERI AZIMU VELO AIN AR TRES W  DIS CAZ7
 BNB  BZ E    0    2 0 9.020     71845.9 0.44                                   
 CHMN BZ E    0    2 118.480       331.5 0.44                                   
 SRVN BZ E    0    2 1 7.580        29.2 1.20                                   
 JASK BZ E    0    2 047.000      1114.0 0.36                                   
 KBAM BZ E    0    2 116.600       476.5 0.32                                   
 BNDS BZ EPg  0    15957.400                                   -0.10   25.0 215 
 BNB  BZ EPg  0    15957.600                                    0.10   27.0 124 
 JASK BZ EPn  0    2 030.100                                    0.20    245 141 
 KBAM BZ EPn  0    2 033.700                                    0.50    271  50 
 CHMN BZ EPn  0    2 034.300                                   -0.20    279  25 
 SRVN BZ EPn  0    2 113.700                                   -0.50    601  91 
                                                                                

 2021 1115  2 2 27.1 LQ 27.576  56.139  7.0  Teh 21 0.4 4.2LTeh                1
 GAP=119   Teh                                                                 E
 Action:ARG 22-08-22 18:16 OP:OBSP STATUS:               ID:20211115020227     I
 STAT SP IPHASW D HRMM SECON CODA AMPLIT PERI AZIMU VELO AIN AR TRES W  DIS CAZ7
 MZN1 BE E    0    2 329.080     64120.6 0.60                                   
 KSHB BZ E    0    2 422.940      7037.9 0.96                                   
 KBAM BZ E    0    2 4 6.980     10795.4 0.76                                   
 KANR BZ E    0    2 344.060      4521.2 0.48                                   
 BAF  SZ E    0    2 357.270      2627.2 0.76                                   
 BNDS BZ EPg  0    2 232.100                                   -0.00   20.0 171 
 BNB  BZ EPg  0    2 235.000                                   -0.60   42.0 109 
 CHMN BZ E    0    2 4 8.600      7564.3 0.72                                   
 TAFT BZ E    0    2 350.680      2393.4 0.28                                   
 SHI  BZ E    0    2 5 3.040      2739.1 0.72                                   
 MZN1 BE EPg  0    2 254.500                                   -0.10    156 290 
 BAZ1 BZ E    0    2 441.680      2411.8 0.56                                   
 KRVR BZ E    0    2 458.080       -99.0 1.08                                   
 KBAM BZ EPn  0    2 311.700                                   -0.30    285  52 
 CHMN BN EPn  0    2 313.000                                    0.20    288  28 
 KANR BN EPn  0    2 324.500                                    0.70    380 349 
 BAZ1 BN EPn  0    2 326.000                                   -0.20    400  85 
 BAF  SZ EPn  0    2 331.700                                   -0.50    448 353 
 CHBR BZ EPn  0    2 337.100                                    0.70    485 116 
 TAFT BZ EPn  0    2 338.500                                    0.10    497 338 
 NHDN BZ EPn  0    2 347.100                                    0.10    568  41 
 KLNJ BN EPn  0    2 348.900                                   -0.30    583 312 
 ANAR BZ EPn  4    2 358.800                                   -0.00    664 340 
 JHBN BZ EPn  4    2 4 7.600                                   -0.80    738 316 
 GHIR BZ EPn  0    2 317.820                                    0.50    328 284 
 YZKH BZ EPn  0    2 345.840                                    0.10    555 344 
 KRBR BZ EPn  0    2 3 9.830                                   -0.60    271  11 
 LMD1 BZ EPn  4    2 317.300                                    3.10    303 265 
 JSSH BZ EPn  0    2 3 4.350                                    0.70    219 148 
 BSRN BZ EPn  0    2 347.690                                    1.40    561  30 
 SRVN BZ EPn  0    2 352.410                                   -0.10    611  92 
                                                                                

 2021 1115  218  4.8 LQ 27.633  56.174 21.4  Teh  6 0.3 2.9LTeh                1
 GAP=107   Teh                                                                 E
 Action:ARG 22-08-22 18:16 OP:OBSP STATUS:               ID:20211115021804     I
 STAT SP IPHASW D HRMM SECON CODA AMPLIT PERI AZIMU VELO AIN AR TRES W  DIS CAZ7
 BNDS BZ E    0    21820.080     35388.9 0.44                                   
 BNB  BZ E    0    21823.860     48199.4 0.40                                   
 BNDS BZ EPg  0    21810.900                                    0.20   26.0 181 
 BNB  BZ EPg  0    21812.500                                   -0.20   41.0 119 
 MZN1 BE E    0    219 6.680      2193.1 0.76                                   
 MZN1 BE EPn  0    21830.700                                   -0.10    157 288 
 KBAM BZ E    0    21849.040      1522.0 0.44                                   
 CHMN BZ E    0    21925.640       810.3 0.44                                   
 CHMN BZ EPn  0    21846.100                                   -0.30    280  28 
 KBAM BZ EPn  0    21846.400                                    0.50    278  53 
 SRVN BZ E    0    22055.800        45.8 0.64                                   
 SRVN BZ EPn  0    21927.600                                   -0.10    615  91 
                                                                                

 2021 1115  245 22.8 LQ 27.525  56.042 10.0  Teh  6 0.4 2.8LTeh                1
 GAP=156   Teh                                                                 E
 Action:ARG 22-08-22 18:16 OP:OBSP STATUS:               ID:20211115024522     I
 STAT SP IPHASW D HRMM SECON CODA AMPLIT PERI AZIMU VELO AIN AR TRES W  DIS CAZ7
 BNDS BZ EPn  0    24526.300                                   -0.60   19.0 138 
 BNB  BZ EPg  0    24532.400                                    0.60   50.0 100 
 KBAM BZ E    0    24658.780       644.4 0.56                                   
 CHMN BZ E    0    24653.460       851.7 0.96                                   
 JASK BZ EPn  0    246 3.200                                    0.30    258 135 
 KBAM BZ EPn  0    246 7.600                                   -0.20    296  52 
 CHMN BZ EPn  0    246 8.000                                   -0.20    297  29 
 MZN1 BZ ESg  0    246 8.200                                    0.00    149 294 
                                                                                

