 2021 1114 1930  7.9 LQ 27.486  56.043 13.5  Teh  8 0.3 2.9LTeh                1
 GAP=118   Teh                                                                 E
 Action:ARG 22-08-22 18:16 OP:OBSP STATUS:               ID:20211114193007     I
 STAT SP IPHASW D HRMM SECON CODA AMPLIT PERI AZIMU VELO AIN AR TRES W  DIS CAZ7
 MZN1 BZ E    0   1931 2.740      3635.0 0.64                                   
 BNDS BZ EPg  0   193012.300                                   -0.30   16.0 127 
 BNB  BZ EPg  0   193017.900                                    0.30   49.0  95 
 JASK BZ EPn  0   193047.900                                   -0.20    254 134 
 CHMN BZ E    0   193132.660      1459.3 0.68                                   
 KBAM BZ E    0   193145.380       996.0 0.68                                   
 UOSS BZ EPn  0   193051.700                                    0.20    282 177 
 KBAM BZ EPn  0   193054.100                                    0.40    299  52 
 CHMN BZ EPn  0   193054.200                                   -0.20    301  29 
 MZN1 BE ESg  0   193054.300                                    0.00    151 295 
 KANR BZ E    0   1932 9.900       393.5 1.28                                   
 KANR BZ EPn  0   1931 4.600                                   -0.30    388 351 
                                                                                

 2021 1114 1950 18.2 LQ 27.736  56.364 10.0  Teh  3 0.4 2.8LTeh                1
 GAP=131   Teh                                                                 E
 Action:ARG 22-08-22 18:16 OP:OBSP STATUS:               ID:20211114195018     I
 STAT SP IPHASW D HRMM SECON CODA AMPLIT PERI AZIMU VELO AIN AR TRES W  DIS CAZ7
 BNB  BZ EPg  0   195024.800                                   -0.20   36.0 151 
 MZN1 BE EPn  0   195046.800                                   -0.10    172 282 
 CHMN BZ EPn  0   195059.800                                    0.60    262  26 
 BNB  BZ E    0   195035.780     15083.4 0.44                                   
 CHMN BN ESg  0   195136.700                                    0.00    262  26 
 CHMN BZ E    0   195144.420       324.6 0.52                                   
 MZN1 BZ E    0   195114.260      1588.3 0.24                                   
                                                                                

 2021 1114 20 9 49.2 LQ 27.542  56.093 18.3  Teh 29 0.4 3.5LTeh                1
 GAP=114   Teh                                                                 E
 Action:ARG 22-08-22 18:16 OP:OBSP STATUS:               ID:20211114200949     I
 STAT SP IPHASW D HRMM SECON CODA AMPLIT PERI AZIMU VELO AIN AR TRES W  DIS CAZ7
 BNB  BZ E    0   201011.660     14639.0 0.56                                   
 KANR BZ E    0   201046.000       881.5 0.24                                   
 KSHB BZ E    0   201123.080      1133.4 0.56                                   
 CHMN BZ E    0   201110.840      1270.5 0.28                                   
 BAF  SZ E    0   201053.500       532.1 0.16                                   
 KBAM BZ E    0   201110.740      2106.7 0.48                                   
 JASK BZ E    0   201120.900      4415.1 0.84                                   
 BNDS BZ EPg  0   20 953.700                                   -0.10   18.0 154 
 BNB  BZ EPg  0   20 956.900                                   -0.70   45.0 103 
 NHDN BZ E    0   201231.760       589.8 0.76                                   
 BNB  BZ ESg  0   2010 4.400                                    0.40   45.0 103 
 KLNJ BZ E    0   201222.920       340.6 0.52                                   
 MZN1 BE EPg  0   201015.500                                    0.50    153 292 
 TAFT BZ E    0   2011 5.720       427.7 0.24                                   
 JASK BZ EPn  0   201028.300                                    0.30    256 136 
 UOSS BZ EPn  0   201032.300                                    0.40    288 178 
 KBAM BZ EPn  0   201032.800                                    0.40    291  52 
 CHMN BZ EPn  0   201033.200                                    0.30    293  28 
 MZN1 BE ESg  0   201034.800                                    0.20    153 292 
 KANR BZ EPn  0   201043.800                                   -0.00    382 350 
 BAF  SZ EPn  0   201051.700                                   -0.70    450 354 
 HOQ  BZ EPn  0   201052.100                                   -0.60    455 164 
 TAFT BZ EPn  0   201058.300                                   -0.10    499 339 
 NGCH BZ EPn  0   2011 5.300                                   -0.10    558 115 
 KLNJ BZ EPn  0   2011 8.100                                   -0.60    582 312 
 SRVN BZ EPn  0   201113.900                                    0.20    623  90 
 ZNGN BZ EPn  0   201125.700                                    0.30    716 316 
 JHBN BZ EPn  4   201127.400                                   -0.70    738 316 
 PIR  SZ EPn  4   201129.800                                   -0.80    759 320 
 KLH  SZ EPn  4   201131.200                                   -1.20    773 327 
 SFB  BZ EPn  0   201140.400                                   -0.00    839 335 
 GHIR BZ EPn  0   201036.430                                    0.20    315 283 
 YZKH BZ EPn  0   2011 5.250                                    0.10    548 345 
 JSSH BZ EPn  0   201025.350                                    0.00    228 146 
 KRBR BZ EPn  4   201027.440                                   -3.10    268  14 
 KHMZ BZ EPn  0   201147.710                                   -0.90    897 319 
 LMD1 BZ EPn  0   201033.380                                    0.10    292 264 
 ILBA BZ EPn  4   201217.610                                   -3.30   1158 305 
 NASN BZ EPn  0   201117.930                                   -0.60    655 331 
 ASAO BZ EPn  0   201155.910                                   -0.70    962 323 
 ZHSF BZ EPn  4   201034.170                                   -25.8    506  64 
                                                                                

 2021 1114 2023 11.4 LQ 27.463  56.024 13.6  Teh  8 0.4 2.9LTeh                1
 GAP=162   Teh                                                                 E
 Action:ARG 22-08-22 18:16 OP:OBSP STATUS:               ID:20211114202311     I
 STAT SP IPHASW D HRMM SECON CODA AMPLIT PERI AZIMU VELO AIN AR TRES W  DIS CAZ7
 BNDS BZ EPg  0   202315.900                                   -0.30   16.0 116 
 BNB  BZ EPg  0   202321.400                                    0.10   51.0  92 
 KRBR BZ E    0   202427.100       616.2 0.56                                   
 KBAM BZ E    0   202458.880       820.7 0.88                                   
 CHMN BZ E    0   202434.720       909.6 0.96                                   
 MZN1 BE EPg  0   202338.500                                    0.50    150 296 
 KRBR BZ EPn  4   202351.300                                   -5.10    288  14 
 JASK BZ EPn  0   202351.500                                   -0.10    254 134 
 MZN1 BE ESg  0   202357.500                                   -0.10    150 296 
 CHMN BZ EPn  0   202358.200                                   -0.10    304  29 
 KBAM BZ EPn  0   202358.300                                    0.70    302  52 
 KANR BZ EPn  0   2024 7.900                                   -0.80    390 351 
 MZN1 BZ E    0   2024 4.260      4900.3 0.56                                   
                                                                                

 2021 1114 2041 13.6 LQ 27.569  56.196  9.8  Teh  6 0.4 2.9LTeh                1
 GAP=102   Teh                                                                 E
 Action:ARG 22-08-22 18:16 OP:OBSP STATUS:               ID:20211114204113     I
 STAT SP IPHASW D HRMM SECON CODA AMPLIT PERI AZIMU VELO AIN AR TRES W  DIS CAZ7
 BNDS BZ EPg  0   204118.000                                   -0.60   19.0 188 
 BNB  BZ EPg  0   204121.400                                    0.40   36.0 111 
 CHMN BZ E    0   2042 1.800       795.7 0.32                                   
 MZN1 BE EPg  0   204142.400                                    0.40    161 290 
 KBAM BZ E    0   204240.360      1288.9 0.44                                   
 JASK BZ EPn  0   204154.200                                    0.40    251 138 
 KBAM BZ EPn  0   204157.200                                   -0.40    281  51 
 CHMN BZ EPn  0   204158.500                                   -0.20    286  27 
 MZN1 BZ E    0   2042 5.440      2964.6 0.48                                   
                                                                                

 2021 1114 2113 31.8 LQ 27.611  56.279 10.0  Teh  7 0.4 2.8LTeh                1
 GAP=84    Teh                                                                 E
 Action:ARG 22-08-22 18:16 OP:OBSP STATUS:               ID:20211114211331     I
 STAT SP IPHASW D HRMM SECON CODA AMPLIT PERI AZIMU VELO AIN AR TRES W  DIS CAZ7
 BNDS BZ EPg  0   211336.300                                   -0.60   26.0 204 
 BNB  BZ EPg  0   211337.800                                    0.10   31.0 125 
 BNDS BZ ESg  0   211341.200                                    0.40   26.0 204 
 MZN1 BE EPg  0   2114 0.300                                   -0.30    168 288 
 KRBR BZ EPn  4   2114 9.500                                   -3.90    267  10 
 KBAM BZ EPn  0   211413.500                                   -0.30    272  51 
 CHMN BZ EPn  0   211414.900                                    0.10    278  26 
 BNB  BZ E    0   211349.040     23388.1 0.12                                   
 RAM  SE EPn  0   211455.000                                    0.50    599 322 
 MZN1 BE E    0   2114 3.420      1400.2 0.12                                   
 KRBR BZ E    0   211411.680       374.5 0.24                                   
 CHMN BZ E    0   211416.060       358.4 0.16                                   
 KBAM BZ E    0   211417.340       386.1 0.32                                   
                                                                                

 2021 1114 2127 37.9 LQ 27.566  56.161 13.8  Teh  9 0.5 2.7LTeh                1
 GAP=113   Teh                                                                 E
 Action:ARG 22-08-22 18:16 OP:OBSP STATUS:               ID:20211114212737     I
 STAT SP IPHASW D HRMM SECON CODA AMPLIT PERI AZIMU VELO AIN AR TRES W  DIS CAZ7
 BNDS BZ EPg  0   212742.000                                   -0.20   19.0 177 
 BNB  BZ EPg  0   212745.300                                    0.00   40.0 109 
 MZN1 BE E    0   212828.720      3339.0 0.28                                   
 CHMN BZ E    0   2129 0.960       556.0 0.32                                   
 JASK BZ E    0   212829.800      1386.6 0.20                                   
 KRBR BZ E    0   212822.120       682.5 0.28                                   
 KBAM BZ E    0   212859.320       932.1 0.36                                   
 BAF  SZ E    0   212843.860       138.4 0.16                                   
 MZN1 BE EPn  0   2128 4.800                                    0.60    158 290 
 BNDS BZ E    0   212749.460     68275.4 0.12                                   
 KANR BZ E    0   212833.140       529.8 0.24                                   
 BNB  BZ E    0   212759.300     48224.1 0.20                                   
 KRBR BZ EPn  4   212815.400                                   -4.30    274  12 
 JASK BZ EPn  0   212816.700                                   -0.10    253 138 
 KBAM BZ EPn  0   212821.200                                    0.50    284  52 
 CHMN BZ EPn  0   212821.900                                    0.50    288  28 
 KANR BZ EPn  0   212832.500                                   -0.30    381 349 
 BAF  SZ EPn  0   212840.400                                   -0.90    450 353 
                                                                                

 2021 1114 2133 35.3 LQ 27.619  56.249 11.8  Teh  5 0.1 2.9LTeh                1
 GAP=99    Teh                                                                 E
 Action:ARG 22-08-22 18:16 OP:OBSP STATUS:               ID:20211114213335     I
 STAT SP IPHASW D HRMM SECON CODA AMPLIT PERI AZIMU VELO AIN AR TRES W  DIS CAZ7
 BNDS BZ EPg  0   213341.400                                    0.00   26.0 198 
 BNB  BZ EPg  0   213342.500                                    0.00   34.0 123 
 MZN1 BE EPg  0   2134 4.300                                   -0.00    165 288 
 CHMN BZ E    0   213455.680       847.2 0.60                                   
 KBAM BZ EPn  0   213418.200                                   -0.10    274  52 
 CHMN BZ EPn  0   213419.400                                    0.10    279  27 
 MZN1 BZ E    0   213433.180      3553.0 0.32                                   
                                                                                

 2021 1114 2213 17.5 LQ 27.602  56.217 11.9  Teh 14 0.4 3.2LTeh                1
 GAP=98    Teh                                                                 E
 Action:ARG 22-08-22 18:16 OP:OBSP STATUS:               ID:20211114221317     I
 STAT SP IPHASW D HRMM SECON CODA AMPLIT PERI AZIMU VELO AIN AR TRES W  DIS CAZ7
 BNB  BZ E    0   221341.100      7262.0 0.40                                   
 MZN1 BE E    0   221427.160      4189.5 1.00                                   
 KBAM BZ E    0   221443.720      1398.2 0.44                                   
 CHMN BZ E    0   221446.340       902.2 0.80                                   
 BNDS BZ EPg  0   221322.100                                   -0.20   23.0 191 
 BNB  BZ EPg  0   221324.400                                    0.10   36.0 118 
 KANR BZ E    0   2215 8.860       557.1 0.92                                   
 MZN1 BE EPg  0   221345.200                                   -0.30    162 289 
 TAFT BZ E    0   221544.000       172.0 0.84                                   
 JASK BZ EPn  0   221356.400                                   -0.50    253 139 
 KBAM BZ EPn  0   2214 0.300                                    0.30    277  52 
 CHMN BZ EPn  0   2214 1.000                                    0.20    282  27 
 UOSS BZ EPn  0   2214 2.000                                   -0.00    294 180 
 MZN1 BZ ESg  0   2214 7.200                                    0.00    162 289 
 KLNJ BZ E    0   221544.020       148.1 0.64                                   
 KANR BZ EPn  0   221412.500                                   -0.10    378 348 
 BAF  SZ EPn  0   221420.200                                   -0.80    445 352 
 KRVR BZ EPn  0   221421.400                                   -0.40    452   8 
 TAFT BZ EPn  0   221427.400                                   -0.10    497 337 
 NHDN BZ EPn  0   221435.300                                    0.10    561  41 
 KLNJ BZ EPn  0   221438.600                                   -0.00    587 311 
 SRVN BZ EPn  0   221442.400                                    0.90    611  91 
                                                                                

 2021 1114 2248 53.5 LQ 27.595  56.188 12.5  Teh 16 0.5 3.4LTeh                1
 GAP=105   Teh                                                                 E
 Action:ARG 22-08-22 18:16 OP:OBSP STATUS:               ID:20211114224853     I
 STAT SP IPHASW D HRMM SECON CODA AMPLIT PERI AZIMU VELO AIN AR TRES W  DIS CAZ7
 BNB  BZ E    0   224924.840      8272.0 0.44                                   
 JASK BZ E    0   225030.140      3678.5 0.48                                   
 MZN1 BE E    0   224959.600      9168.7 0.72                                   
 CHMN BZ E    0   225020.300      1188.9 0.36                                   
 KANR BZ E    0   224959.840       693.2 0.36                                   
 BNDS BZ EPg  0   224858.200                                    0.10   22.0 184 
 BNB  BZ EPg  0   2249 0.500                                   -0.20   38.0 115 
 KBAM BZ E    0   225019.360      1951.5 0.60                                   
 TAFT BZ E    0   225024.000       332.3 0.52                                   
 KSHB BZ E    0   225037.020      1227.1 0.44                                   
 KRVR BZ E    0   225121.840       -99.0 0.72                                   
 BAF  SZ E    0   225017.480       215.8 0.48                                   
 MZN1 BE EPg  0   224921.300                                    0.80    160 289 
 JASK BZ EPn  0   224932.400                                   -0.20    254 139 
 CHMN BZ EPn  0   224936.100                                   -0.60    284  27 
 KBAM BE EPn  0   224936.600                                    0.70    280  52 
 UOSS BZ EPn  0   224938.100                                    0.60    293 180 
 MZN1 BZ ESg  0   224940.000                                    0.00    160 289 
 KANR BZ EPn  0   224948.500                                    0.20    378 349 
 BAF  SZ EPn  0   224956.500                                   -0.20    447 352 
 KRVR BZ EPn  0   224957.200                                   -0.40    454   8 
 TAFT BZ EPn  0   2250 3.500                                    0.50    497 337 
 KLNJ BN EPn  0   225014.300                                    0.30    585 311 
 WBK  BZ EPn  0   225017.300                                   -0.60    619 152 
 ZEF  SZ EPn  0   225027.700                                    0.10    695 329 
 JHBN BN EPn  0   225033.600                                    0.30    740 315 
 KLH  SZ EPn  0   225037.100                                   -0.30    773 326 
                                                                                

 2021 1114 2250 41.8 LQ 27.879  56.157 10.0  Teh  4 0.2 2.9LTeh                1
 GAP=137   Teh                                                                 E
 Action:ARG 22-08-22 18:16 OP:OBSP STATUS:               ID:20211114225041     I
 STAT SP IPHASW D HRMM SECON CODA AMPLIT PERI AZIMU VELO AIN AR TRES W  DIS CAZ7
 KBAM BZ E    0   225219.680       843.7 0.72                                   
 CHMN BZ E    0   2252 6.620       948.0 0.64                                   
 MZN1 BE E    0   225136.520      5350.3 0.68                                   
 BNB  BZ EPg  0   225053.400                                    0.10   61.0 141 
 MZN1 BE EPg  0   2251 8.200                                   -0.10    149 278 
 CHMN BZ EPg  0   225126.900                                    0.20    258  31 
 KBAM BZ EPg  0   225127.200                                   -0.20    264  58 
                                                                                

