 2021 1114 12 8 38.1 LQ 27.536  56.174 10.0  Teh 11 0.3 6.3LTeh                1
 GAP=130   Teh                                                                 E
 Action:ARG 22-08-22 18:16 OP:OBSP STATUS:               ID:20211114120838     I
 STAT SP IPHASW D HRMM SECON CODA AMPLIT PERI AZIMU VELO AIN AR TRES W  DIS CAZ7
 BAZ1 BZ E    0   121038.780     30203.0 1.04                                   
 CHMN BZ E    0   121013.720      8430.0 1.04                                   
 KSHB BZ E    0   121019.140      11.6e5 1.16                                   
 KBAM BZ E    0   1210 4.680      11.9e5 1.04                                   
 KRVR BZ E    0   1211 2.720       -99.0 1.20                                   
 KHGB BZ E    0   121024.860     74613.0 0.72                                   
 BAF  SZ E    0   1211 2.560     51508.0 0.80                                   
 KANR BZ E    0   121034.940     61371.0 0.88                                   
 LMD1 BZ E    0   121034.520      18.1e5 1.00                                   
 SHI  BZ E    0   121112.980     70248.0 1.24                                   
 RAM  SZ E    0   121148.600     34214.0 1.04                                   
 SRVN BZ E    0   121035.760     27742.0 1.08                                   
 TAFT BZ E    0   121050.780     83574.0 0.96                                   
 NGCH BZ E    0   121041.180     23623.0 1.12                                   
 BNDS BZ EPg  0   12 841.500                                   -0.10   15.0 181 
 MZN1 BE EPg  0   12 9 6.300                                    0.50    161 291 
 KBAM BZ EPn  0   12 922.000                                    0.20    285  51 
 CHMN BZ EPn  0   12 922.300                                   -0.30    290  27 
 MZN1 BE ESg  0   12 926.500                                   -0.30    161 291 
 YZKH BZ EPn  0   12 954.570                                    0.10    562 342 
 ASAO BZ ES   0   121222.170                                    0.60    983 322 
 GLO  BZ EPn  0   121052.590                                    1.30   1019 346 
 BNDS BZ ESg  0   12 846.760                                    0.40   27.0 227 
 NASN BZ EPn  0   1210 7.830                                   -0.60    674 329 
 ABGH BZ EPn  0   121051.160                                   -1.10   1028 352 
 ASAO BZ EPn  0   121047.420                                    0.60    983 322 
 CHTH BZ EPn  0   121054.390                                   -0.80   1050 332 
 CHBR BZ EPn  0   12 942.060                                   -0.10    464 118 
                                                                                

 2021 1114 1240 52.6 LQ 27.550  56.211 19.2  Teh 24 0.3 4.2LTeh                1
 GAP=98    Teh                                                                 E
 Action:ARG 22-08-22 18:16 OP:OBSP STATUS:               ID:20211114124052     I
 STAT SP IPHASW D HRMM SECON CODA AMPLIT PERI AZIMU VELO AIN AR TRES W  DIS CAZ7
 JASK BZ E    0   124212.380     14013.6 0.92                                   
 KHGB BE E    0   124231.020      5241.6 0.44                                   
 KBAM BZ E    0   124136.320     10974.6 0.24                                   
 KSHB BZ E    0   124236.320      6107.6 0.72                                   
 MZN1 BE E    0   124150.480     32693.1 0.84                                   
 LMD1 BZ E    0   124245.400     13601.9 0.56                                   
 CHMN BZ E    0   124149.520      4666.5 0.40                                   
 KRVR BZ E    0   124316.920       -99.0 0.88                                   
 NHDN BZ E    0   124334.520      2786.6 0.80                                   
 JHRM BZ E    0   124234.060     19503.5 0.48                                   
 BAZ1 BZ E    0   1242 0.100      2925.1 0.52                                   
 BNDS BZ EPg  0   124057.300                                    0.00   17.0 193 
 NGCH BZ E    0   1242 9.000      3240.8 0.32                                   
 KBAM BZ EPn  0   124134.700                                    0.10    281  51 
 CHMN BZ EPn  0   124135.800                                    0.30    287  27 
 MZN1 BE ESg  0   124141.100                                   -0.10    164 291 
 BAZ1 BZ EPn  0   124147.900                                   -0.60    393  84 
 BAF  SZ EPn  0   124155.700                                   -0.10    452 352 
 NGCH BZ EPn  0   1242 7.700                                    0.30    548 115 
 GHIR BZ EPn  0   124138.800                                    0.50    323 284 
 YZKH BZ EPn  0   1242 7.000                                   -0.10    553 344 
 BNDS BZ ESg  0   1241 1.210                                   -0.40   21.0 180 
 NASN BZ EPn  0   124221.330                                    0.70    662 331 
 BSRN BZ EPn  0   1242 8.010                                   -0.10    563  30 
 CHBR BZ EPn  0   124157.480                                   -0.60    483 117 
 AHRM BZ EPn  0   1242 1.670                                   -0.40    515 286 
 TABS BZ EPn  0   124222.480                                    0.10    678   8 
 KRBR BZ EPn  0   124131.940                                   -0.10    271  12 
 GTMR BZ EPn  0   124245.180                                   -1.00    870 308 
 JSSH BZ EPn  0   124125.650                                    0.00    222 147 
 KHMZ BZ EPn  0   124251.110                                    0.40    905 319 
 LMD1 BZ EPn  0   124135.330                                    0.10    299 265 
 SHRT BZ EPn  0   124234.580                                   -0.30    779  30 
 ASAO BZ EPn  0   124258.730                                   -0.00    969 323 
 KLNJ BZ EPn  0   124210.870                                   -0.10    584 310 
 ZHSF BZ EPn  4   124141.340                                   -19.3    502  64 
 SRVN BZ EPn  0   124215.520                                    0.80    616  92 
                                                                                

 2021 1114 1252 37.8 LQ 27.518  56.093 15.1  Teh 25 0.4 4.0LTeh                1
 GAP=135   Teh                                                                 E
 Action:ARG 22-08-22 18:16 OP:OBSP STATUS:               ID:20211114125237     I
 STAT SP IPHASW D HRMM SECON CODA AMPLIT PERI AZIMU VELO AIN AR TRES W  DIS CAZ7
 KSHB BZ E    0   125422.940      4172.4 0.76                                   
 JASK BZ E    0   1254 5.320     13178.9 0.32                                   
 CHMN BZ E    0   125328.420      4561.6 0.32                                   
 KBAM BZ E    0   125332.780      7293.8 0.76                                   
 BAF  SZ E    0   125356.930       908.8 0.40                                   
 KANR BZ E    0   125436.680      2585.6 0.68                                   
 BNDS BZ EPg  0   125241.800                                    0.00   15.0 150 
 KHGB BZ E    0   125411.040      3025.1 0.56                                   
 LMD1 BZ E    0   125425.780     13456.0 0.40                                   
 TAFT BZ E    0   125355.660      1071.4 0.28                                   
 NGCH BZ E    0   125358.380      1679.6 0.28                                   
 GAR  SZ E    0   125416.040       702.0 0.16                                   
 UOSS BZ EPn  0   125321.100                                    0.60    285 178 
 KBAM BZ EPn  0   125322.000                                    0.40    293  52 
 CHMN BZ EPn  0   125322.600                                    0.40    296  28 
 KHGB BZ EPn  0   125325.300                                    0.30    319   7 
 HOQ  BZ EPn  0   125341.100                                   -0.20    452 164 
 BAF  SZ EPn  0   125341.100                                   -0.60    454 354 
 TAFT BE EPn  0   125347.200                                   -0.50    502 339 
 NGCH BZ EPn  0   125353.500                                   -0.70    557 114 
 KLNJ BZ EPn  0   125358.200                                    0.20    584 313 
 GAR  SZ EPn  4   1254 7.600                                   -0.70    668 325 
 ZEF  SN EPn  4   125411.100                                   -0.90    697 330 
 KLH  SZ EPn  4   125422.200                                    0.50    775 327 
 GHIR BZ EPn  0   125327.870                                    0.90    327 285 
 YZKH BZ EPn  0   125355.920                                   -0.20    561 344 
 KRBR BZ EPn  4   125318.220                                   -2.80    278  11 
 KHMZ BZ EPn  0   125439.350                                   -0.40    912 319 
 LMD1 BZ EPn  0   125323.890                                    0.30    301 266 
 NASN BZ EPn  0   1254 8.940                                   -0.70    670 331 
 GTMR BZ EPn  0   125434.250                                   -0.80    877 309 
 ASAO BZ EPn  0   125447.500                                   -0.30    977 323 
 JSSH BZ EPn  0   125312.650                                   -0.10    214 147 
 BSRN BZ EPn  0   125357.640                                    0.80    568  30 
 CHBR BZ EPn  0   125344.940                                   -0.50    476 117 
 SRVN BZ EPn  0   1254 2.860                                    0.40    613  91 
                                                                                

 2021 1114 13 5 48.4 LQ 27.525  56.245  9.0  Teh 12 0.3 3.6LTeh                1
 GAP=89    Teh                                                                 E
 Action:ARG 22-08-22 18:16 OP:OBSP STATUS:               ID:20211114130548     I
 STAT SP IPHASW D HRMM SECON CODA AMPLIT PERI AZIMU VELO AIN AR TRES W  DIS CAZ7
 KRBR BZ E    0   13 7 7.040      2213.5 0.32                                   
 CHMN BZ E    0   13 7 9.380      1912.4 0.56                                   
 BAZ1 BZ E    0   13 748.520       813.5 0.64                                   
 BNDS BZ ESg  0   13 554.200                                    0.00   16.0 208 
 KBAM BZ E    0   13 7 8.920      2628.6 0.88                                   
 KANR BZ E    0   13 749.040      1083.2 0.64                                   
 MZN1 BE EPg  0   13 617.300                                    0.10    168 291 
 CHMN BE EPn  0   13 632.600                                   -0.20    288  26 
 KSHB BE EPn  0   13 637.100                                    0.40    320 340 
 MZN1 BZ ESg  0   13 639.300                                    0.40    168 291 
 KANR BN EPn  0   13 644.700                                   -0.20    387 348 
 BAF  SN EPn  4   13 652.700                                   -0.60    455 352 
 KRVR BZ EPn  0   13 653.700                                   -0.40    461   7 
 TAFT BZ EPn  4   13 657.900                                   -2.00    507 337 
 NGCH BZ EPn  0   13 7 4.300                                    0.20    543 115 
 WBK  BZ EPn  0   13 712.600                                    0.30    609 153 
 ANAR BZ EPn  4   13 719.500                                   -0.90    673 340 
 ZEF  SZ EPn  4   13 722.100                                   -2.30    704 329 
                                                                                

 2021 1114 1313 15.9 LQ 27.567  56.161 19.7  Teh 16 0.4 4.0LTeh                1
 GAP=133   Teh                                                                 E
 Action:ARG 22-08-22 18:16 OP:OBSP STATUS:               ID:20211114131315     I
 STAT SP IPHASW D HRMM SECON CODA AMPLIT PERI AZIMU VELO AIN AR TRES W  DIS CAZ7
 KBAM BZ E    0   1315 9.660      5675.4 0.44                                   
 MZN1 BE E    0   131434.840     22395.8 0.48                                   
 KSHB BN E    0   131535.380      5197.8 0.96                                   
 BNDS BZ EPg  0   131320.800                                    0.00   19.0 177 
 KANR BZ E    0   131544.860      3103.5 0.88                                   
 BNDS BZ ESg  0   131324.500                                    0.00   19.0 177 
 CHMN BZ E    0   1315 6.560      3888.3 1.00                                   
 BAF  SZ E    0   131556.150      1587.0 0.80                                   
 TAFT BZ E    0   131513.720      1160.1 0.92                                   
 NGCH BZ E    0   131533.600      1671.8 0.68                                   
 KBAM BN EPn  0   131358.600                                    0.50    284  52 
 CHMN BN EPn  0   131359.200                                    0.40    288  28 
 UOSS BZ EPn  0   131359.300                                    0.50    290 179 
 KSHB BZ EPn  0   1314 1.900                                    0.00    313 341 
 KANR BZ EPn  0   131410.400                                    0.10    381 349 
 BAF  SN EPn  0   131418.400                                   -0.30    450 353 
 HOQ  BZ EPn  0   131420.200                                    0.80    456 165 
 TAFT BZ EPn  0   131425.100                                    0.20    499 338 
 NGCH BZ EPn  0   131430.400                                   -0.90    553 115 
 KLNJ BE EPn  0   131435.300                                   -0.40    585 312 
 WBK  BZ EPn  0   131438.700                                   -0.70    617 152 
 ANAR BN EPn  0   131445.500                                   -0.00    665 340 
 BRJ  SZ EPn  0   131446.600                                   -0.20    675 317 
 JHBN BZ EPn  4   131454.000                                   -1.00    741 316 
 PIR  SZ EPn  4   131456.700                                   -0.80    761 319 
                                                                                

 2021 1114 1345  0.8 LQ 27.522  56.135 18.8  Teh 13 0.3 3.6LTeh                1
 GAP=127   Teh                                                                 E
 Action:ARG 22-08-22 18:16 OP:OBSP STATUS:               ID:20211114134500     I
 STAT SP IPHASW D HRMM SECON CODA AMPLIT PERI AZIMU VELO AIN AR TRES W  DIS CAZ7
 CHMN BZ E    0   134635.320      2218.8 0.76                                   
 MZN1 BE E    0   1346 3.620     10597.3 1.24                                   
 BAF  SZ E    0   134627.580       408.2 0.52                                   
 KBAM BZ E    0   134636.900      3522.3 0.80                                   
 KSHB BZ E    0   134653.940      1649.0 0.68                                   
 BNDS BZ EPg  0   1345 5.000                                   -0.10   14.0 165 
 TAFT BZ E    0   134633.580       449.8 0.84                                   
 KANR BZ E    0   134734.760       862.1 0.72                                   
 NGCH BZ E    0   134652.080       829.1 0.48                                   
 KBAM BN EPn  0   134544.300                                    0.60    289  51 
 CHMN BN EPn  0   134544.600                                    0.10    293  28 
 MZN1 BE ESg  0   134547.700                                   -0.20    158 292 
 KANR BZ EPn  0   134555.500                                   -0.30    385 350 
 HOQ  BZ EPn  0   1346 3.500                                   -0.40    452 165 
 BAF  SZ EPn  0   1346 3.900                                   -0.30    454 353 
 TAFT BZ EPn  0   1346 9.900                                   -0.50    502 338 
 NGCH BZ EPn  0   134616.300                                   -0.10    553 115 
 KLNJ BE EPn  0   134621.300                                    0.50    586 312 
 WBK  BZ EPn  0   134624.400                                    0.40    614 152 
 SRVN BZ EPn  0   134624.600                                   -0.10    619  90 
 ANAR BN EPn  4   134630.700                                   -0.20    669 340 
                                                                                

