 2021  824  624 40.8 LQ 27.627  56.472 20.8  Teh 25 0.3 3.7LTeh                1
 GAP=90    Teh                                                                 E
 Action:ARG 22-08-22 18:16 OP:OBSP STATUS:               ID:20210824062440     I
 STAT SP IPHASW D HRMM SECON CODA AMPLIT PERI AZIMU VELO AIN AR TRES W  DIS CAZ7
 KSHB BZ E    0    62626.540      1813.0 0.40                                   
 KRBR BZ E    0    62522.920      4528.8 0.32                                   
 KBAM BZ E    0    62526.620      6202.3 0.32                                   
 MEH  SZ E    0    62544.670      1001.1 0.16                                   
 BNB  BZ EPg  0    62445.700                                   -0.10   21.0 161 
 KANR BZ E    0    62631.980      1024.2 0.76                                   
 JASK BZ E    0    62536.640      4622.4 0.28                                   
 KHGB BZ E    0    62532.980      2498.9 0.32                                   
 GENO BZ EPg  0    62448.500                                    0.10   39.0 230 
 CHMN BZ E    0    62528.640      3246.2 0.36                                   
 KRVR BZ E    0    62653.080       -99.0 0.88                                   
 TAFT BZ E    0    62647.420       646.7 0.64                                   
 RAM  SZ E    0    627 6.360       421.1 0.48                                   
 KLNJ BZ E    0    62715.040       414.3 0.36                                   
 BAF  SZ E    0    62543.120       529.0 0.16                                   
 BAZ1 BZ E    0    62633.620      1307.8 1.08                                   
 JASK BZ EPn  0    62517.400                                    0.10    239 144 
 KBAM BZ EPn  0    62519.600                                    0.10    256  49 
 KRBR BZ EPn  0    62520.500                                    0.10    262   6 
 CHMN BZ EPn  0    62521.000                                   -0.20    269  23 
 KHGB BZ EPn  0    62526.000                                    0.40    305   0 
 KSHD BZ EPn  4    62527.400                                    0.30    318  18 
 KSHB BZ EPn  0    62527.800                                    0.50    318 336 
 BAZ1 BZ EPn  0    62533.000                                   -0.20    367  85 
 KANR BZ EPn  4    62534.800                                   -0.30    381 344 
 KRVR BZ EPn  0    62543.000                                   -0.20    448   5 
 MEH  SZ EPn  4    62543.700                                   -0.40    454 337 
 TAFT BZ EPn  4    62550.700                                    0.20    505 334 
 RAM  SE EPn  0    626 2.700                                   -0.70    609 320 
 GHIR BZ EPn  0    62531.740                                    0.00    349 281 
 YZKH BZ EPn  0    62556.350                                   -0.80    552 341 
 KHMZ BZ EPn  4    62636.270                                   -6.00    915 317 
 TABS BZ EPn  0    62611.510                                    0.60    664   5 
 LMD1 BZ EPn  0    62529.250                                    0.20    328 263 
 GTMR BZ EPn  4    62636.390                                   -1.90    886 307 
 NASN BZ EPn  0    62610.660                                   -0.80    668 328 
 KLNJ BZ EPn  0    626 2.440                                   -0.70    600 308 
 JSSH BZ EPn  0    62514.960                                   -0.20    217 155 
 BNDS BZ EPg  0    62448.410                                    0.10   43.0 223 
                                                                                

 2021  9 1 1632  6.6 LQ 27.871  56.337  1.2  Teh  4 0.2 2.8LTeh                1
 GAP=173   Teh                                                                 E
 Action:ARG 22-08-22 18:16 OP:OBSP STATUS:               ID:20210901163206     I
 STAT SP IPHASW D HRMM SECON CODA AMPLIT PERI AZIMU VELO AIN AR TRES W  DIS CAZ7
 BNB  BZ E    0   163235.240     18467.0 0.52                                   
 GENO BN E    0   163230.860     40410.5 0.28                                   
 KRBR BZ E    0   163254.500       341.9 0.56                                   
 KBAM BZ E    0   163328.500       605.8 0.52                                   
 BNB  BZ EPg  0   163216.200                                    0.20   51.0 157 
 GENO BN EPg  0   163216.600                                   -0.20   55.0 197 
 GENO BE ESg  0   163224.600                                    0.00   55.0 197 
 KRBR BZ EPn  0   163246.300                                    0.20    237  10 
 KBAM BZ EPn  0   163247.200                                   -0.20    250  55 
                                                                                

 2021 1014 1417 46.2 LQ 27.487  56.242 11.2  Teh 15 0.3 2.8LTeh                1
 GAP=154   Teh                                                                 E
 Action:ARG 22-08-22 18:16 OP:OBSP STATUS:               ID:20211014141746     I
 STAT SP IPHASW D HRMM SECON CODA AMPLIT PERI AZIMU VELO AIN AR TRES W  DIS CAZ7
 BNB  BZ E    0   1418 2.240     33298.0 0.16                                   
 CHMN BZ E    0   141914.820       662.0 0.52                                   
 BNB  BZ EPg  0   141752.500                                   -0.20   30.0  98 
 KBAM BZ E    0   141837.000       806.4 0.28                                   
 KSHB BZ E    0   141844.140       472.4 0.24                                   
 KANR BZ E    0   141850.280       340.6 0.28                                   
 KHGB BN E    0   141928.980       437.2 0.44                                   
 KSHD BE E    0   141933.400       357.5 0.92                                   
 MZN1 BZ EPg  0   141816.500                                    0.50    169 292 
 JASK BZ EPn  0   141825.000                                   -0.10    241 138 
 KBAM BZ EPn  0   141830.700                                    0.30    283  49 
 CHMN BZ EPn  0   141831.600                                   -0.30    292  25 
 KHGB BN EPn  0   141835.500                                    0.30    321   4 
 MZN1 BE ESg  0   141837.400                                    0.00    169 292 
 KSHD BE EPn  0   141837.600                                    0.10    340  21 
 KANR BZ EPn  0   141843.400                                   -0.50    391 348 
 YZKH BZ EPn  0   1419 5.570                                   -0.10    563 344 
 GHIR BZ EPn  0   141836.770                                    0.80    326 286 
 KRBR BZ EPn  0   141831.140                                    0.50    281  12 
 NASN BZ EPn  0   141918.640                                   -0.50    671 331 
 GTMR BZ EPn  0   141943.400                                   -0.90    876 309 
 BNDS BZ EPg  0   141751.080                                   -0.10   11.0 181 
 JSSH BZ EPn  0   141821.740                                   -0.20    214 146 
                                                                                

 2021 1029  526  4.0 LQ 27.151  56.206  6.0  Teh  7 0.4 2.8LTeh                1
 GAP=212   Teh                                                                 E
 Action:ARG 22-08-22 18:16 OP:OBSP STATUS:               ID:20211029052604     I
 STAT SP IPHASW D HRMM SECON CODA AMPLIT PERI AZIMU VELO AIN AR TRES W  DIS CAZ7
 MEH  SZ E    0    52719.330       204.5 0.24                                   
 CHMN BZ E    0    52745.700       555.6 0.56                                   
 KBAM BZ E    0    52742.800       816.6 0.40                                   
 JASK BZ E    0    52723.200      3641.3 0.32                                   
 KHGB BZ E    0    52745.980       456.9 0.68                                   
 BNDS BZ ESg  0    52614.300                                    0.00   28.0 353 
 KANR BZ E    0    52818.360       279.2 0.60                                   
 JASK BZ EPn  0    52639.900                                   -0.60    218 130 
 KBAM BZ EPn  0    52652.800                                    0.60    311  45 
 CHMN BZ EPn  0    52654.400                                   -0.10    327  23 
 KHGB BZ EPn  0    52658.900                                    0.70    358   4 
 KANR BZ EPn  0    527 6.400                                   -0.20    427 350 
 MEH  SZ EPn  0    52715.300                                    0.30    494 342 
                                                                                

 2021 1029  555 26.4 LQ 27.187  56.267 13.3  Teh  5 0.3 2.7LTeh                1
 GAP=206   Teh                                                                 E
 Action:ARG 22-08-22 18:16 OP:OBSP STATUS:               ID:20211029055526     I
 STAT SP IPHASW D HRMM SECON CODA AMPLIT PERI AZIMU VELO AIN AR TRES W  DIS CAZ7
 KBAM BZ E    0    557 7.800       200.3 0.36                                   
 JASK BZ E    0    55613.720       755.9 0.28                                   
 CHMN BN E    0    55659.820       170.5 0.36                                   
 BNDS BZ EPg  0    55532.600                                    0.10   25.0 338 
 BNB  BZ EPg  0    55534.400                                   -0.10   40.0  43 
 JASK BZ EPn  0    556 1.800                                   -0.10    216 132 
 KBAM BZ EPn  0    55613.400                                    0.40    304  44 
 CHMN BN EPn  0    55615.100                                   -0.40    321  23 
                                                                                

 2021 1114 12 7  4.4 LQ 27.568  56.084 19.5  Teh103 0.4 6.2LTeh                1
 GAP=88    Teh                                                                 E
 Action:ARG 22-08-22 18:16 OP:OBSP STATUS:               ID:20211114120704     I
 STAT SP IPHASW D HRMM SECON CODA AMPLIT PERI AZIMU VELO AIN AR TRES W  DIS CAZ7
 MZN1 BE E    0   12 8 2.840      18.8e5 0.72                                   
 CHMN BZ E    0   12 851.060     38194.0 0.84                                   
 JASK BZ E    0   12 836.560      21.5e5 1.20                                   
 JHRM BZ E    0   12 848.300     76704.0 0.52                                   
 CHBR BZ E    0   12 849.340       -99.0 0.84                                   
 KBAM BZ E    0   12 835.680      15.1e5 0.92                                   
 BNDS BZ EPg  0   12 7 9.200                                   -0.30   21.0 155 
 LMD1 BE E    0   12 855.840      15.5e5 1.00                                   
 KHGB BZ E    0   12 819.420     84782.0 0.64                                   
 BAF  SZ E    0   12 943.290     20991.0 0.72                                   
 MZN1 BE EPg  0   12 729.900                                   -0.10    151 291 
 MON  SZ E    0   12 916.680       -99.0 0.84                                   
 JASK BZ EPn  0   12 743.800                                    0.40    259 136 
 JHRM BZ EPn  0   12 744.700                                    0.20    267 293 
 LMD1 BE EPn  0   12 747.100                                   -0.10    290 266 
 KBAM BZ EPn  0   12 747.600                                    0.30    290  53 
 UOSS BZ EPn  0   12 747.900                                    0.50    291 178 
 CHMN BZ EPn  0   12 748.000                                    0.30    291  29 
 MZN1 BE ESg  0   12 749.900                                    0.60    151 291 
 KSHB BZ EPn  0   12 750.000                                   -0.10    311 343 
 KHGB BZ EPn  0   12 750.900                                    0.60    313   7 
 KANR BE EPn  4   12 759.300                                    0.80    379 350 
 BAZ1 BZ EPn  0   12 8 1.600                                   -0.10    406  85 
 SHI  BZ EPn  0   12 8 2.700                                   -0.70    417 304 
 BAF  SZ EPn  0   12 8 6.600                                   -0.50    448 354 
 HOQ  BZ EPn  4   12 8 7.000                                   -1.10    457 164 
 KRVR BZ EPn  4   12 8 7.900                                   -0.60    459   9 
 KAZ2 SN EPn  4   12 811.300                                   -0.70    488 299 
 CHBR BZ EPn  0   12 811.500                                   -0.80    489 116 
 TAFT BZ EPn  0   12 813.300                                    0.20    495 339 
 NGCH BZ EPn  0   12 820.500                                   -0.20    560 115 
 NHDN BZ EPn  4   12 822.400                                   -0.00    572  41 
 KLNJ BN EPn  0   12 822.800                                   -0.70    579 312 
 TPRV BZ EPn  4   12 826.400                                   -0.40    608   5 
 WBK  BZ EPn  0   12 828.500                                    0.10    621 151 
 SRVN BZ EPn  0   12 829.200                                    0.40    624  90 
 ANAR BZ EPn  4   12 833.000                                   -0.70    663 341 
 GAR  SZ EPn  4   12 833.000                                   -0.70    663 325 
 TKDS BZ EPn  4   12 834.600                                   -1.40    677   8 
 BRJ  SZ EPn  0   12 834.700                                    0.00    670 317 
 TSHB BZ EPn  4   12 834.700                                   -1.00    680   3 
 ZEF  SZ EPn  4   12 835.600                                   -1.80    692 329 
 AFRZ BZ EPn  4   12 838.600                                   -0.60    707  23 
 TNSJ BZ EPn  4   12 838.700                                   -1.10    711   4 
 MON  SE EPn  4   12 838.900                                    0.00   0.00   0 
 ZNGN BZ EPn  4   12 840.200                                    0.10    714 316 
 JHBN BZ EPn  4   12 841.400                                    0.00   0.00   0 
 PIR  SZ EPn  4   12 843.700                                    0.00   0.00   0 
 KLH  SZ EPn  4   12 845.200                                    0.00   0.00   0 
 KKHK BZ EPn  4   12 846.500                                   -0.20    768  18 
 TAPT BZ EPn  4   12 851.800                                   -1.00    817   7 
 SFB  BE EPn  4   12 854.300                                    0.00   0.00   0 
 VRN  BZ EPn  4   12 9 3.400                                   -2.30    922 334 
 LAS  SZ EPn  4   12 9 4.200                                    0.00   0.00   0 
 QOM  SZ EPn  4   12 9 5.400                                    0.00   0.00   0 
 TBHD SN EPn  4   12 9 5.500                                    0.30    920  18 
 FIR  BE EPn  4   12 9 7.800                                    0.00   0.00   0 
 DMV  SZ EPn  4   12 9 9.800                                    0.00   0.00   0 
 MOG  SZ EPn  4   12 915.000                                    0.00   0.00   0 
 JRKH BZ EPn  4   12 916.700                                    0.00   0.00   0 
 PAY  SZ EPn  4   12 918.500                                    0.00   0.00   0 
 PRN  SZ EPn  4   12 918.700                                    0.00   0.00   0 
 AKL  SZ EPn  4   12 919.400                                    0.00   0.00   0 
 HNVD BZ EPn  4   12 919.600                                    0.00   0.00   0 
 MYA  SZ EPn  4   12 921.200                                    0.00   0.00   0 
 SFR  SZ EPn  4   12 923.100                                    0.00   0.00   0 
 MND  BZ EPn  4   12 923.300                                    0.00   0.00   0 
 BZA  BN EPn  4   12 923.800                                    0.00   0.00   0 
 QABG BZ EPn  4   12 924.400                                    0.00   0.00   0 
 KKOM BZ EPn  4   12 924.400                                    0.00   0.00   0 
 QUCH BZ EPn  4   12 924.600                                    0.00   0.00   0 
 MZPU BZ EPn  4   12 924.600                                    0.00   0.00   0 
 KRD  SZ EPn  4   12 924.700                                    0.00   0.00   0 
 SRKH BZ EPn  4   12 928.500                                    0.50   1102  24 
 EMG  SZ EPn  4   12 929.000                                    0.00   0.00   0 
 SNQR BZ EPn  4   12 929.100                                    0.00   0.00   0 
 KCHF BE EPn  4   12 929.400                                    0.00   0.00   0 
 RAYN BZ EPn  4   12 930.200                                    0.00   0.00   0 
 ILBA BZ EPn  4   12 930.700                                    0.00   0.00   0 
 QSDN BZ EPn  4   12 936.300                                    0.00   0.00   0 
 SNJK BZ EPn  4   12 939.500                                    0.00   0.00   0 
 SAQZ BZ EPn  4   12 953.300                                    0.00   0.00   0 
 HSH  SZ EPn  4   12 956.000                                    0.00   0.00   0 
 GAS1 BZ EPn  4   12 959.900                                    0.00   0.00   0 
 SRB  SZ EPn  4   1210 0.400                                   -3.00   1383 327 
 MAHB BZ EPn  4   1210 2.200                                    0.00   0.00   0 
 HRS  SZ EPn  4   1210 9.300                                    0.00   0.00   0 
 SHB  SZ EPn  4   121020.500                                    0.00   0.00   0 
 MAKU BZ EPn  4   121036.500                                    0.00   0.00   0 
 GIDE BZ EPn  0   12 938.730                                   -0.10   1183 330 
 GHIR BZ EPn  0   12 751.280                                    0.80    312 283 
 YZKH BZ EPn  0   12 820.440                                    1.20    543 345 
 BJRD BZ EPn  0   12 931.040                                    0.20   1120   6 
 GLO  BZ EPn  0   12 917.680                                    1.30   1002 348 
 BNDS BZ ESg  0   12 715.110                                    0.50   31.0 162 
 NASN BZ EPn  0   12 832.930                                    0.30    650 331 
 ABGH BZ EPn  0   12 917.800                                    0.30   1012 353 
 BSRN BZ EPn  0   12 821.550                                    0.20    560  32 
 MRVT BZ EPn  0   12 929.210                                   -0.10   1108   0 
 AHRM BZ EPn  0   12 812.800                                   -1.30    502 285 
 TABS BZ EPn  0   12 836.020                                    1.00    670   9 
 GZV  BZ EPn  0   12 929.770                                   -0.50   1114 330 
 KRBR BZ EPn  0   12 742.710                                   -2.10    265  15 
 MRD  BZ EPn  0   121024.720                                   -0.90   1561 322 
 GTMR BZ EPn  0   12 856.250                                   -1.80    857 308 
 JSSH BZ EPn  0   12 741.040                                    0.30    234 146 
 ANJ  BZ EPn  0   12 9 3.170                                    0.90    889 347 
 SHRO BZ EPn  0   12 9 5.680                                   -0.90    925 360 
 KHMZ BZ EPn  0   12 9 1.810                                   -0.80    891 319 
 SHRT BZ EPn  0   12 849.200                                    1.10    776  31 
 CHTH BZ EPn  0   12 919.410                                   -0.00   1027 333 
 ASAO BZ EPn  0   12 9 9.880                                   -0.80    956 323 
 KAGH BZ EPn  0   12 928.720                                    1.40   1091  20 
 AZR  BZ EPn  0   121011.540                                   -1.50   1459 320 
 TBJM BZ EPn  0   12 9 8.710                                    0.80    935  26 
 MAKU BZ EPn  0   121037.830                                   -1.60   1674 321 
                                                                                

