 2021 1114 1610  8.2 LQ 27.585  56.160 13.7  Teh 14 0.4 3.5LTeh                1
 GAP=149   Teh                                                                 E
 Action:ARG 22-08-22 18:16 OP:OBSP STATUS:               ID:20211114161008     I
 STAT SP IPHASW D HRMM SECON CODA AMPLIT PERI AZIMU VELO AIN AR TRES W  DIS CAZ7
 JASK BZ E    0   161257.240      4894.1 0.56                                   
 KHGB BZ E    0   161226.200      1235.7 0.68                                   
 CHMN BZ E    0   1612 5.520      1336.3 0.24                                   
 KBAM BZ E    0   161242.780      2277.6 0.72                                   
 KANR BZ E    0   1611 5.820       871.7 0.36                                   
 BNDS BZ EPg  0   161013.400                                   -0.30   21.0 177 
 KSHB BZ E    0   1612 8.740      1900.3 0.52                                   
 BAF  SZ E    0   161238.910       495.1 0.60                                   
 MZN1 BE EPg  0   161036.800                                    0.70    158 290 
 KRVR BZ E    0   161229.200       -99.0 0.80                                   
 TAFT BZ E    0   161241.720       471.9 1.20                                   
 CHMN BZ EPn  0   161052.700                                   -0.20    286  28 
 MZN1 BE ESg  0   161055.900                                   -0.60    158 290 
 JHBN BZ E    0   1613 3.220       298.5 0.24                                   
 KANR BN EPn  0   1611 4.200                                    0.10    379 349 
 BAF  SN EPn  4   161111.500                                   -1.10    447 353 
 TAFT BZ EPn  0   161118.700                                   -0.10    497 338 
 GHIR BZ EPn  0   161056.340                                   -0.50    328 283 
 YZKH BZ EPn  0   161125.340                                    0.70    550 343 
 KHMZ BZ EPn  0   1612 8.830                                    0.20    905 318 
 KRBR BZ EPn  0   161048.910                                   -0.30    265  11 
 NASN BZ EPn  0   161137.960                                   -0.40    660 330 
 GTMR BZ EPn  0   1612 4.170                                   -0.10    871 308 
 KLNJ BZ EPn  0   161129.620                                    0.60    586 310 
 ZHSF BZ EPn  4   161057.120                                   -20.5    494  64 
                                                                                

 2021 1114 1619 57.4 LQ 27.508  56.149 18.6  Teh 59 0.4 4.4LTeh                1
 GAP=88    Teh                                                                 E
 Action:ARG 22-08-22 18:16 OP:OBSP STATUS:               ID:20211114161957     I
 STAT SP IPHASW D HRMM SECON CODA AMPLIT PERI AZIMU VELO AIN AR TRES W  DIS CAZ7
 MZN1 BZ E    0   1621 0.580     42657.8 1.08                                   
 KHGB BZ E    0   162144.320      6942.6 0.84                                   
 TAFT BZ E    0   162124.540      2947.6 0.56                                   
 CHMN BZ E    0   162132.480     11712.8 0.92                                   
 KBAM BZ E    0   162125.100     13530.2 0.52                                   
 KSHB BZ E    0   162145.340     12218.0 1.00                                   
 NGCH BZ E    0   162144.180      3332.6 0.80                                   
 NHDN BZ E    0   162254.780      4317.1 0.84                                   
 KRVR BZ E    0   162220.360       -99.0 1.08                                   
 KANR BZ E    0   162151.620      7767.4 0.76                                   
 BNDS BZ EPg  0   1620 1.300                                   -0.20   12.0 170 
 SHI  BZ E    0   162225.780      4044.8 1.16                                   
 BAZ1 BZ E    0   162157.780      4815.4 1.00                                   
 MZN1 BE EPg  0   162024.800                                    0.50    160 293 
 JASK BZ EPn  0   162035.000                                   -0.30    248 136 
 JHRM BZ EPn  0   162038.100                                   -0.60    276 294 
 KBAM BZ EPn  0   162040.300                                   -0.00    289  51 
 UOSS BZ EPn  0   162040.300                                    0.70    284 179 
 CHMN BZ EPn  0   162041.000                                   -0.20    294  27 
 LMD1 BZ EPn  0   162041.200                                    0.10    296 267 
 KHGB BZ EPn  0   162044.300                                    0.10    319   6 
 KSHB BZ EPn  0   162044.500                                    0.30    319 342 
 KANR BZ EPn  0   162052.700                                    0.10    387 349 
 BAZ1 BZ EPn  0   162053.600                                   -0.50    400  84 
 SHI  BZ EPn  0   162057.300                                   -0.10    426 304 
 HOQ  BZ EPn  0   162059.800                                   -0.40    450 165 
 KRVR BZ EPn  0   1621 1.900                                   -0.20    464   8 
 KAZ2 SN EPn  0   1621 6.200                                    0.10    497 299 
 TAFT BZ EPn  0   1621 7.400                                    0.20    505 338 
 NGCH BZ EPn  0   162112.700                                    0.00    551 114 
 NHDN BZ EPn  0   162115.900                                    0.30    573  40 
 KLNJ BZ EPn  0   162117.100                                   -0.70    588 312 
 TPRV BZ EPn  4   162120.300                                   -0.40    614   5 
 SRVN BZ EPn  0   162121.900                                    0.70    618  90 
 ANAR BZ EPn  4   162127.400                                   -0.40    671 340 
 TSHB BZ EPn  4   162128.500                                   -1.10    686   2 
 BRJ  SZ EPn  0   162129.000                                    0.10    679 317 
 TKDS BZ EPn  4   162129.100                                   -0.20    683   8 
 ZEF  SZ EPn  4   162130.400                                   -1.30    701 329 
 AFRZ BZ EPn  4   162131.800                                   -1.00    711  22 
 ZNGN BZ EPn  4   162136.000                                    1.60    723 316 
 JHBN BZ EPn  4   162136.300                                   -0.80    744 316 
 PIR  SZ EPn  4   162138.900                                   -0.70    765 320 
 KLH  SE EPn  4   162140.900                                   -0.40    779 327 
 TAPT BZ EPn  4   162145.500                                   -1.20    823   6 
 VRN  BZ EPn  4   162159.500                                   -0.40    929 334 
 TBJM BZ EPn  4   1622 1.600                                   -0.50    946  24 
 FIR  BZ EPn  4   1622 2.400                                   -1.00    957 341 
 DMV  SZ EPn  4   1622 5.300                                   -0.50    976 337 
 PRN  SZ EPn  4   162212.900                                    0.20   1033 341 
 AKL  SZ EPn  4   162213.000                                   -0.30   1037  13 
 SFR  SZ EPn  4   162217.000                                   -0.70   1072   9 
 MZPU BZ EPn  4   162218.700                                    0.10   1080 338 
 GZV  SZ EPn  4   162224.200                                   -1.00   1132 332 
 SNQR BZ EPn  4   162224.500                                   -2.80   1149 317 
 SNJK BZ EPn  4   162234.400                                   -2.80   1229 318 
 GHIR BZ EPn  0   162045.150                                    0.40    322 284 
 YZKH BZ EPn  0   162114.120                                    0.70    552 344 
 AHRM BZ EPn  0   1621 8.210                                   -0.30    514 286 
 KRBR BZ EPn  4   162035.680                                   -2.80    270  12 
 TABS BZ EPn  0   162128.740                                   -0.00    676   8 
 KHMZ BZ EPn  0   162156.750                                   -0.30    904 319 
 GLO  BZ EPn  0   1622 9.720                                   -0.80   1011 347 
 NASN BZ EPn  0   162126.350                                   -0.60    661 331 
 SHRT BZ EPn  0   162142.060                                    0.70    778  31 
 GTMR BZ EPn  0   162151.410                                   -1.10    869 308 
 CHTH BZ EPn  0   162213.290                                   -0.50   1037 333 
 ASAO BZ EPn  0   1622 5.270                                    0.20    967 323 
 KAGH BZ EPn  0   162221.330                                    0.50   1095  19 
 JSSH BZ EPn  0   162033.290                                    0.90    222 147 
 BSRN BZ EPn  0   162115.060                                    0.50    562  31 
                                                                                

 2021 1114 1634 13.2 LQ 27.506  56.243 17.9  Teh 11 0.3 3.3LTeh                1
 GAP=88    Teh                                                                 E
 Action:ARG 22-08-22 18:16 OP:OBSP STATUS:               ID:20211114163413     I
 STAT SP IPHASW D HRMM SECON CODA AMPLIT PERI AZIMU VELO AIN AR TRES W  DIS CAZ7
 KBAM BZ E    0   163539.920      1991.7 0.76                                   
 MZN1 BZ E    0   163518.900      3167.7 0.44                                   
 CHMN BZ E    0   163538.140      1093.7 0.40                                   
 KHGB BZ E    0   163548.920       616.6 0.56                                   
 JASK BZ E    0   163556.000      2817.6 0.68                                   
 BNDS BZ EPg  0   163417.300                                   -0.10   14.0 211 
 KANR BZ E    0   1636 7.600       582.2 0.72                                   
 KSHB BZ E    0   163556.940      1111.3 0.60                                   
 MZN1 BZ EPn  0   163441.300                                    0.40    168 292 
 JASK BZ EPn  0   163450.700                                    0.30    243 138 
 KBAM BZ EPn  0   163455.300                                   -0.00    282  50 
 CHMN BZ EPn  0   163456.500                                   -0.10    290  26 
 KHGB BZ EPn  0   1635 0.200                                    0.10    319   4 
 KANR BZ EPn  0   1635 9.000                                    0.30    389 348 
 HOQ  BZ EPn  0   163515.500                                   -0.30    447 166 
 NHDN BZ EPn  4   163529.900                                   -0.90    567  40 
 KLNJ BN EPn  0   163534.200                                   -0.30    595 312 
 ANAR BZ EPn  0   163543.700                                   -0.40    675 340 
                                                                                

 2021 1114 17 1 18.3 LQ 27.593  56.214 19.8  Teh 17 0.5 3.4LTeh                1
 GAP=98    Teh                                                                 E
 Action:ARG 22-08-22 18:16 OP:OBSP STATUS:               ID:20211114170118     I
 STAT SP IPHASW D HRMM SECON CODA AMPLIT PERI AZIMU VELO AIN AR TRES W  DIS CAZ7
 MZN1 BE E    0   17 211.520      8399.7 0.44                                   
 JASK BZ E    0   17 253.180      4081.9 0.68                                   
 KHGB BZ E    0   17 211.640       870.8 0.32                                   
 CHMN BZ E    0   17 245.400      1106.7 0.48                                   
 KBAM BZ E    0   17 2 8.780      1744.3 0.28                                   
 BNDS BZ EPg  0   17 123.600                                   -0.10   22.0 191 
 KANR BZ E    0   17 319.620       714.6 0.64                                   
 MZN1 BE EPg  0   17 145.300                                   -0.40    162 289 
 TAFT BZ E    0   17 244.660       331.8 0.56                                   
 KBAM BZ EPn  0   17 159.500                                   -0.30    278  52 
 CHMN BZ EPn  0   17 2 0.000                                   -0.50    283  27 
 UOSS BZ EPn  0   17 2 2.400                                    0.80    293 180 
 KHGB BZ EPn  0   17 2 3.900                                    0.20    309   5 
 KSHB BE EPn  4   17 2 4.800                                    0.70    312 340 
 MZN1 BZ ESg  0   17 2 6.900                                    0.00    162 289 
 KANR BZ EPn  0   17 212.800                                    0.40    379 348 
 HOQ  BZ EPn  0   17 221.000                                   -0.90    457 166 
 TAFT BZ EPn  0   17 227.500                                    0.30    497 337 
 NHDN BZ EPn  4   17 234.800                                   -0.20    562  41 
 KLNJ BN EPn  0   17 237.600                                   -0.70    587 311 
 SRVN BZ EPn  0   17 241.900                                    0.80    611  91 
 ANAR BZ EPn  4   17 247.600                                   -0.20    664 340 
 ZNGN BZ EPn  4   17 255.800                                    0.90    720 315 
 PIR  SZ EPn  0   17 3 0.000                                   -0.10    762 319 
 SFB  BZ EPn  4   17 3 9.100                                   -0.30    839 334 
                                                                                

 2021 1114 1731 53.4 LQ 27.571  56.258 10.0  Teh  7 0.5 2.8LTeh                1
 GAP=88    Teh                                                                 E
 Action:ARG 22-08-22 18:16 OP:OBSP STATUS:               ID:20211114173153     I
 STAT SP IPHASW D HRMM SECON CODA AMPLIT PERI AZIMU VELO AIN AR TRES W  DIS CAZ7
 BNDS BZ EPg  0   173158.800                                    0.10   21.0 204 
 CHMN BZ E    0   173320.980       700.5 0.48                                   
 KANR BZ E    0   173358.200       469.2 1.36                                   
 BAF  SZ E    0   1733 4.090       195.6 0.20                                   
 MZN1 BZ EPg  0   173223.300                                    0.50    167 289 
 JASK BZ EPn  0   173232.700                                   -0.40    247 139 
 KBAM BZ EPn  0   173237.500                                    0.60    276  51 
 CHMN BZ EPn  0   173238.600                                    0.50    283  26 
 KHGB BZ EPn  0   173241.400                                    0.00    311   4 
 KANR BZ EPn  0   173249.400                                   -0.70    382 348 
 MZN1 BZ E    0   173246.960      2775.1 0.28                                   
 KBAM BZ E    0   173245.480      1295.9 0.36                                   
 KHGB BZ E    0   173247.700       666.8 0.52                                   
                                                                                

 2021 1114 1736 38.3 LQ 27.647  55.796 10.0  Teh  4 0.9 2.7LTeh                1
 GAP=253   Teh                                                                 E
 Action:ARG 22-08-22 18:16 OP:OBSP STATUS:               ID:20211114173638     I
 STAT SP IPHASW D HRMM SECON CODA AMPLIT PERI AZIMU VELO AIN AR TRES W  DIS CAZ7
 BNDS BZ EPg  0   173647.300                                    0.50   46.0 127 
 BNDS BZ ESg  0   173652.800                                   -0.40   46.0 127 
 BNDS BZ E    0   173653.540     85441.2 0.24                                   
 KRBR BZ EPn  0   173719.600                                   -1.40    275  20 
 KBAM BZ EPn  0   173724.900                                    0.00    308  57 
 CHMN BZ EPn  0   173725.200                                    1.30    299  34 
 KRBR BZ E    0   173724.040       571.9 0.44                                   
 CHMN BZ E    0   1738 6.120       534.0 0.72                                   
 KBAM BZ E    0   173732.060      1003.6 0.36                                   
                                                                                

 2021 1114 1740 57.6 LQ 27.556  56.186 13.5  Teh 16 0.5 3.4LTeh                1
 GAP=106   Teh                                                                 E
 Action:ARG 22-08-22 18:16 OP:OBSP STATUS:               ID:20211114174057     I
 STAT SP IPHASW D HRMM SECON CODA AMPLIT PERI AZIMU VELO AIN AR TRES W  DIS CAZ7
 KHGB BZ E    0   174150.860       617.3 0.48                                   
 JASK BZ E    0   174234.300      4481.3 0.44                                   
 KBAM BZ E    0   174147.620      1690.8 0.60                                   
 BNDS BZ EPg  0   1741 1.600                                   -0.10   17.0 185 
 CHMN BZ E    0   174221.760       971.8 0.68                                   
 KRVR BZ E    0   174338.540       -99.0 1.00                                   
 TAFT BZ E    0   174210.840       288.7 0.24                                   
 MZN1 BZ EPg  0   174125.000                                    0.30    161 291 
 JASK BZ EPn  4   174136.200                                    0.00    251 138 
 NHDN BZ E    0   174348.760       595.9 0.84                                   
 KBAM BZ EPn  0   174139.900                                   -0.40    283  51 
 CHMN BZ EPn  0   174140.600                                   -0.50    288  27 
 UOSS BZ EPn  0   174141.500                                    0.50    289 180 
 KHGB BZ EPn  0   174144.500                                    0.20    314   5 
 KANR BZ EPn  0   174152.800                                    0.00    383 349 
 HOQ  BZ EPn  0   1742 0.400                                   -1.10    454 165 
 BAF  SZ EPn  4   1742 0.500                                   -0.80    450 353 
 KRVR BZ EPn  4   1742 1.500                                   -0.60    457   8 
 TAFT BZ EPn  0   1742 7.500                                   -0.10    501 338 
 NGCH BZ EPn  0   174214.000                                    0.70    550 115 
 NHDN BZ EPn  4   174215.700                                    0.10    567  40 
 KLNJ BN EPn  0   174218.300                                   -0.00    588 312 
 SRVN BZ EPn  0   174221.900                                    0.40    614  90 
                                                                                

