 2021 1114 12 7  4.4 LQ 27.568  56.084 19.5  Teh103 0.4 6.2LTeh                1
 GAP=88    Teh                                                                 E
 Action:ARG 22-08-28 16:25 OP:OBSP STATUS:               ID:20211114120704     I
 STAT SP IPHASW D HRMM SECON CODA AMPLIT PERI AZIMU VELO AIN AR TRES W  DIS CAZ7
 MZN1 BE E    0   12 8 2.840      18.8e5 0.36                                   
 CHMN BZ E    0   12 851.060     38194.0 0.42                                   
 JASK BZ E    0   12 836.560      21.5e5 0.60                                   
 JHRM BZ E    0   12 848.300     76704.0 0.26                                   
 CHBR BZ E    0   12 849.340       -99.0 0.42                                   
 KBAM BZ E    0   12 835.680      15.1e5 0.46                                   
 BNDS BZ EPg  0   12 7 9.200                                   -0.30   21.0 155 
 LMD1 BE E    0   12 855.840      15.5e5 0.50                                   
 KHGB BZ E    0   12 819.420     84782.0 0.32                                   
 BAF  SZ E    0   12 943.290     20991.0 0.36                                   
 MZN1 BE EPg  0   12 729.880                                   -0.10    151 291 
 MON  SZ E    0   12 916.680       -99.0 0.42                                   
 JASK BZ EPn  0   12 743.780                                    0.40    259 136 
 JHRM BZ EPn  0   12 744.700                                    0.20    267 293 
 LMD1 BE EPn  0   12 747.100                                   -0.10    290 266 
 KBAM BZ EPn  0   12 747.600                                    0.30    290  53 
 UOSS BZ EPn  0   12 747.870                                    0.50    291 178 
 CHMN BZ EPn  0   12 748.000                                    0.30    291  29 
 MZN1 BE ESg  0   12 749.920                                    0.60    151 291 
 KSHB BZ EPn  0   12 749.980                                   -0.10    311 343 
 KHGB BZ EPn  0   12 750.920                                    0.60    313   7 
 KANR BE EPn  4   12 759.300                                    0.80    379 350 
 BAZ1 BZ EPn  0   12 8 1.600                                   -0.10    406  85 
 SHI  BZ EPn  0   12 8 2.740                                   -0.70    417 304 
 BAF  SZ EPn  0   12 8 6.570                                   -0.50    448 354 
 HOQ  BZ EPn  4   12 8 7.040                                   -1.10    457 164 
 KRVR BZ EPn  4   12 8 7.900                                   -0.60    459   9 
 KAZ2 SN EPn  4   12 811.260                                   -0.70    488 299 
 CHBR BZ EPn  0   12 811.520                                   -0.80    489 116 
 TAFT BZ EPn  0   12 813.260                                    0.20    495 339 
 NGCH BZ EPn  0   12 820.520                                   -0.20    560 115 
 NHDN BZ EPn  4   12 822.360                                   -0.00    572  41 
 KLNJ BN EPn  0   12 822.800                                   -0.70    579 312 
 TPRV BZ EPn  4   12 826.360                                   -0.40    608   5 
 WBK  BZ EPn  0   12 828.470                                    0.10    621 151 
 SRVN BZ EPn  0   12 829.240                                    0.40    624  90 
 ANAR BZ EPn  4   12 832.980                                   -0.70    663 341 
 GAR  SZ EPn  4   12 833.020                                   -0.70    663 325 
 TKDS BZ EPn  4   12 834.640                                   -1.40    677   8 
 BRJ  SZ EPn  0   12 834.660                                    0.00    670 317 
 TSHB BZ EPn  4   12 834.680                                   -1.00    680   3 
 ZEF  SZ EPn  4   12 835.630                                   -1.80    692 329 
 AFRZ BZ EPn  4   12 838.580                                   -0.60    707  23 
 TNSJ BZ EPn  4   12 838.700                                   -1.10    711   4 
 MON  SE EPn  4   12 838.900                                    0.00   0.00   0 
 ZNGN BZ EPn  4   12 840.200                                    0.10    714 316 
 JHBN BZ EPn  4   12 841.420                                    0.00   0.00   0 
 PIR  SZ EPn  4   12 843.720                                    0.00   0.00   0 
 KLH  SZ EPn  4   12 845.200                                    0.00   0.00   0 
 KKHK BZ EPn  4   12 846.510                                   -0.20    768  18 
 TAPT BZ EPn  4   12 851.820                                   -1.00    817   7 
 SFB  BE EPn  4   12 854.280                                    0.00   0.00   0 
 VRN  BZ EPn  4   12 9 3.440                                   -2.30    922 334 
 LAS  SZ EPn  4   12 9 4.230                                    0.00   0.00   0 
 QOM  SZ EPn  4   12 9 5.440                                    0.00   0.00   0 
 TBHD SN EPn  4   12 9 5.520                                    0.30    920  18 
 FIR  BE EPn  4   12 9 7.760                                    0.00   0.00   0 
 DMV  SZ EPn  4   12 9 9.800                                    0.00   0.00   0 
 MOG  SZ EPn  4   12 915.020                                    0.00   0.00   0 
 JRKH BZ EPn  4   12 916.720                                    0.00   0.00   0 
 PAY  SZ EPn  4   12 918.500                                    0.00   0.00   0 
 PRN  SZ EPn  4   12 918.680                                    0.00   0.00   0 
 AKL  SZ EPn  4   12 919.420                                    0.00   0.00   0 
 HNVD BZ EPn  4   12 919.600                                    0.00   0.00   0 
 MYA  SZ EPn  4   12 921.240                                    0.00   0.00   0 
 SFR  SZ EPn  4   12 923.150                                    0.00   0.00   0 
 MND  BZ EPn  4   12 923.280                                    0.00   0.00   0 
 BZA  BN EPn  4   12 923.800                                    0.00   0.00   0 
 QABG BZ EPn  4   12 924.380                                    0.00   0.00   0 
 KKOM BZ EPn  4   12 924.420                                    0.00   0.00   0 
 QUCH BZ EPn  4   12 924.590                                    0.00   0.00   0 
 MZPU BZ EPn  4   12 924.600                                    0.00   0.00   0 
 KRD  SZ EPn  4   12 924.720                                    0.00   0.00   0 
 SRKH BZ EPn  4   12 928.510                                    0.50   1102  24 
 EMG  SZ EPn  4   12 928.990                                    0.00   0.00   0 
 SNQR BZ EPn  4   12 929.140                                    0.00   0.00   0 
 KCHF BE EPn  4   12 929.440                                    0.00   0.00   0 
 RAYN BZ EPn  4   12 930.220                                    0.00   0.00   0 
 ILBA BZ EPn  4   12 930.700                                    0.00   0.00   0 
 QSDN BZ EPn  4   12 936.320                                    0.00   0.00   0 
 SNJK BZ EPn  4   12 939.460                                    0.00   0.00   0 
 SAQZ BZ EPn  4   12 953.280                                    0.00   0.00   0 
 HSH  SZ EPn  4   12 956.010                                    0.00   0.00   0 
 GAS1 BZ EPn  4   12 959.940                                    0.00   0.00   0 
 SRB  SZ EPn  4   1210 0.380                                   -3.00   1383 327 
 MAHB BZ EPn  4   1210 2.180                                    0.00   0.00   0 
 HRS  SZ EPn  4   1210 9.260                                    0.00   0.00   0 
 SHB  SZ EPn  4   121020.480                                    0.00   0.00   0 
 MAKU BZ EPn  4   121036.460                                    0.00   0.00   0 
 MRD  BZ EPn  0   121024.720                                   -0.90   1561 322 
 AHRM BZ EPn  0   12 812.800                                   -1.30    502 285 
 MAKU BZ EPn  0   121037.830                                   -1.60   1674 321 
 ASAO BZ EPn  0   12 9 9.880                                   -0.80    956 323 
 BJRD BZ EPn  0   12 931.040                                    0.20   1120   6 
 SHRO BZ EPn  0   12 9 5.680                                   -0.90    925 360 
 BNDS BZ ESg  0   12 715.110                                    0.50   31.0 162 
 TBJM BZ EPn  0   12 9 8.710                                    0.80    935  26 
 KRBR BZ EPn  0   12 742.710                                   -2.10    265  15 
 JSSH BZ EPn  0   12 741.040                                    0.30    234 146 
 KHMZ BZ EPn  0   12 9 1.810                                   -0.80    891 319 
 AZR  BZ EPn  0   121011.540                                   -1.50   1459 320 
 KAGH BZ EPn  0   12 928.720                                    1.40   1091  20 
 GHIR BZ EPn  0   12 751.280                                    0.80    312 283 
 SHRT BZ EPn  0   12 849.200                                    1.10    776  31 
 MRVT BZ EPn  0   12 929.210                                   -0.10   1108   0 
 GLO  BZ EPn  0   12 917.680                                    1.30   1002 348 
 ABGH BZ EPn  0   12 917.800                                    0.30   1012 353 
 GTMR BZ EPn  0   12 856.250                                   -1.80    857 308 
 YZKH BZ EPn  0   12 820.440                                    1.20    543 345 
 CHTH BZ EPn  0   12 919.410                                   -0.00   1027 333 
 GZV  BZ EPn  0   12 929.770                                   -0.50   1114 330 
 ANJ  BZ EPn  0   12 9 3.170                                    0.90    889 347 
 TABS BZ EPn  0   12 836.020                                    1.00    670   9 
 BSRN BZ EPn  0   12 821.550                                    0.20    560  32 
 NASN BZ EPn  0   12 832.930                                    0.30    650 331 
 GIDE BZ EPn  0   12 938.730                                   -0.10   1183 330 
                                                                                

 2021 1114 12 8 38.1 LQ 27.536  56.174 10.0  Teh 11 0.3 6.3LTeh                1
 GAP=130   Teh                                                                 E
 Action:ARG 22-08-28 16:25 OP:OBSP STATUS:               ID:20211114120838     I
 STAT SP IPHASW D HRMM SECON CODA AMPLIT PERI AZIMU VELO AIN AR TRES W  DIS CAZ7
 BAZ1 BZ E    0   121038.780     30203.0 0.52                                   
 CHMN BZ E    0   121013.720      8430.0 0.52                                   
 KSHB BZ E    0   121019.140      11.6e5 0.58                                   
 KBAM BZ E    0   1210 4.680      11.9e5 0.52                                   
 KRVR BZ E    0   1211 2.720       -99.0 0.60                                   
 KHGB BZ E    0   121024.860     74613.0 0.36                                   
 BAF  SZ E    0   1211 2.560     51508.0 0.40                                   
 KANR BZ E    0   121034.940     61371.0 0.44                                   
 LMD1 BZ E    0   121034.520      18.1e5 0.50                                   
 SHI  BZ E    0   121112.980     70248.0 0.62                                   
 RAM  SZ E    0   121148.600     34214.0 0.52                                   
 SRVN BZ E    0   121035.760     27742.0 0.54                                   
 TAFT BZ E    0   121050.780     83574.0 0.48                                   
 NGCH BZ E    0   121041.180     23623.0 0.56                                   
 BNDS BZ EPg  0   12 841.480                                   -0.10   15.0 181 
 MZN1 BE EPg  0   12 9 6.320                                    0.50    161 291 
 KBAM BZ EPn  0   12 921.980                                    0.20    285  51 
 CHMN BZ EPn  0   12 922.320                                   -0.30    290  27 
 MZN1 BE ESg  0   12 926.540                                   -0.30    161 291 
 ASAO BZ ES   0   121222.170                                    0.60    983 322 
 GLO  BZ EPn  0   121052.590                                    1.30   1019 346 
 NASN BZ EPn  0   1210 7.830                                   -0.60    674 329 
 ABGH BZ EPn  0   121051.160                                   -1.10   1028 352 
 YZKH BZ EPn  0   12 954.570                                    0.10    562 342 
 CHTH BZ EPn  0   121054.390                                   -0.80   1050 332 
 ASAO BZ EPn  0   121047.420                                    0.60    983 322 
 BNDS BZ ESg  0   12 846.760                                    0.40   27.0 227 
 CHBR BZ EPn  0   12 942.060                                   -0.10    464 118 
                                                                                

 2021 1114 1240 52.6 LQ 27.550  56.211 19.2  Teh 24 0.3 4.2LTeh                1
 GAP=98    Teh                                                                 E
 Action:ARG 22-08-28 16:25 OP:OBSP STATUS:               ID:20211114124052     I
 STAT SP IPHASW D HRMM SECON CODA AMPLIT PERI AZIMU VELO AIN AR TRES W  DIS CAZ7
 JASK BZ E    0   124212.380     14013.6 0.46                                   
 KHGB BE E    0   124231.020      5241.6 0.22                                   
 KBAM BZ E    0   124136.320     10974.6 0.12                                   
 KSHB BZ E    0   124236.320      6107.6 0.36                                   
 MZN1 BE E    0   124150.480     32693.1 0.42                                   
 LMD1 BZ E    0   124245.400     13601.9 0.28                                   
 CHMN BZ E    0   124149.520      4666.5 0.20                                   
 KRVR BZ E    0   124316.920       -99.0 0.44                                   
 NHDN BZ E    0   124334.520      2786.6 0.40                                   
 JHRM BZ E    0   124234.060     19503.5 0.24                                   
 BAZ1 BZ E    0   1242 0.100      2925.1 0.26                                   
 BNDS BZ EPg  0   124057.340                                    0.00   17.0 193 
 NGCH BZ E    0   1242 9.000      3240.8 0.16                                   
 KBAM BZ EPn  0   124134.660                                    0.10    281  51 
 CHMN BZ EPn  0   124135.760                                    0.30    287  27 
 MZN1 BE ESg  0   124141.080                                   -0.10    164 291 
 BAZ1 BZ EPn  0   124147.900                                   -0.60    393  84 
 BAF  SZ EPn  0   124155.710                                   -0.10    452 352 
 NGCH BZ EPn  0   1242 7.740                                    0.30    548 115 
 AHRM BZ EPn  0   1242 1.670                                   -0.40    515 286 
 ASAO BZ EPn  0   124258.730                                   -0.00    969 323 
 BNDS BZ ESg  0   1241 1.210                                   -0.40   21.0 180 
 SRVN BZ EPn  0   124215.520                                    0.80    616  92 
 KRBR BZ EPn  0   124131.940                                   -0.10    271  12 
 JSSH BZ EPn  0   124125.650                                    0.00    222 147 
 KHMZ BZ EPn  0   124251.110                                    0.40    905 319 
 CHBR BZ EPn  0   124157.480                                   -0.60    483 117 
 GHIR BZ EPn  0   124138.800                                    0.50    323 284 
 SHRT BZ EPn  0   124234.580                                   -0.30    779  30 
 LMD1 BZ EPn  0   124135.330                                    0.10    299 265 
 YZKH BZ EPn  0   1242 7.000                                   -0.10    553 344 
 GTMR BZ EPn  0   124245.180                                   -1.00    870 308 
 TABS BZ EPn  0   124222.480                                    0.10    678   8 
 BSRN BZ EPn  0   1242 8.010                                   -0.10    563  30 
 ZHSF BZ EPn  4   124141.340                                   -19.3    502  64 
 NASN BZ EPn  0   124221.330                                    0.70    662 331 
 KLNJ BZ EPn  0   124210.870                                   -0.10    584 310 
                                                                                

 2021 1114 1252 37.8 LQ 27.518  56.093 15.1  Teh 25 0.4 4.0LTeh                1
 GAP=135   Teh                                                                 E
 Action:ARG 22-08-28 16:25 OP:OBSP STATUS:               ID:20211114125237     I
 STAT SP IPHASW D HRMM SECON CODA AMPLIT PERI AZIMU VELO AIN AR TRES W  DIS CAZ7
 KSHB BZ E    0   125422.940      4172.4 0.38                                   
 JASK BZ E    0   1254 5.320     13178.9 0.16                                   
 CHMN BZ E    0   125328.420      4561.6 0.16                                   
 KBAM BZ E    0   125332.780      7293.8 0.38                                   
 BAF  SZ E    0   125356.930       908.8 0.20                                   
 KANR BZ E    0   125436.680      2585.6 0.34                                   
 BNDS BZ EPg  0   125241.840                                    0.00   15.0 150 
 KHGB BZ E    0   125411.040      3025.1 0.28                                   
 LMD1 BZ E    0   125425.780     13456.0 0.20                                   
 TAFT BZ E    0   125355.660      1071.4 0.14                                   
 NGCH BZ E    0   125358.380      1679.6 0.14                                   
 GAR  SZ E    0   125416.040       702.0 0.08                                   
 UOSS BZ EPn  0   125321.140                                    0.60    285 178 
 KBAM BZ EPn  0   125322.040                                    0.40    293  52 
 CHMN BZ EPn  0   125322.620                                    0.40    296  28 
 KHGB BZ EPn  0   125325.260                                    0.30    319   7 
 HOQ  BZ EPn  0   125341.150                                   -0.20    452 164 
 BAF  SZ EPn  0   125341.150                                   -0.60    454 354 
 TAFT BE EPn  0   125347.220                                   -0.50    502 339 
 NGCH BZ EPn  0   125353.540                                   -0.70    557 114 
 KLNJ BZ EPn  0   125358.160                                    0.20    584 313 
 GAR  SZ EPn  4   1254 7.600                                   -0.70    668 325 
 ZEF  SN EPn  4   125411.070                                   -0.90    697 330 
 KLH  SZ EPn  4   125422.190                                    0.50    775 327 
 SRVN BZ EPn  0   1254 2.860                                    0.40    613  91 
 GHIR BZ EPn  0   125327.870                                    0.90    327 285 
 KHMZ BZ EPn  0   125439.350                                   -0.40    912 319 
 BSRN BZ EPn  0   125357.640                                    0.80    568  30 
 JSSH BZ EPn  0   125312.650                                   -0.10    214 147 
 YZKH BZ EPn  0   125355.920                                   -0.20    561 344 
 LMD1 BZ EPn  0   125323.890                                    0.30    301 266 
 KRBR BZ EPn  4   125318.220                                   -2.80    278  11 
 GTMR BZ EPn  0   125434.250                                   -0.80    877 309 
 ASAO BZ EPn  0   125447.500                                   -0.30    977 323 
 NASN BZ EPn  0   1254 8.940                                   -0.70    670 331 
 CHBR BZ EPn  0   125344.940                                   -0.50    476 117 
                                                                                

