 2021 1114 1534 31.8 LQ 27.765  56.168 13.6  Teh  5 0.3 2.8LTeh                1
 GAP=142   Teh                                                                 E
 Action:ARG 22-08-28 16:25 OP:OBSP STATUS:               ID:20211114153431     I
 STAT SP IPHASW D HRMM SECON CODA AMPLIT PERI AZIMU VELO AIN AR TRES W  DIS CAZ7
 CHMN BZ E    0   153555.400       858.7 0.40                                   
 MZN1 BE E    0   153528.020      6952.8 0.44                                   
 KSHB BZ E    0   153618.060       731.3 0.42                                   
 MZN1 BE EPn  0   153457.200                                    0.00    153 283 
 KANR BZ E    0   153625.660       457.7 0.56                                   
 TAFT BZ E    0   153556.300       279.9 0.40                                   
 KBAM BZ EPn  0   153512.500                                   -0.40    270  55 
 JASK BZ EPn  0   153512.800                                    0.10    270 141 
 BNDS BZ E    0   153445.320     28688.7 0.12                                   
 CHMN BZ EPn  0   153513.440                                    0.60    268  30 
 KANR BZ EPn  0   153523.900                                   -0.20    360 348 
 KRBR BZ E    0   153545.000       716.2 0.20                                   
 KBAM BZ E    0   153550.080      1370.6 0.20                                   
                                                                                

 2021 1114 1541 38.3 LQ 27.650  56.321 10.0  Teh  5 0.3 2.8LTeh                1
 GAP=157   Teh                                                                 E
 Action:ARG 22-08-28 16:25 OP:OBSP STATUS:               ID:20211114154138     I
 STAT SP IPHASW D HRMM SECON CODA AMPLIT PERI AZIMU VELO AIN AR TRES W  DIS CAZ7
 BNDS BZ EPg  0   154145.280                                    0.00   32.0 208 
 MZN1 BZ EPg  0   1542 8.480                                    0.30    170 286 
 CHMN BZ EPn  4   154222.360                                    0.70    272  26 
 KBAM BZ EPg  0   154223.800                                   -0.40    266  51 
 MZN1 BE ESg  0   154229.820                                    0.00    170 286 
 KANR BZ EPn  0   154234.540                                    0.40    375 347 
 KBAM BZ E    0   1543 9.860       897.2 0.38                                   
 KANR BZ E    0   154355.020       883.5 0.74                                   
 KRBR BZ E    0   154227.600       881.6 0.26                                   
 CHMN BZ E    0   154311.600       970.4 0.52                                   
                                                                                

 2021 1114 1559 11.7 LQ 27.520  56.110 15.9  Teh 38 0.4 4.0LTeh                1
 GAP=115   Teh                                                                 E
 Action:ARG 22-08-28 16:25 OP:OBSP STATUS:               ID:20211114155911     I
 STAT SP IPHASW D HRMM SECON CODA AMPLIT PERI AZIMU VELO AIN AR TRES W  DIS CAZ7
 JASK BZ E    0   16 055.400     18634.6 0.48                                   
 KHGB BZ E    0   16 1 2.900       -99.0 0.34                                   
 KBAM BZ E    0   16 043.600      7071.8 0.36                                   
 BNDS BZ EPg  0   155915.460                                   -0.30   15.0 156 
 MZN1 BE E    0   16 017.080     13123.3 0.36                                   
 CHMN BZ E    0   16 046.060      4083.6 0.46                                   
 BNDS BZ ESg  0   155918.940                                    0.10   15.0 156 
 KRVR BZ E    0   16 141.300       -99.0 0.58                                   
 KSHB BZ E    0   16 125.300      2939.2 0.48                                   
 LMD1 BE E    0   16 1 5.260      9732.4 0.36                                   
 MZN1 BE EPg  0   155938.360                                    0.40    156 293 
 KLNJ BZ E    0   16 237.000       -99.0 0.44                                   
 TAFT BZ E    0   16 148.620       898.5 0.58                                   
 NGCH BZ E    0   16 115.260      1699.9 0.32                                   
 SRVN BZ E    0   16 236.860       435.9 0.56                                   
 UOSS BZ EPn  0   155954.420                                   -0.00    285 178 
 KBAM BZ EPn  0   155955.080                                   -0.20    291  52 
 CHMN BN EPn  0   155956.200                                    0.30    295  28 
 KHGB BZ EPn  0   155958.860                                    0.10    318   6 
 KANR BZ EPn  0   16 0 7.300                                    0.30    385 350 
 KRVR BZ EPn  0   16 016.260                                   -0.40    463   9 
 TAFT BZ EPn  0   16 022.080                                    0.50    502 339 
 NGCH BZ EPn  0   16 027.800                                   -0.10    555 114 
 NHDN BZ EPn  0   16 029.860                                   -0.60    574  41 
 KLNJ BN EPn  0   16 031.360                                   -0.60    585 312 
 TPRV BZ EPn  4   16 035.920                                    0.80    613   5 
 SRVN BZ EPn  0   16 036.920                                    0.60    621  90 
 ANAR BZ EPn  4   16 042.020                                   -0.10    669 341 
 TKDS BZ EPn  4   16 044.720                                    0.90    682   8 
 ZEF  SZ EPn  4   16 044.830                                   -1.10    698 330 
 AFRZ BZ EPn  4   16 047.680                                    0.20    711  22 
 ZNGN BZ EPn  4   16 049.080                                    0.50    719 316 
 JHBN BN EPn  0   16 051.320                                    0.10    741 316 
 PIR  SZ EPn  4   16 053.380                                   -0.50    762 320 
 KLH  SZ EPn  0   16 055.240                                   -0.40    776 327 
 KKOM BZ EPn  4   16 133.620                                   -2.50   1104 314 
 SNQR BZ EPn  4   16 138.920                                   -2.60   1146 317 
 SNJK BZ EPn  4   16 148.380                                   -3.00   1225 318 
 GHIR BZ EPn  0   155957.550                                   -0.60    310 284 
 TABS BZ EPn  0   16 043.290                                   -0.50    677   9 
 SHRT BZ EPn  0   16 056.590                                   -0.30    783  31 
 BSRN BZ EPn  0   16 030.600                                    0.50    567  32 
 JSSH BZ EPn  0   155948.270                                    0.10    231 145 
 GTMR BZ EPn  4   16 1 2.710                                   -3.50    859 309 
 KHMZ BZ EPn  0   16 111.170                                    0.20    894 319 
 CHBR BZ EPn  0   16 020.580                                   -0.40    495 117 
 LMD1 BZ EPn  0   155955.520                                    0.40    286 264 
 KRBR BZ EPn  4   155949.840                                   -3.80    272  15 
 YZKH BZ EPn  0   16 028.180                                    0.30    548 345 
 NASN BZ EPn  0   16 041.250                                    0.20    654 332 
 TBJM BZ EPn  0   16 117.120                                    0.40    942  26 
                                                                                

 2021 1114 1610  8.2 LQ 27.585  56.160 13.7  Teh 14 0.4 3.5LTeh                1
 GAP=149   Teh                                                                 E
 Action:ARG 22-08-28 16:25 OP:OBSP STATUS:               ID:20211114161008     I
 STAT SP IPHASW D HRMM SECON CODA AMPLIT PERI AZIMU VELO AIN AR TRES W  DIS CAZ7
 JASK BZ E    0   161257.240      4894.1 0.28                                   
 KHGB BZ E    0   161226.200      1235.7 0.34                                   
 CHMN BZ E    0   1612 5.520      1336.3 0.12                                   
 KBAM BZ E    0   161242.780      2277.6 0.36                                   
 KANR BZ E    0   1611 5.820       871.7 0.18                                   
 BNDS BZ EPg  0   161013.360                                   -0.30   21.0 177 
 KSHB BZ E    0   1612 8.740      1900.3 0.26                                   
 BAF  SZ E    0   161238.910       495.1 0.30                                   
 MZN1 BE EPg  0   161036.780                                    0.70    158 290 
 KRVR BZ E    0   161229.200       -99.0 0.40                                   
 TAFT BZ E    0   161241.720       471.9 0.60                                   
 CHMN BZ EPn  0   161052.700                                   -0.20    286  28 
 MZN1 BE ESg  0   161055.860                                   -0.60    158 290 
 JHBN BZ E    0   1613 3.220       298.5 0.12                                   
 KANR BN EPn  0   1611 4.200                                    0.10    379 349 
 BAF  SN EPn  4   161111.470                                   -1.10    447 353 
 TAFT BZ EPn  0   161118.740                                   -0.10    497 338 
 GHIR BZ EPn  0   161056.340                                   -0.50    328 283 
 KHMZ BZ EPn  0   1612 8.830                                    0.20    905 318 
 KRBR BZ EPn  0   161048.910                                   -0.30    265  11 
 YZKH BZ EPn  0   161125.340                                    0.70    550 343 
 ZHSF BZ EPn  4   161057.120                                   -20.5    494  64 
 GTMR BZ EPn  0   1612 4.170                                   -0.10    871 308 
 NASN BZ EPn  0   161137.960                                   -0.40    660 330 
 KLNJ BZ EPn  0   161129.620                                    0.60    586 310 
                                                                                

 2021 1114 1619 57.4 LQ 27.508  56.149 18.6  Teh 59 0.4 4.4LTeh                1
 GAP=88    Teh                                                                 E
 Action:ARG 22-08-28 16:25 OP:OBSP STATUS:               ID:20211114161957     I
 STAT SP IPHASW D HRMM SECON CODA AMPLIT PERI AZIMU VELO AIN AR TRES W  DIS CAZ7
 MZN1 BZ E    0   1621 0.580     42657.8 0.54                                   
 KHGB BZ E    0   162144.320      6942.6 0.42                                   
 TAFT BZ E    0   162124.540      2947.6 0.28                                   
 CHMN BZ E    0   162132.480     11712.8 0.46                                   
 KBAM BZ E    0   162125.100     13530.2 0.26                                   
 KSHB BZ E    0   162145.340     12218.0 0.50                                   
 NGCH BZ E    0   162144.180      3332.6 0.40                                   
 NHDN BZ E    0   162254.780      4317.1 0.42                                   
 KRVR BZ E    0   162220.360       -99.0 0.54                                   
 KANR BZ E    0   162151.620      7767.4 0.38                                   
 BNDS BZ EPg  0   1620 1.280                                   -0.20   12.0 170 
 SHI  BZ E    0   162225.780      4044.8 0.58                                   
 BAZ1 BZ E    0   162157.780      4815.4 0.50                                   
 MZN1 BE EPg  0   162024.780                                    0.50    160 293 
 JASK BZ EPn  0   162035.000                                   -0.30    248 136 
 JHRM BZ EPn  0   162038.140                                   -0.60    276 294 
 KBAM BZ EPn  0   162040.300                                   -0.00    289  51 
 UOSS BZ EPn  0   162040.320                                    0.70    284 179 
 CHMN BZ EPn  0   162040.960                                   -0.20    294  27 
 LMD1 BZ EPn  0   162041.180                                    0.10    296 267 
 KHGB BZ EPn  0   162044.260                                    0.10    319   6 
 KSHB BZ EPn  0   162044.520                                    0.30    319 342 
 KANR BZ EPn  0   162052.720                                    0.10    387 349 
 BAZ1 BZ EPn  0   162053.560                                   -0.50    400  84 
 SHI  BZ EPn  0   162057.300                                   -0.10    426 304 
 HOQ  BZ EPn  0   162059.840                                   -0.40    450 165 
 KRVR BZ EPn  0   1621 1.900                                   -0.20    464   8 
 KAZ2 SN EPn  0   1621 6.220                                    0.10    497 299 
 TAFT BZ EPn  0   1621 7.400                                    0.20    505 338 
 NGCH BZ EPn  0   162112.720                                    0.00    551 114 
 NHDN BZ EPn  0   162115.860                                    0.30    573  40 
 KLNJ BZ EPn  0   162117.060                                   -0.70    588 312 
 TPRV BZ EPn  4   162120.280                                   -0.40    614   5 
 SRVN BZ EPn  0   162121.880                                    0.70    618  90 
 ANAR BZ EPn  4   162127.440                                   -0.40    671 340 
 TSHB BZ EPn  4   162128.460                                   -1.10    686   2 
 BRJ  SZ EPn  0   162128.960                                    0.10    679 317 
 TKDS BZ EPn  4   162129.100                                   -0.20    683   8 
 ZEF  SZ EPn  4   162130.350                                   -1.30    701 329 
 AFRZ BZ EPn  4   162131.800                                   -1.00    711  22 
 ZNGN BZ EPn  4   162135.960                                    1.60    723 316 
 JHBN BZ EPn  4   162136.300                                   -0.80    744 316 
 PIR  SZ EPn  4   162138.920                                   -0.70    765 320 
 KLH  SE EPn  4   162140.920                                   -0.40    779 327 
 TAPT BZ EPn  4   162145.460                                   -1.20    823   6 
 VRN  BZ EPn  4   162159.520                                   -0.40    929 334 
 TBJM BZ EPn  4   1622 1.640                                   -0.50    946  24 
 FIR  BZ EPn  4   1622 2.440                                   -1.00    957 341 
 DMV  SZ EPn  4   1622 5.260                                   -0.50    976 337 
 PRN  SZ EPn  4   162212.860                                    0.20   1033 341 
 AKL  SZ EPn  4   162213.040                                   -0.30   1037  13 
 SFR  SZ EPn  4   162217.020                                   -0.70   1072   9 
 MZPU BZ EPn  4   162218.700                                    0.10   1080 338 
 GZV  SZ EPn  4   162224.160                                   -1.00   1132 332 
 SNQR BZ EPn  4   162224.520                                   -2.80   1149 317 
 SNJK BZ EPn  4   162234.360                                   -2.80   1229 318 
 GHIR BZ EPn  0   162045.150                                    0.40    322 284 
 TABS BZ EPn  0   162128.740                                   -0.00    676   8 
 SHRT BZ EPn  0   162142.060                                    0.70    778  31 
 KHMZ BZ EPn  0   162156.750                                   -0.30    904 319 
 JSSH BZ EPn  0   162033.290                                    0.90    222 147 
 GLO  BZ EPn  0   1622 9.720                                   -0.80   1011 347 
 YZKH BZ EPn  0   162114.120                                    0.70    552 344 
 AHRM BZ EPn  0   1621 8.210                                   -0.30    514 286 
 BSRN BZ EPn  0   162115.060                                    0.50    562  31 
 NASN BZ EPn  0   162126.350                                   -0.60    661 331 
 KRBR BZ EPn  4   162035.680                                   -2.80    270  12 
 GTMR BZ EPn  0   162151.410                                   -1.10    869 308 
 CHTH BZ EPn  0   162213.290                                   -0.50   1037 333 
 ASAO BZ EPn  0   1622 5.270                                    0.20    967 323 
 KAGH BZ EPn  0   162221.330                                    0.50   1095  19 
                                                                                

 2021 1114 1634 13.2 LQ 27.506  56.243 17.9  Teh 11 0.3 3.3LTeh                1
 GAP=88    Teh                                                                 E
 Action:ARG 22-08-28 16:25 OP:OBSP STATUS:               ID:20211114163413     I
 STAT SP IPHASW D HRMM SECON CODA AMPLIT PERI AZIMU VELO AIN AR TRES W  DIS CAZ7
 KBAM BZ E    0   163539.920      1991.7 0.38                                   
 MZN1 BZ E    0   163518.900      3167.7 0.22                                   
 CHMN BZ E    0   163538.140      1093.7 0.20                                   
 KHGB BZ E    0   163548.920       616.6 0.28                                   
 JASK BZ E    0   163556.000      2817.6 0.34                                   
 BNDS BZ EPg  0   163417.300                                   -0.10   14.0 211 
 KANR BZ E    0   1636 7.600       582.2 0.36                                   
 KSHB BZ E    0   163556.940      1111.3 0.30                                   
 MZN1 BZ EPn  0   163441.260                                    0.40    168 292 
 JASK BZ EPn  0   163450.740                                    0.30    243 138 
 KBAM BZ EPn  0   163455.320                                   -0.00    282  50 
 CHMN BZ EPn  0   163456.460                                   -0.10    290  26 
 KHGB BZ EPn  0   1635 0.160                                    0.10    319   4 
 KANR BZ EPn  0   1635 9.040                                    0.30    389 348 
 HOQ  BZ EPn  0   163515.550                                   -0.30    447 166 
 NHDN BZ EPn  4   163529.880                                   -0.90    567  40 
 KLNJ BN EPn  0   163534.160                                   -0.30    595 312 
 ANAR BZ EPn  0   163543.700                                   -0.40    675 340 
                                                                                

