 2021 1114 14 2 56.4 LQ 27.590  56.136 17.0  Teh 62 0.3 4.6LTeh                1
 GAP=86    Teh                                                                 E
 Action:ARG 22-08-22 18:16 OP:OBSP STATUS:               ID:20211114140256     I
 STAT SP IPHASW D HRMM SECON CODA AMPLIT PERI AZIMU VELO AIN AR TRES W  DIS CAZ7
 MZN1 BZ E    0   14 4 0.520     55254.6 0.64                                   
 CHMN BZ E    0   14 431.900     14699.8 0.64                                   
 JASK BZ E    0   14 451.500     52806.8 1.00                                   
 KBAM BZ E    0   14 426.860     29132.3 0.84                                   
 SHI  BZ E    0   14 515.380      5273.5 0.92                                   
 BAZ1 BZ E    0   14 457.920      5838.4 0.64                                   
 TAFT BZ E    0   14 423.340      5316.3 0.88                                   
 KSHB BZ E    0   14 439.320     17756.8 0.88                                   
 KANR BZ E    0   14 446.220     11257.0 0.64                                   
 KAZ2 SN E    0   14 6 1.180     21018.9 1.00                                   
 KRVR BZ E    0   14 517.500       -99.0 0.88                                   
 BNDS BZ EPg  0   14 3 1.300                                   -0.00   21.0 171 
 NGCH BZ E    0   14 440.900      3893.6 0.44                                   
 NHDN BZ E    0   14 543.560      6982.7 0.56                                   
 CHBR BZ E    0   14 512.420       -99.0 0.92                                   
 MZN1 BZ EPg  0   14 323.000                                    0.50    155 290 
 JASK BZ EPn  0   14 335.500                                    0.10    257 138 
 CHMN BZ EPn  0   14 339.200                                   -0.30    287  28 
 KBAM BZ EPn  0   14 339.400                                    0.50    284  52 
 UOSS BZ EPn  0   14 340.400                                    0.50    293 179 
 LMD1 BZ EPn  0   14 340.400                                    0.30    295 265 
 KSHB BZ EPn  0   14 341.700                                   -0.60    310 342 
 MZN1 BZ ESg  0   14 342.000                                   -0.40    155 290 
 KANR BZ EPn  0   14 350.900                                    0.20    378 349 
 BAZ1 BZ EPn  0   14 353.000                                   -0.30    400  85 
 SHI  BZ EPn  0   14 355.400                                   -0.40    420 304 
 KRVR BZ EPn  4   14 359.600                                   -0.60    455   9 
 HOQ  BZ EPn  0   14 4 0.000                                   -0.50    459 165 
 CHBR BZ EPn  0   14 4 3.600                                   -0.20    486 116 
 KAZ2 SN EPn  0   14 4 4.900                                    0.30    490 298 
 TAFT BZ EPn  0   14 4 5.800                                    0.50    495 338 
 NGCH BZ EPn  0   14 412.300                                   -0.30    556 115 
 NHDN BZ EPn  0   14 414.100                                    0.10    567  41 
 BRJ  SZ E    0   14 536.880      3154.8 1.04                                   
 TPRV BZ EPn  4   14 418.500                                   -0.30    605   5 
 SRVN BZ EPn  0   14 420.600                                    0.10    619  90 
 WBK  BZ EPn  0   14 420.700                                    0.10    621 152 
 ANAR BZ EPn  4   14 425.300                                   -0.60    662 340 
 TSHB BZ EPn  4   14 426.400                                   -1.30    677   3 
 BRJ  SZ EPn  0   14 426.900                                   -0.20    671 317 
 TKDS BZ EPn  4   14 427.200                                   -0.10    674   8 
 ZEF  SZ EPn  4   14 428.500                                   -1.20    693 329 
 TNSJ BZ EPn  4   14 431.000                                   -0.50    708   4 
 AFRZ BZ EPn  4   14 431.800                                    0.80    703  22 
 JHBN BZ EPn  4   14 434.600                                   -0.70    737 316 
 PIR  SZ EPn  4   14 436.400                                   -1.50    757 319 
 KLH  SZ EPn  4   14 437.500                                   -2.00    771 327 
 TAPT BZ EPn  4   14 445.400                                    0.60    814   7 
 SFB  BZ EPn  4   14 446.500                                   -0.90    836 335 
 LAS  SZ EPn  4   14 457.200                                    0.00    915 342 
 VRN  BZ EPn  4   14 457.700                                   -0.30    922 334 
 FIR  BZ EPn  4   14 5 0.900                                   -0.60    948 341 
 DMV  SZ EPn  4   14 5 3.100                                   -0.70    967 337 
 PAY  SZ EPn  4   14 5 9.800                                   -0.40   1019  15 
 PRN  SZ EPn  4   14 511.400                                    0.70   1024 340 
 AKL  SZ EPn  4   14 512.100                                    0.60   1028  13 
 SFR  SZ EPn  4   14 515.000                                   -0.80   1064   9 
 MZPU BZ EPn  4   14 516.900                                    0.20   1071 337 
 QABG BZ EPn  4   14 517.500                                   -1.90   1093 327 
 GHIR BZ EPn  0   14 343.810                                    0.60    315 283 
 YZKH BZ EPn  0   14 412.390                                    0.20    547 345 
 GLO  BZ EPn  0   14 510.190                                    1.00   1005 348 
 NASN BZ EPn  0   14 424.850                                   -0.70    655 331 
 ABGH BZ EPn  0   14 510.840                                    0.50   1017 353 
 BSRN BZ EPn  0   14 413.700                                   -0.20    562  31 
 AHRM BZ EPn  0   14 4 6.580                                   -0.40    507 286 
 TABS BZ EPn  0   14 428.120                                    0.40    674   8 
 GTMR BZ EPn  4   14 449.020                                   -2.00    862 308 
 JSSH BZ EPn  0   14 332.360                                   -0.10    230 146 
 ANJ  BZ EPn  0   14 454.170                                   -1.00    893 347 
 KHMZ BZ EPn  0   14 455.200                                   -0.40    897 319 
 SHRT BZ EPn  0   14 441.240                                    0.60    778  31 
 CHTH BZ EPn  0   14 512.150                                   -0.20   1032 333 
 KLNJ BZ EPn  0   14 415.760                                   -0.10    576 310 
 ASAO BZ EPn  0   14 5 3.160                                   -0.50    960 323 
 KAGH BZ EPn  0   14 520.110                                    0.10   1094  19 
 TBJM BZ EPn  0   14 5 1.100                                    0.60    936  25 
 KRBR BZ EPn  4   14 334.910                                   -2.60    268  14 
                                                                                

 2021 1114 1413 57.4 LQ 27.496  56.213 12.5  Teh 27 0.3 3.6LTeh                1
 GAP=91    Teh                                                                 E
 Action:ARG 22-08-22 18:16 OP:OBSP STATUS:               ID:20211114141357     I
 STAT SP IPHASW D HRMM SECON CODA AMPLIT PERI AZIMU VELO AIN AR TRES W  DIS CAZ7
 CHMN BZ E    0   141450.500      1313.0 0.48                                   
 JASK BZ E    0   141555.380      5452.3 0.80                                   
 BNDS BZ EPg  0   1414 0.700                                   -0.00   12.0 201 
 KBAM BZ E    0   141515.060      2289.3 0.36                                   
 KANR BZ E    0   141454.360       947.3 0.28                                   
 KSHB BZ E    0   141542.540      1324.0 0.56                                   
 TAFT BZ E    0   141510.240       431.5 0.24                                   
 KLNJ BZ E    0   141652.700       310.7 0.44                                   
 MZN1 BE EPg  0   141425.400                                    0.10    166 292 
 NHDN BZ E    0   141652.740       703.3 0.52                                   
 JASK BZ EPn  0   141435.400                                    0.10    244 137 
 UOSS BZ EPn  0   141440.400                                    0.30    282 180 
 KBAM BZ EPn  0   141440.600                                    0.10    285  50 
 CHMN BZ EPn  0   141441.600                                    0.00    292  26 
 KSHB BE EPn  0   141445.500                                    0.20    322 341 
 KANR BZ EPn  0   141453.500                                   -0.10    390 349 
 KRVR BZ EPn  0   1415 2.700                                   -0.20    464   8 
 TAFT BZ EPn  0   1415 8.100                                   -0.30    508 338 
 NHDN BZ EPn  0   141515.500                                   -0.40    570  40 
 KLNJ BN EPn  0   141519.300                                    0.20    594 312 
 WBK  BZ EPn  0   141519.800                                   -0.70    608 152 
 SRVN BZ EPn  0   141521.700                                    0.70    611  90 
 JHBN BN EPn  4   141538.000                                   -0.40    750 316 
 GHIR BZ EPn  0   141443.640                                   -0.30    317 285 
 AHRM BZ EPn  0   1415 7.720                                   -0.00    509 287 
 YZKH BZ EPn  0   141514.730                                    0.70    558 345 
 JSSH BZ EPn  0   141432.350                                    0.40    221 144 
 KRBR BZ EPn  4   141436.320                                   -3.20    280  14 
 TABS BZ EPn  0   141529.720                                   -0.10    686   8 
 LMD1 BZ EPn  0   141440.650                                    0.10    290 266 
 NASN BZ EPn  0   141527.520                                    0.20    664 332 
 GTMR BZ EPn  0   141551.650                                   -0.70    868 309 
 ZHSF BZ EPn  4   141445.800                                   -22.6    512  63 
 BSRN BZ EPn  0   141515.560                                   -0.20    573  31 
 CHBR BZ EPn  0   1415 4.780                                   -0.20    487 116 
                                                                                

 2021 1114 1419 32.6 LQ 27.625  56.176 10.0  Teh  5 0.4 2.7LTeh                1
 GAP=168   Teh                                                                 E
 Action:ARG 22-08-22 18:16 OP:OBSP STATUS:               ID:20211114141932     I
 STAT SP IPHASW D HRMM SECON CODA AMPLIT PERI AZIMU VELO AIN AR TRES W  DIS CAZ7
 BNDS BZ EPg  0   141938.500                                   -0.00   25.0 181 
 KRBR BZ EPn  4   142011.100                                   -4.30    267  12 
 CHMN BZ EPn  0   142016.500                                   -0.60    281  28 
 KBAM BZ EPn  0   142016.800                                    0.40    279  53 
 KANR BZ EPn  0   142028.600                                    0.20    375 349 
 CHMN BZ E    0   142018.380       518.9 0.16                                   
 KBAM BZ E    0   142017.900       691.3 0.20                                   
 KANR BZ E    0   142029.780       539.3 0.20                                   
                                                                                

 2021 1114 1424 13.8 LQ 27.576  56.172 13.1  Teh 31 0.3 3.8LTeh                1
 GAP=110   Teh                                                                 E
 Action:ARG 22-08-22 18:16 OP:OBSP STATUS:               ID:20211114142413     I
 STAT SP IPHASW D HRMM SECON CODA AMPLIT PERI AZIMU VELO AIN AR TRES W  DIS CAZ7
 CHMN BZ E    0   142541.160      1491.3 0.88                                   
 JASK BZ E    0   1426 8.600      5222.3 0.72                                   
 KSHB BZ E    0   1426 3.340      3832.1 0.72                                   
 KBAM BZ E    0   1426 6.260      2075.2 0.68                                   
 BNDS BZ EPg  0   142418.800                                   -0.20   20.0 180 
 MZN1 BZ E    0   1425 7.380     19635.4 0.64                                   
 KANR BZ E    0   142613.500      1524.1 0.80                                   
 TAFT BZ E    0   142651.800       889.4 0.88                                   
 KRVR BZ E    0   142658.060       -99.0 1.08                                   
 NHDN BZ E    0   142715.260       942.9 0.76                                   
 MZN1 BE EPg  0   142441.700                                   -0.10    159 290 
 ANAR BZ E    0   142742.320       285.0 0.92                                   
 KLNJ BZ E    0   142656.280       852.6 0.56                                   
 KLH  SZ E    0   142617.960       157.0 0.48                                   
 JASK BZ EPn  0   142453.800                                   -0.00    253 138 
 KBAM BZ EPn  0   142457.600                                   -0.10    282  52 
 JHBN BZ E    0   142726.420       480.4 1.00                                   
 CHMN BZ EPn  0   142458.200                                   -0.40    286  27 
 UOSS BZ EPn  0   142458.500                                   -0.00    291 179 
 SHI  BZ E    0   142649.560      2314.7 1.04                                   
 MZN1 BE ESg  0   1425 2.800                                    0.40    159 290 
 KANR BN EPn  0   1425 9.700                                   -0.20    380 349 
 KRVR BZ EPn  0   142519.000                                   -0.10    457   8 
 TAFT BZ EPn  0   142524.600                                   -0.00    499 338 
 KLNJ BN EPn  0   142535.400                                   -0.10    585 312 
 WBK  BZ EPn  0   142538.700                                   -0.20    618 152 
 SRVN BN EPn  0   142539.800                                    1.00    615  90 
 ANAR BZ EPn  4   142544.200                                   -0.70    665 340 
 BRJ  SZ EPn  0   142546.500                                    0.00    675 317 
 ZEF  SN EPn  4   142547.800                                   -1.30    696 329 
 JHBN BZ EPn  0   142554.600                                   -0.10    741 315 
 KLH  SZ EPn  4   142558.000                                   -0.70    774 326 
 GHIR BZ EPn  0   1425 6.120                                    0.10    332 285 
 JSSH BZ EPn  0   142451.160                                    0.50    210 147 
 CHTH BZ EPn  4   142630.450                                   -5.00   1051 333 
 KRBR BZ EPn  4   142453.700                                   -6.00    280  10 
 TABS BZ EPn  0   142550.850                                    0.80    687   7 
 KHMZ BZ EPn  4   142613.370                                   -5.50    917 319 
 LMD1 BZ EPn  0   1425 2.450                                   -0.10    305 267 
 GTMR BZ EPn  4   1426 7.880                                   -6.30    882 309 
 ASAO BZ EPn  4   142621.730                                   -5.10    981 323 
 GLO  BZ EPn  0   142632.120                                    0.00   1024 347 
 NASN BZ EPn  4   142543.840                                   -4.90    674 331 
 SHRT BZ EPn  0   1426 1.190                                   -1.00    784  30 
 ZHSF BZ EPn  4   1425 0.270                                   -26.8    501  62 
 BSRN BZ EPn  0   142536.340                                    0.90    568  29 
                                                                                

 2021 1114 1452 19.6 LQ 27.601  56.228 10.0  Teh  5 0.5 2.9LTeh                1
 GAP=154   Teh                                                                 E
 Action:ARG 22-08-22 18:16 OP:OBSP STATUS:               ID:20211114145219     I
 STAT SP IPHASW D HRMM SECON CODA AMPLIT PERI AZIMU VELO AIN AR TRES W  DIS CAZ7
 KANR BZ E    0   145326.400       200.7 0.56                                   
 BNDS BZ EPg  0   145225.000                                   -0.20   23.0 194 
 KBAM BZ E    0   145344.440       566.2 0.36                                   
 CHMN BZ E    0   145345.280       481.1 0.40                                   
 JASK BZ EPn  0   1453 0.100                                    0.30    252 139 
 CHMN BZ EPn  0   1453 3.300                                   -0.80    281  27 
 KBAM BZ EPn  0   1453 3.400                                    0.30    276  52 
 KANR BZ EPn  0   145316.400                                    0.50    378 348 
                                                                                

 2021 1114 15 5 45.8 LQ 27.517  55.835  6.0  Teh  5 0.3 2.7LTeh                1
 GAP=138   Teh                                                                 E
 Action:ARG 22-08-22 18:16 OP:OBSP STATUS:               ID:20211114150545     I
 STAT SP IPHASW D HRMM SECON CODA AMPLIT PERI AZIMU VELO AIN AR TRES W  DIS CAZ7
 MZN1 BZ E    0   15 655.060      3196.0 0.68                                   
 CHMN BZ E    0   15 710.660       578.9 0.40                                   
 MZN1 BE EPn  0   15 6 9.900                                   -0.20    131 298 
 KSHB BZ E    0   15 736.360       881.1 0.88                                   
 JASK BZ EPn  0   15 628.700                                   -0.30    272 132 
 UOSS BZ EPn  0   15 631.200                                    0.30    287 173 
 KSHB BZ EPn  0   15 634.100                                   -0.10    310 347 
 KANR BZ E    0   15 743.100       498.4 0.76                                   
 KANR BZ EPn  0   15 643.200                                    0.30    382 354 
 NHDN BZ E    0   15 4 0.280        62.4 0.96                                   
                                                                                

