 2021 1114 17 1 18.3 LQ 27.593  56.214 19.8  Teh 17 0.5 3.4LTeh                1
 GAP=98    Teh                                                                 E
 Action:ARG 22-08-28 16:25 OP:OBSP STATUS:               ID:20211114170118     I
 STAT SP IPHASW D HRMM SECON CODA AMPLIT PERI AZIMU VELO AIN AR TRES W  DIS CAZ7
 MZN1 BE E    0   17 211.520      8399.7 0.22                                   
 JASK BZ E    0   17 253.180      4081.9 0.34                                   
 KHGB BZ E    0   17 211.640       870.8 0.16                                   
 CHMN BZ E    0   17 245.400      1106.7 0.24                                   
 KBAM BZ E    0   17 2 8.780      1744.3 0.14                                   
 BNDS BZ EPg  0   17 123.560                                   -0.10   22.0 191 
 KANR BZ E    0   17 319.620       714.6 0.32                                   
 MZN1 BE EPg  0   17 145.300                                   -0.40    162 289 
 TAFT BZ E    0   17 244.660       331.8 0.28                                   
 KBAM BZ EPn  0   17 159.500                                   -0.30    278  52 
 CHMN BZ EPn  0   17 2 0.020                                   -0.50    283  27 
 UOSS BZ EPn  0   17 2 2.370                                    0.80    293 180 
 KHGB BZ EPn  0   17 2 3.940                                    0.20    309   5 
 KSHB BE EPn  4   17 2 4.800                                    0.70    312 340 
 MZN1 BZ ESg  0   17 2 6.900                                    0.00    162 289 
 KANR BZ EPn  0   17 212.800                                    0.40    379 348 
 HOQ  BZ EPn  0   17 221.030                                   -0.90    457 166 
 TAFT BZ EPn  0   17 227.500                                    0.30    497 337 
 NHDN BZ EPn  4   17 234.760                                   -0.20    562  41 
 KLNJ BN EPn  0   17 237.600                                   -0.70    587 311 
 SRVN BZ EPn  0   17 241.940                                    0.80    611  91 
 ANAR BZ EPn  4   17 247.600                                   -0.20    664 340 
 ZNGN BZ EPn  4   17 255.800                                    0.90    720 315 
 PIR  SZ EPn  0   17 259.970                                   -0.10    762 319 
 SFB  BZ EPn  4   17 3 9.120                                   -0.30    839 334 
                                                                                

 2021 1114 1731 53.4 LQ 27.571  56.258 10.0  Teh  7 0.5 2.8LTeh                1
 GAP=88    Teh                                                                 E
 Action:ARG 22-08-28 16:25 OP:OBSP STATUS:               ID:20211114173153     I
 STAT SP IPHASW D HRMM SECON CODA AMPLIT PERI AZIMU VELO AIN AR TRES W  DIS CAZ7
 BNDS BZ EPg  0   173158.760                                    0.10   21.0 204 
 CHMN BZ E    0   173320.980       700.5 0.24                                   
 KANR BZ E    0   173358.200       469.2 0.68                                   
 BAF  SZ E    0   1733 4.090       195.6 0.10                                   
 MZN1 BZ EPg  0   173223.280                                    0.50    167 289 
 JASK BZ EPn  0   173232.680                                   -0.40    247 139 
 KBAM BZ EPn  0   173237.460                                    0.60    276  51 
 CHMN BZ EPn  0   173238.560                                    0.50    283  26 
 KHGB BZ EPn  0   173241.420                                    0.00    311   4 
 KANR BZ EPn  0   173249.380                                   -0.70    382 348 
 MZN1 BZ E    0   173246.960      2775.1 0.14                                   
 KBAM BZ E    0   173245.480      1295.9 0.18                                   
 KHGB BZ E    0   173247.700       666.8 0.26                                   
                                                                                

 2021 1114 1734 29.7 LQ 28.086  56.316 10.0  Teh  3 0.4 2.6LTeh                1
 GAP=312   Teh                                                                 E
 Action:ARG 22-08-28 16:25 OP:OBSP STATUS:               ID:20211114173429     I
 STAT SP IPHASW D HRMM SECON CODA AMPLIT PERI AZIMU VELO AIN AR TRES W  DIS CAZ7
 KRBR BZ EPn  0   1735 4.440                                   -0.40    215  12 
 CHMN BZ EPn  0   1735 7.480                                    0.70    230  31 
 KBAM BZ EPn  0   1735 7.520                                   -0.20    239  60 
 KBAM BN ESg  0   173541.620                                    0.00    239  60 
 CHMN BZ E    0   173553.880      1034.9 0.32                                   
 KRBR BZ E    0   173516.380       481.6 0.20                                   
 KBAM BZ E    0   173546.840       987.9 0.16                                   
                                                                                

 2021 1114 1736 38.3 LQ 27.647  55.796 10.0  Teh  4 0.9 2.7LTeh                1
 GAP=253   Teh                                                                 E
 Action:ARG 22-08-28 16:25 OP:OBSP STATUS:               ID:20211114173638     I
 STAT SP IPHASW D HRMM SECON CODA AMPLIT PERI AZIMU VELO AIN AR TRES W  DIS CAZ7
 BNDS BZ EPg  0   173647.300                                    0.50   46.0 127 
 BNDS BZ ESg  0   173652.820                                   -0.40   46.0 127 
 BNDS BZ E    0   173653.540     85441.2 0.12                                   
 KRBR BZ EPn  0   173719.600                                   -1.40    275  20 
 KBAM BZ EPn  0   173724.860                                    0.00    308  57 
 CHMN BZ EPn  0   173725.180                                    1.30    299  34 
 KRBR BZ E    0   173724.040       571.9 0.22                                   
 CHMN BZ E    0   1738 6.120       534.0 0.36                                   
 KBAM BZ E    0   173732.060      1003.6 0.18                                   
                                                                                

 2021 1114 1740 57.6 LQ 27.556  56.186 13.5  Teh 16 0.5 3.4LTeh                1
 GAP=106   Teh                                                                 E
 Action:ARG 22-08-28 16:25 OP:OBSP STATUS:               ID:20211114174057     I
 STAT SP IPHASW D HRMM SECON CODA AMPLIT PERI AZIMU VELO AIN AR TRES W  DIS CAZ7
 KHGB BZ E    0   174150.860       617.3 0.24                                   
 JASK BZ E    0   174234.300      4481.3 0.22                                   
 KBAM BZ E    0   174147.620      1690.8 0.30                                   
 BNDS BZ EPg  0   1741 1.600                                   -0.10   17.0 185 
 CHMN BZ E    0   174221.760       971.8 0.34                                   
 KRVR BZ E    0   174338.540       -99.0 0.50                                   
 TAFT BZ E    0   174210.840       288.7 0.12                                   
 MZN1 BZ EPg  0   174124.980                                    0.30    161 291 
 JASK BZ EPn  4   174136.240                                    0.00    251 138 
 NHDN BZ E    0   174348.760       595.9 0.42                                   
 KBAM BZ EPn  0   174139.900                                   -0.40    283  51 
 CHMN BZ EPn  0   174140.600                                   -0.50    288  27 
 UOSS BZ EPn  0   174141.490                                    0.50    289 180 
 KHGB BZ EPn  0   174144.480                                    0.20    314   5 
 KANR BZ EPn  0   174152.800                                    0.00    383 349 
 HOQ  BZ EPn  0   1742 0.400                                   -1.10    454 165 
 BAF  SZ EPn  4   1742 0.460                                   -0.80    450 353 
 KRVR BZ EPn  4   1742 1.520                                   -0.60    457   8 
 TAFT BZ EPn  0   1742 7.480                                   -0.10    501 338 
 NGCH BZ EPn  0   174214.020                                    0.70    550 115 
 NHDN BZ EPn  4   174215.680                                    0.10    567  40 
 KLNJ BN EPn  0   174218.320                                   -0.00    588 312 
 SRVN BZ EPn  0   174221.860                                    0.40    614  90 
                                                                                

 2021 1114 1750 23.6 LQ 27.531  56.173 16.2  Teh 19 0.5 3.5LTeh                1
 GAP=111   Teh                                                                 E
 Action:ARG 22-08-28 16:25 OP:OBSP STATUS:               ID:20211114175023     I
 STAT SP IPHASW D HRMM SECON CODA AMPLIT PERI AZIMU VELO AIN AR TRES W  DIS CAZ7
 BAF  SZ E    0   175239.840       383.6 0.46                                   
 JASK BN E    0   175157.080      5555.5 0.38                                   
 MZN1 BZ E    0   175114.840      7797.0 0.28                                   
 KSHB BZ E    0   175227.560      1662.6 0.52                                   
 KANR BZ E    0   175228.100       824.8 0.38                                   
 BNDS BZ EPg  0   175027.360                                   -0.30   15.0 181 
 KHGB BZ E    0   175119.240       798.3 0.32                                   
 KBAM BZ E    0   175857.960      2176.8 0.14                                   
 KRVR BZ E    0   175253.100       -99.0 0.46                                   
 CHMN BZ E    0   175157.940       887.8 0.36                                   
 MZN1 BZ EPg  0   175050.440                                   -0.30    161 292 
 TAFT BZ E    0   175317.060       439.6 0.38                                   
 KBAM BZ EPn  0   1751 6.500                                    0.20    285  51 
 UOSS BZ EPn  0   1751 7.220                                    0.90    286 179 
 CHMN BZ EPn  0   1751 7.220                                    0.00    291  27 
 KHGB BZ EPn  0   175110.460                                    0.20    316   5 
 MZN1 BE ESg  0   175112.080                                    0.00    161 292 
 KANR BZ EPn  0   175118.740                                   -0.10    385 349 
 HOQ  BZ EPn  0   175126.040                                   -0.90    452 165 
 BAF  SZ EPn  4   175126.650                                   -0.60    454 353 
 KRVR BZ EPn  4   175127.900                                   -0.30    461   8 
 TAFT BZ EPn  0   175133.320                                   -0.20    502 338 
 NGCH BZ EPn  0   175140.000                                    1.00    550 115 
 NHDN BZ EPn  4   175141.440                                   -0.20    569  40 
 KLNJ BE EPn  0   175143.880                                   -0.30    589 312 
 TPRV BZ EPn  4   175146.420                                   -0.30    611   4 
 WBK  BZ EPn  0   175146.660                                   -0.30    613 152 
 ANAR BZ EPn  4   175153.160                                   -0.90    670 340 
 PIR  SZ EPn  0   1752 5.340                                   -0.70    765 320 
 KLH  SZ EPn  4   1752 6.790                                   -0.90    778 327 
                                                                                

 2021 1114 1758 13.0 LQ 27.594  56.188 11.3  Teh 16 0.4 3.7LTeh                1
 GAP=104   Teh                                                                 E
 Action:ARG 22-08-28 16:25 OP:OBSP STATUS:               ID:20211114175813     I
 STAT SP IPHASW D HRMM SECON CODA AMPLIT PERI AZIMU VELO AIN AR TRES W  DIS CAZ7
 KBAM BZ E    0   175943.080      4483.2 0.34                                   
 BNDS BZ EPg  0   175817.660                                    0.10   22.0 185 
 BAF  SZ E    0   175933.170       507.4 0.22                                   
 JASK BZ E    0   175940.400      7312.5 0.38                                   
 CHMN BZ E    0   175940.180      2459.7 0.24                                   
 KANR BZ E    0   175917.820      1075.0 0.26                                   
 TAFT BZ E    0   175925.120       603.4 0.12                                   
 KSHB BZ E    0   1759 9.780      1616.6 0.20                                   
 MZN1 BE EPg  0   175840.600                                    0.00    160 289 
 JASK BZ EPn  0   175852.640                                    0.10    254 139 
 KBAM BZ EPn  0   175856.180                                    0.30    280  52 
 CHMN BZ EPn  0   175856.360                                   -0.20    284  27 
 UOSS BZ EPn  0   175858.220                                    0.70    293 180 
 KSHB BZ EPn  0   1759 0.500                                    0.50    311 341 
 MZN1 BE ESg  0   1759 1.380                                   -0.10    160 289 
 KANR BZ EPn  0   1759 8.040                                   -0.20    379 349 
 BAF  SZ EPn  4   175915.470                                   -1.20    447 352 
 TAFT BZ EPn  0   175922.900                                   -0.10    497 337 
 NGCH BZ EPn  0   175928.800                                   -0.70    552 116 
 WBK  BZ EPn  0   175937.220                                   -0.70    619 152 
 SRVN BZ EPn  0   175937.920                                    0.50    614  91 
 ANAR BZ EPn  4   175942.460                                   -1.10    664 340 
 ZNGN BZ EPn  0   175950.400                                   -0.20    719 316 
 SHRT BZ EPn  4   175957.980                                    0.40    777  29 
                                                                                

 2021 1114 18 1 11.7 LQ 27.568  56.140  8.0  Teh 12 0.3 3.5LTeh                1
 GAP=113   Teh                                                                 E
 Action:ARG 22-08-28 16:25 OP:OBSP STATUS:               ID:20211114180111     I
 STAT SP IPHASW D HRMM SECON CODA AMPLIT PERI AZIMU VELO AIN AR TRES W  DIS CAZ7
 MZN1 BZ E    0   18 2 4.720      6717.5 0.30                                   
 BNDS BZ EPg  0   18 116.220                                   -0.40   19.0 171 
 KSHB BZ E    0   18 3 8.200      1364.1 0.34                                   
 CHMN BZ E    0   18 2 9.600      1010.8 0.32                                   
 BAF  SZ E    0   18 234.390       369.3 0.16                                   
 KBAM BZ E    0   18 241.240      1123.7 0.30                                   
 JASK BZ E    0   18 256.320      4622.8 0.52                                   
 MZN1 BZ EPg  0   18 139.380                                    0.10    156 291 
 KANR BZ E    0   18 312.980       923.5 0.34                                   
 TAFT BZ E    0   18 319.340       573.4 0.28                                   
 UOSS BZ EPn  0   18 157.090                                    0.20    290 179 
 KBAM BZ EPn  0   18 157.120                                    0.60    285  52 
 CHMN BZ EPn  0   18 157.500                                    0.20    288  28 
 MZN1 BZ ESg  0   18 159.720                                    0.20    156 291 
 KANR BZ EPn  0   18 2 8.180                                   -0.20    380 349 
 BAF  SZ EPn  0   18 216.750                                   -0.10    449 353 
 HOQ  BZ EPn  0   18 217.870                                    0.40    457 165 
 TAFT BZ EPn  0   18 223.400                                    0.40    497 338 
 KLNJ BN EPn  0   18 233.660                                   -0.10    583 312 
 ZNGN BZ EPn  0   18 250.320                                    0.10    717 316 
 JHBN BN EPn  4   18 252.540                                   -0.40    739 316 
                                                                                

 2021 1114 1818 38.6 LQ 27.578  56.162 20.0  Teh 15 0.4 3.6LTeh                1
 GAP=111   Teh                                                                 E
 Action:ARG 22-08-28 16:25 OP:OBSP STATUS:               ID:20211114181838     I
 STAT SP IPHASW D HRMM SECON CODA AMPLIT PERI AZIMU VELO AIN AR TRES W  DIS CAZ7
 CHMN BZ E    0   1820 1.020      1896.6 0.30                                   
 MZN1 BE E    0   181952.780      7478.7 0.38                                   
 KBAM BZ E    0   181921.980      3583.1 0.18                                   
 KSHB BZ E    0   182010.460      1527.7 0.40                                   
 JASK BZ E    0   182018.300      4968.7 0.32                                   
 KANR BZ E    0   182033.520      1065.5 0.32                                   
 BNDS BZ EPg  0   181843.880                                    0.60   20.0 178 
 TAFT BZ E    0   182011.320       462.3 0.26                                   
 MZN1 BE EPg  0   1819 5.420                                    0.70    158 290 
 BAF  SZ E    0   1820 5.240       428.4 0.18                                   
 KBAM BZ EPn  0   181920.480                                    0.10    283  52 
 CHMN BN EPn  0   181921.280                                    0.20    286  28 
 UOSS BZ EPn  0   181922.090                                    0.70    292 179 
 KSHB BZ EPn  0   181924.460                                    0.30    312 341 
 KANR BZ EPn  0   181932.600                                    0.10    380 349 
 BAF  SN EPn  0   181940.540                                   -0.40    448 353 
 HOQ  BZ EPn  0   181941.120                                   -0.80    457 165 
 TAFT BZ EPn  0   181947.300                                    0.10    497 338 
 NGCH BZ EPn  0   181953.960                                    0.20    553 115 
 NHDN BZ EPn  0   181955.440                                   -0.10    566  41 
 WBK  BZ EPn  0   1820 2.010                                    0.10    618 152 
 SRVN BZ EPn  0   1820 2.220                                    0.40    616  90 
 JHBN BN EPn  0   182017.400                                    0.10    740 316 
                                                                                

