 2021 1114 1512  8.0 LQ 27.593  56.255 14.3  Teh 47 0.4 4.3LTeh                1
 GAP=87    Teh                                                                 E
 Action:ARG 22-08-22 18:16 OP:OBSP STATUS:               ID:20211114151208     I
 STAT SP IPHASW D HRMM SECON CODA AMPLIT PERI AZIMU VELO AIN AR TRES W  DIS CAZ7
 KANR BZ E    0   1514 6.680      6088.3 0.92                                   
 MZN1 BE E    0   1513 6.000     43061.8 0.64                                   
 KBAM BZ E    0   151336.980     20821.6 0.56                                   
 LMD1 BZ E    0   151415.380     15517.5 0.56                                   
 CHMN BZ E    0   151337.960     10707.4 0.60                                   
 KSHB BZ E    0   151354.100      7740.5 1.00                                   
 BNDS BZ EPg  0   151212.700                                   -0.20   23.0 201 
 JASK BZ E    0   151341.400     44087.8 0.92                                   
 NGCH BZ E    0   151414.880      5349.1 0.72                                   
 BAZ1 BZ E    0   1514 4.300      7411.0 0.68                                   
 SHI  BZ E    0   151442.080      1999.7 1.20                                   
 KRVR BZ E    0   151437.780       -99.0 0.84                                   
 BAF  SZ E    0   151430.050      2798.3 0.80                                   
 TAFT BZ E    0   1515 0.020      1895.4 0.72                                   
 KLNJ BZ E    0   151436.840      1757.7 0.80                                   
 SRVN BZ E    0   151524.460       989.0 1.00                                   
 JASK BZ EPn  0   151246.600                                    0.30    248 140 
 KBAM BZ EPn  0   151249.900                                    0.30    275  51 
 CHMN BE EPn  0   151250.800                                    0.30    281  26 
 UOSS BZ EPn  0   151252.200                                    0.40    293 181 
 MZN1 BZ ESg  0   151257.700                                   -0.20    166 288 
 KANR BZ EPn  0   1513 2.500                                   -0.20    380 348 
 BAZ1 BZ EPn  0   1513 3.600                                   -0.10    389  85 
 BAF  SZ EPn  0   151310.700                                   -0.40    448 352 
 HOQ  BZ EPn  4   151310.800                                   -1.30    457 166 
 KRVR BZ EPn  0   151311.700                                   -0.10    454   7 
 CHBR BZ EPn  0   151314.100                                   -0.20    475 117 
 TAFT BZ EPn  0   151317.900                                    0.20    500 337 
 NGCH BZ EPn  0   151323.000                                   -0.10    546 116 
 NHDN BN EPn  4   151324.900                                    0.00    559  40 
 KLNJ BZ EPn  0   151328.200                                   -0.70    590 311 
 TPRV BZ EPn  4   151329.500                                   -0.90    604   4 
 WBK  BZ EPn  0   151331.300                                   -0.60    616 153 
 SRVN BZ EPn  0   151331.600                                    0.70    607  91 
 ANAR BZ EPn  4   151337.400                                   -0.80    666 339 
 AFRZ BZ EPn  4   151342.800                                    0.50    698  22 
 JHBN BZ EPn  4   151347.700                                   -0.50    745 315 
 KLH  SZ EPn  4   151350.600                                   -1.50    777 326 
 SFB  BZ EPn  4   151358.700                                   -1.20    841 334 
 VRN  BZ EPn  4   151410.300                                   -0.20    926 333 
 FIR  BZ EPn  4   151413.400                                   -0.40    952 340 
 PRN  SZ EPn  4   151422.900                                   -0.10   1028 340 
 MZPU BZ EPn  4   151429.800                                    0.70   1076 337 
 GHIR BZ EPn  0   151256.140                                    0.30    318 283 
 YZKH BZ EPn  0   151324.900                                    0.40    548 344 
 GLO  BZ EPn  0   151421.890                                    0.30   1008 348 
 NASN BZ EPn  0   151337.670                                   -0.30    657 331 
 ABGH BZ EPn  0   151423.200                                    0.50   1018 353 
 BSRN BZ EPn  0   151326.610                                    0.70    561  31 
 MRVT BZ EPn  0   151434.070                                   -0.30   1112 360 
 TABS BZ EPn  0   151339.190                                   -0.80    674   8 
 GTMR BZ EPn  0   1514 2.940                                   -0.60    864 308 
 JSSH BZ EPn  0   151243.950                                   -0.40    227 147 
 KHMZ BZ EPn  0   1514 7.130                                   -0.90    898 319 
 LMD1 BZ EPn  0   151252.760                                   -0.10    296 264 
 SHRT BZ EPn  0   151352.700                                   -0.00    777  31 
 CHTH BZ EPn  0   151425.070                                    0.30   1034 333 
 ASAO BZ EPn  0   151415.680                                   -0.40    964 323 
 KAGH BZ EPn  0   151432.830                                    0.70   1093  19 
 TBJM BZ EPn  0   151412.100                                   -0.50    936  25 
 KRBR BZ EPn  4   151245.930                                   -3.80    268  13 
 GZV  BZ EPn  4   151430.730                                   -4.90   1121 330 
                                                                                

 2021 1114 1522 19.2 LQ 27.524  56.128 13.8  Teh 56 0.5 4.3LTeh                1
 GAP=114   Teh                                                                 E
 Action:ARG 22-08-22 18:16 OP:OBSP STATUS:               ID:20211114152219     I
 STAT SP IPHASW D HRMM SECON CODA AMPLIT PERI AZIMU VELO AIN AR TRES W  DIS CAZ7
 JASK BZ E    0   152348.560     26158.1 0.60                                   
 MZN1 BZ E    0   152329.840     39366.4 0.80                                   
 SHI  BZ E    0   152442.720      5106.7 0.96                                   
 KSHB BZ E    0   152411.700      7888.7 0.80                                   
 CHMN BZ E    0   152356.860      6662.0 0.72                                   
 NHDN BZ E    0   152516.900      3388.9 0.80                                   
 KBAM BZ E    0   152359.920      7844.9 0.72                                   
 BNDS BZ EPg  0   152222.900                                   -0.00   14.0 163 
 KRVR BZ E    0   152445.900       -99.0 0.92                                   
 KANR BZ E    0   152439.720      5566.9 0.84                                   
 KLNJ BZ E    0   152441.120      3204.6 0.64                                   
 NGCH BZ E    0   152415.180      2343.9 0.96                                   
 BAZ1 BZ E    0   152428.320      2216.0 0.76                                   
 TAFT BZ E    0   152442.180      2729.3 0.68                                   
 CHBR BZ E    0   152353.660       -99.0 0.60                                   
 MZN1 BZ EPg  0   152245.200                                   -0.50    157 292 
 JASK BZ EPn  0   152258.300                                    0.30    252 136 
 JHRM BE EPn  0   1523 0.100                                   -0.60    273 294 
 UOSS BZ EPn  0   1523 2.500                                    0.30    286 178 
 KBAM BZ EPn  0   1523 2.700                                   -0.10    289  51 
 CHMN BZ EPn  0   1523 3.100                                   -0.30    293  28 
 MZN1 BE ESg  0   1523 6.600                                    0.50    157 292 
 KSHB BE EPn  0   1523 7.500                                    1.30    317 342 
 KANR BZ EPn  0   152314.500                                   -0.20    385 350 
 BAZ1 BZ EPn  0   152316.200                                   -0.40    402  84 
 SHI  BE EPn  0   152319.600                                    0.10    423 304 
 HOQ  BZ EPn  0   152322.700                                   -0.10    452 165 
 KRVR BZ EPn  0   152323.900                                   -0.40    463   9 
 CHBR BZ EPn  0   152326.500                                   -0.20    483 115 
 TAFT BZ EPn  0   152329.000                                   -0.30    502 338 
 NGCH BZ EPn  0   152335.700                                    0.40    554 115 
 NHDN BZ EPn  4   152338.300                                    0.30    573  41 
 WBK  BZ EPn  0   152342.700                                   -0.30    615 152 
 SRVN BZ EPn  0   152344.100                                    0.30    620  90 
 ANAR BZ EPn  4   152348.800                                   -1.10    669 340 
 BRJ  SZ EPn  0   152350.200                                   -0.60    676 317 
 TSHB BZ EPn  4   152351.400                                   -0.30    684   3 
 AFRZ BZ EPn  4   152355.600                                    0.60    710  22 
 ZNGN BZ EPn  4   152356.600                                    0.30    720 316 
 JHBN BZ EPn  4   152357.500                                   -1.50    742 316 
 PIR  SZ EPn  4   152359.900                                   -1.70    762 320 
 KLH  SN EPn  0   1524 3.000                                   -0.40    777 327 
 SHRT BZ EPn  0   1524 5.200                                    0.70    787  29 
 SFB  BZ EPn  4   1524 9.900                                   -1.50    843 335 
 LAS  SZ EPn  4   152420.600                                   -0.60    921 342 
 FIR  BZ EPn  4   152423.800                                   -1.60    955 341 
 PAY  SZ EPn  4   152434.400                                    0.10   1026  15 
 PRN  SZ EPn  4   152434.700                                    0.00   1031 341 
 KKOM BZ EPn  4   152440.300                                   -3.70   1105 314 
 SNQR BZ EPn  4   152445.800                                   -3.50   1147 317 
 SNJK BZ EPn  4   152455.400                                   -3.80   1226 318 
 SAQZ BZ EPn  4   152510.600                                   -3.70   1349 318 
 GHIR BZ EPn  0   1523 5.760                                   -0.30    320 283 
 YZKH BZ EPn  0   152335.410                                    0.70    549 344 
 GLO  BZ EPn  0   152431.580                                   -0.20   1008 347 
 NASN BZ EPn  0   152348.050                                   -0.20    657 331 
 ABGH BZ EPn  0   152432.980                                    0.10   1018 353 
 BSRN BZ EPn  0   152335.870                                   -0.20    560  31 
 AHRM BZ EPn  0   152330.180                                    0.40    512 286 
 TABS BZ EPn  0   152349.920                                   -0.20    674   8 
 GTMR BZ EPn  0   152412.700                                   -1.10    865 308 
 JSSH BZ EPn  0   152254.060                                   -0.30    227 147 
 KHMZ BZ EPn  0   152417.540                                   -0.80    900 319 
 LMD1 BZ EPn  0   1523 3.580                                    0.40    297 264 
 CHTH BZ EPn  0   152435.480                                    0.50   1034 333 
 KLNJ BZ EPn  0   152338.220                                   -0.40    580 310 
 ASAO BZ EPn  0   152425.960                                   -0.40    964 323 
 KAGH BZ EPn  0   152441.880                                   -0.30   1093  19 
 TBJM BZ EPn  0   152422.840                                    0.10    936  25 
 KRBR BZ EPn  4   152257.800                                   -2.00    268  13 
 MRVT BZ EPn  4   152441.250                                   -3.30   1112 360 
                                                                                

 2021 1114 1534 31.8 LQ 27.765  56.168 13.6  Teh  5 0.3 2.8LTeh                1
 GAP=142   Teh                                                                 E
 Action:ARG 22-08-22 18:16 OP:OBSP STATUS:               ID:20211114153431     I
 STAT SP IPHASW D HRMM SECON CODA AMPLIT PERI AZIMU VELO AIN AR TRES W  DIS CAZ7
 CHMN BZ E    0   153555.400       858.7 0.80                                   
 MZN1 BE E    0   153528.020      6952.8 0.88                                   
 KSHB BZ E    0   153618.060       731.3 0.84                                   
 MZN1 BE EPn  0   153457.200                                    0.00    153 283 
 KANR BZ E    0   153625.660       457.7 1.12                                   
 TAFT BZ E    0   153556.300       279.9 0.80                                   
 KBAM BZ EPn  0   153512.500                                   -0.40    270  55 
 JASK BZ EPn  0   153512.800                                    0.10    270 141 
 BNDS BZ E    0   153445.320     28688.7 0.24                                   
 CHMN BZ EPn  0   153513.400                                    0.60    268  30 
 KANR BZ EPn  0   153523.900                                   -0.20    360 348 
 KRBR BZ E    0   153545.000       716.2 0.40                                   
 KBAM BZ E    0   153550.080      1370.6 0.40                                   
                                                                                

 2021 1114 1541 38.3 LQ 27.650  56.321 10.0  Teh  5 0.3 2.8LTeh                1
 GAP=157   Teh                                                                 E
 Action:ARG 22-08-22 18:16 OP:OBSP STATUS:               ID:20211114154138     I
 STAT SP IPHASW D HRMM SECON CODA AMPLIT PERI AZIMU VELO AIN AR TRES W  DIS CAZ7
 BNDS BZ EPg  0   154145.300                                    0.00   32.0 208 
 MZN1 BZ EPg  0   1542 8.500                                    0.30    170 286 
 CHMN BZ EPn  4   154222.400                                    0.70    272  26 
 KBAM BZ EPg  0   154223.800                                   -0.40    266  51 
 MZN1 BE ESg  0   154229.800                                    0.00    170 286 
 KANR BZ EPn  0   154234.500                                    0.40    375 347 
 KBAM BZ E    0   1543 9.860       897.2 0.76                                   
 KANR BZ E    0   154355.020       883.5 1.48                                   
 KRBR BZ E    0   154227.600       881.6 0.52                                   
 CHMN BZ E    0   154311.600       970.4 1.04                                   
                                                                                

 2021 1114 1559 11.7 LQ 27.520  56.110 15.9  Teh 38 0.4 4.0LTeh                1
 GAP=115   Teh                                                                 E
 Action:ARG 22-08-22 18:16 OP:OBSP STATUS:               ID:20211114155911     I
 STAT SP IPHASW D HRMM SECON CODA AMPLIT PERI AZIMU VELO AIN AR TRES W  DIS CAZ7
 JASK BZ E    0   16 055.400     18634.6 0.96                                   
 KHGB BZ E    0   16 1 2.900       -99.0 0.68                                   
 KBAM BZ E    0   16 043.600      7071.8 0.72                                   
 BNDS BZ EPg  0   155915.500                                   -0.30   15.0 156 
 MZN1 BE E    0   16 017.080     13123.3 0.72                                   
 CHMN BZ E    0   16 046.060      4083.6 0.92                                   
 BNDS BZ ESg  0   155918.900                                    0.10   15.0 156 
 KRVR BZ E    0   16 141.300       -99.0 1.16                                   
 KSHB BZ E    0   16 125.300      2939.2 0.96                                   
 LMD1 BE E    0   16 1 5.260      9732.4 0.72                                   
 MZN1 BE EPg  0   155938.400                                    0.40    156 293 
 KLNJ BZ E    0   16 237.000       -99.0 0.88                                   
 TAFT BZ E    0   16 148.620       898.5 1.16                                   
 NGCH BZ E    0   16 115.260      1699.9 0.64                                   
 SRVN BZ E    0   16 236.860       435.9 1.12                                   
 UOSS BZ EPn  0   155954.400                                   -0.00    285 178 
 KBAM BZ EPn  0   155955.100                                   -0.20    291  52 
 CHMN BN EPn  0   155956.200                                    0.30    295  28 
 KHGB BZ EPn  0   155958.900                                    0.10    318   6 
 KANR BZ EPn  0   16 0 7.300                                    0.30    385 350 
 KRVR BZ EPn  0   16 016.300                                   -0.40    463   9 
 TAFT BZ EPn  0   16 022.100                                    0.50    502 339 
 NGCH BZ EPn  0   16 027.800                                   -0.10    555 114 
 NHDN BZ EPn  0   16 029.900                                   -0.60    574  41 
 KLNJ BN EPn  0   16 031.400                                   -0.60    585 312 
 TPRV BZ EPn  4   16 035.900                                    0.80    613   5 
 SRVN BZ EPn  0   16 036.900                                    0.60    621  90 
 ANAR BZ EPn  4   16 042.000                                   -0.10    669 341 
 TKDS BZ EPn  4   16 044.700                                    0.90    682   8 
 ZEF  SZ EPn  4   16 044.800                                   -1.10    698 330 
 AFRZ BZ EPn  4   16 047.700                                    0.20    711  22 
 ZNGN BZ EPn  4   16 049.100                                    0.50    719 316 
 JHBN BN EPn  0   16 051.300                                    0.10    741 316 
 PIR  SZ EPn  4   16 053.400                                   -0.50    762 320 
 KLH  SZ EPn  0   16 055.200                                   -0.40    776 327 
 KKOM BZ EPn  4   16 133.600                                   -2.50   1104 314 
 SNQR BZ EPn  4   16 138.900                                   -2.60   1146 317 
 SNJK BZ EPn  4   16 148.400                                   -3.00   1225 318 
 GHIR BZ EPn  0   155957.550                                   -0.60    310 284 
 YZKH BZ EPn  0   16 028.180                                    0.30    548 345 
 TBJM BZ EPn  0   16 117.120                                    0.40    942  26 
 KRBR BZ EPn  4   155949.840                                   -3.80    272  15 
 TABS BZ EPn  0   16 043.290                                   -0.50    677   9 
 KHMZ BZ EPn  0   16 111.170                                    0.20    894 319 
 LMD1 BZ EPn  0   155955.520                                    0.40    286 264 
 GTMR BZ EPn  4   16 1 2.710                                   -3.50    859 309 
 NASN BZ EPn  0   16 041.250                                    0.20    654 332 
 SHRT BZ EPn  0   16 056.590                                   -0.30    783  31 
 JSSH BZ EPn  0   155948.270                                    0.10    231 145 
 BSRN BZ EPn  0   16 030.600                                    0.50    567  32 
 CHBR BZ EPn  0   16 020.580                                   -0.40    495 117 
                                                                                

