 2021 1114 1424 13.8 LQ 27.576  56.172 13.1  Teh 31 0.3 3.8LTeh                1
 GAP=110   Teh                                                                 E
 Action:ARG 22-08-28 16:25 OP:OBSP STATUS:               ID:20211114142413     I
 STAT SP IPHASW D HRMM SECON CODA AMPLIT PERI AZIMU VELO AIN AR TRES W  DIS CAZ7
 JASK BZ E    0   1426 8.600      5222.3 0.36                                   
 CHMN BZ E    0   142541.160      1491.3 0.44                                   
 KSHB BZ E    0   1426 3.340      3832.1 0.36                                   
 KBAM BZ E    0   1426 6.260      2075.2 0.34                                   
 BNDS BZ EPg  0   142418.820                                   -0.20   20.0 180 
 MZN1 BZ E    0   1425 7.380     19635.4 0.32                                   
 KANR BZ E    0   142613.500      1524.1 0.40                                   
 TAFT BZ E    0   142651.800       889.4 0.44                                   
 KRVR BZ E    0   142658.060       -99.0 0.54                                   
 NHDN BZ E    0   142715.260       942.9 0.38                                   
 MZN1 BE EPg  0   142441.740                                   -0.10    159 290 
 ANAR BZ E    0   142742.320       285.0 0.46                                   
 KLNJ BZ E    0   142656.280       852.6 0.28                                   
 KLH  SZ E    0   142617.960       157.0 0.24                                   
 JASK BZ EPn  0   142453.820                                   -0.00    253 138 
 KBAM BZ EPn  0   142457.560                                   -0.10    282  52 
 JHBN BZ E    0   142726.420       480.4 0.50                                   
 CHMN BZ EPn  0   142458.160                                   -0.40    286  27 
 UOSS BZ EPn  0   142458.540                                   -0.00    291 179 
 SHI  BZ E    0   142649.560      2314.7 0.52                                   
 MZN1 BE ESg  0   1425 2.840                                    0.40    159 290 
 KANR BN EPn  0   1425 9.720                                   -0.20    380 349 
 KRVR BZ EPn  0   142519.040                                   -0.10    457   8 
 TAFT BZ EPn  0   142524.560                                   -0.00    499 338 
 KLNJ BN EPn  0   142535.380                                   -0.10    585 312 
 WBK  BZ EPn  0   142538.710                                   -0.20    618 152 
 SRVN BN EPn  0   142539.820                                    1.00    615  90 
 ANAR BZ EPn  4   142544.200                                   -0.70    665 340 
 BRJ  SZ EPn  0   142546.460                                    0.00    675 317 
 ZEF  SN EPn  4   142547.760                                   -1.30    696 329 
 JHBN BZ EPn  0   142554.560                                   -0.10    741 315 
 KLH  SZ EPn  4   142557.960                                   -0.70    774 326 
 GHIR BZ EPn  0   1425 6.120                                    0.10    332 285 
 TABS BZ EPn  0   142550.850                                    0.80    687   7 
 SHRT BZ EPn  0   1426 1.190                                   -1.00    784  30 
 BSRN BZ EPn  0   142536.340                                    0.90    568  29 
 JSSH BZ EPn  0   142451.160                                    0.50    210 147 
 GTMR BZ EPn  4   1426 7.880                                   -6.30    882 309 
 GLO  BZ EPn  0   142632.120                                    0.00   1024 347 
 ZHSF BZ EPn  4   1425 0.270                                   -26.8    501  62 
 ASAO BZ EPn  4   142621.730                                   -5.10    981 323 
 CHTH BZ EPn  4   142630.450                                   -5.00   1051 333 
 LMD1 BZ EPn  0   1425 2.450                                   -0.10    305 267 
 KRBR BZ EPn  4   142453.700                                   -6.00    280  10 
 KHMZ BZ EPn  4   142613.370                                   -5.50    917 319 
 NASN BZ EPn  4   142543.840                                   -4.90    674 331 
                                                                                

 2021 1114 1434  0.1 LQ 28.023  56.237 10.0  Teh  3 0.1 2.9LTeh                1
 GAP=287   Teh                                                                 E
 Action:ARG 22-08-28 16:25 OP:OBSP STATUS:               ID:20211114143400     I
 STAT SP IPHASW D HRMM SECON CODA AMPLIT PERI AZIMU VELO AIN AR TRES W  DIS CAZ7
 CHMN BZ EPn  0   143438.340                                   -0.00    240  32 
 KANR BZ EPn  0   143449.860                                    0.10    333 346 
 CHMN BE ESg  0   143512.440                                    0.00    240  32 
 RAM  SZ EPn  0   143518.000                                   -0.10    561 319 
 CHMN BZ E    0   143520.820       552.4 0.28                                   
 KANR BZ E    0   143450.820       403.2 0.12                                   
 KRBR BZ E    0   143438.980       691.2 0.16                                   
                                                                                

 2021 1114 1452 19.6 LQ 27.601  56.228 10.0  Teh  5 0.5 2.9LTeh                1
 GAP=154   Teh                                                                 E
 Action:ARG 22-08-28 16:25 OP:OBSP STATUS:               ID:20211114145219     I
 STAT SP IPHASW D HRMM SECON CODA AMPLIT PERI AZIMU VELO AIN AR TRES W  DIS CAZ7
 KANR BZ E    0   145326.400       200.7 0.28                                   
 BNDS BZ EPg  0   145225.040                                   -0.20   23.0 194 
 KBAM BZ E    0   145344.440       566.2 0.18                                   
 CHMN BZ E    0   145345.280       481.1 0.20                                   
 JASK BZ EPn  0   1453 0.140                                    0.30    252 139 
 CHMN BZ EPn  0   1453 3.260                                   -0.80    281  27 
 KBAM BZ EPn  0   1453 3.400                                    0.30    276  52 
 KANR BZ EPn  0   145316.360                                    0.50    378 348 
                                                                                

 2021 1114 15 5 45.8 LQ 27.517  55.835  6.0  Teh  5 0.3 2.7LTeh                1
 GAP=138   Teh                                                                 E
 Action:ARG 22-08-28 16:25 OP:OBSP STATUS:               ID:20211114150545     I
 STAT SP IPHASW D HRMM SECON CODA AMPLIT PERI AZIMU VELO AIN AR TRES W  DIS CAZ7
 MZN1 BZ E    0   15 655.060      3196.0 0.34                                   
 CHMN BZ E    0   15 710.660       578.9 0.20                                   
 MZN1 BE EPn  0   15 6 9.940                                   -0.20    131 298 
 KSHB BZ E    0   15 736.360       881.1 0.44                                   
 JASK BZ EPn  0   15 628.700                                   -0.30    272 132 
 UOSS BZ EPn  0   15 631.190                                    0.30    287 173 
 KSHB BZ EPn  0   15 634.060                                   -0.10    310 347 
 KANR BZ E    0   15 743.100       498.4 0.38                                   
 KANR BZ EPn  0   15 643.160                                    0.30    382 354 
 NHDN BZ E    0   15 4 0.280        62.4 0.48                                   
                                                                                

 2021 1114 1512  8.0 LQ 27.593  56.255 14.3  Teh 47 0.4 4.3LTeh                1
 GAP=87    Teh                                                                 E
 Action:ARG 22-08-28 16:25 OP:OBSP STATUS:               ID:20211114151208     I
 STAT SP IPHASW D HRMM SECON CODA AMPLIT PERI AZIMU VELO AIN AR TRES W  DIS CAZ7
 KANR BZ E    0   1514 6.680      6088.3 0.46                                   
 MZN1 BE E    0   1513 6.000     43061.8 0.32                                   
 KBAM BZ E    0   151336.980     20821.6 0.28                                   
 LMD1 BZ E    0   151415.380     15517.5 0.28                                   
 CHMN BZ E    0   151337.960     10707.4 0.30                                   
 KSHB BZ E    0   151354.100      7740.5 0.50                                   
 BNDS BZ EPg  0   151212.720                                   -0.20   23.0 201 
 JASK BZ E    0   151341.400     44087.8 0.46                                   
 NGCH BZ E    0   151414.880      5349.1 0.36                                   
 BAZ1 BZ E    0   1514 4.300      7411.0 0.34                                   
 SHI  BZ E    0   151442.080      1999.7 0.60                                   
 KRVR BZ E    0   151437.780       -99.0 0.42                                   
 BAF  SZ E    0   151430.050      2798.3 0.40                                   
 TAFT BZ E    0   1515 0.020      1895.4 0.36                                   
 KLNJ BZ E    0   151436.840      1757.7 0.40                                   
 SRVN BZ E    0   151524.460       989.0 0.50                                   
 JASK BZ EPn  0   151246.620                                    0.30    248 140 
 KBAM BZ EPn  0   151249.900                                    0.30    275  51 
 CHMN BE EPn  0   151250.840                                    0.30    281  26 
 UOSS BZ EPn  0   151252.190                                    0.40    293 181 
 MZN1 BZ ESg  0   151257.680                                   -0.20    166 288 
 KANR BZ EPn  0   1513 2.500                                   -0.20    380 348 
 BAZ1 BZ EPn  0   1513 3.620                                   -0.10    389  85 
 BAF  SZ EPn  0   151310.740                                   -0.40    448 352 
 HOQ  BZ EPn  4   151310.770                                   -1.30    457 166 
 KRVR BZ EPn  0   151311.660                                   -0.10    454   7 
 CHBR BZ EPn  0   151314.140                                   -0.20    475 117 
 TAFT BZ EPn  0   151317.880                                    0.20    500 337 
 NGCH BZ EPn  0   151323.020                                   -0.10    546 116 
 NHDN BN EPn  4   151324.940                                    0.00    559  40 
 KLNJ BZ EPn  0   151328.240                                   -0.70    590 311 
 TPRV BZ EPn  4   151329.520                                   -0.90    604   4 
 WBK  BZ EPn  0   151331.300                                   -0.60    616 153 
 SRVN BZ EPn  0   151331.580                                    0.70    607  91 
 ANAR BZ EPn  4   151337.400                                   -0.80    666 339 
 AFRZ BZ EPn  4   151342.760                                    0.50    698  22 
 JHBN BZ EPn  4   151347.680                                   -0.50    745 315 
 KLH  SZ EPn  4   151350.610                                   -1.50    777 326 
 SFB  BZ EPn  4   151358.680                                   -1.20    841 334 
 VRN  BZ EPn  4   151410.260                                   -0.20    926 333 
 FIR  BZ EPn  4   151413.400                                   -0.40    952 340 
 PRN  SZ EPn  4   151422.920                                   -0.10   1028 340 
 MZPU BZ EPn  4   151429.760                                    0.70   1076 337 
 ASAO BZ EPn  0   151415.680                                   -0.40    964 323 
 TBJM BZ EPn  0   151412.100                                   -0.50    936  25 
 KHMZ BZ EPn  0   1514 7.130                                   -0.90    898 319 
 JSSH BZ EPn  0   151243.950                                   -0.40    227 147 
 KRBR BZ EPn  4   151245.930                                   -3.80    268  13 
 KAGH BZ EPn  0   151432.830                                    0.70   1093  19 
 GHIR BZ EPn  0   151256.140                                    0.30    318 283 
 SHRT BZ EPn  0   151352.700                                   -0.00    777  31 
 MRVT BZ EPn  0   151434.070                                   -0.30   1112 360 
 GLO  BZ EPn  0   151421.890                                    0.30   1008 348 
 LMD1 BZ EPn  0   151252.760                                   -0.10    296 264 
 ABGH BZ EPn  0   151423.200                                    0.50   1018 353 
 YZKH BZ EPn  0   151324.900                                    0.40    548 344 
 GTMR BZ EPn  0   1514 2.940                                   -0.60    864 308 
 CHTH BZ EPn  0   151425.070                                    0.30   1034 333 
 TABS BZ EPn  0   151339.190                                   -0.80    674   8 
 BSRN BZ EPn  0   151326.610                                    0.70    561  31 
 GZV  BZ EPn  4   151430.730                                   -4.90   1121 330 
 NASN BZ EPn  0   151337.670                                   -0.30    657 331 
                                                                                

 2021 1114 1522 19.2 LQ 27.524  56.128 13.8  Teh 56 0.5 4.3LTeh                1
 GAP=114   Teh                                                                 E
 Action:ARG 22-08-28 16:25 OP:OBSP STATUS:               ID:20211114152219     I
 STAT SP IPHASW D HRMM SECON CODA AMPLIT PERI AZIMU VELO AIN AR TRES W  DIS CAZ7
 JASK BZ E    0   152348.560     26158.1 0.30                                   
 MZN1 BZ E    0   152329.840     39366.4 0.40                                   
 SHI  BZ E    0   152442.720      5106.7 0.48                                   
 KSHB BZ E    0   152411.700      7888.7 0.40                                   
 CHMN BZ E    0   152356.860      6662.0 0.36                                   
 NHDN BZ E    0   152516.900      3388.9 0.40                                   
 KBAM BZ E    0   152359.920      7844.9 0.36                                   
 BNDS BZ EPg  0   152222.940                                   -0.00   14.0 163 
 KRVR BZ E    0   152445.900       -99.0 0.46                                   
 KLNJ BZ E    0   152441.120      3204.6 0.32                                   
 KANR BZ E    0   152439.720      5566.9 0.42                                   
 NGCH BZ E    0   152415.180      2343.9 0.48                                   
 BAZ1 BZ E    0   152428.320      2216.0 0.38                                   
 TAFT BZ E    0   152442.180      2729.3 0.34                                   
 CHBR BZ E    0   152353.660       -99.0 0.30                                   
 MZN1 BZ EPg  0   152245.180                                   -0.50    157 292 
 JASK BZ EPn  0   152258.300                                    0.30    252 136 
 JHRM BE EPn  0   1523 0.120                                   -0.60    273 294 
 UOSS BZ EPn  0   1523 2.490                                    0.30    286 178 
 KBAM BZ EPn  0   1523 2.660                                   -0.10    289  51 
 CHMN BZ EPn  0   1523 3.140                                   -0.30    293  28 
 MZN1 BE ESg  0   1523 6.560                                    0.50    157 292 
 KSHB BE EPn  0   1523 7.520                                    1.30    317 342 
 KANR BZ EPn  0   152314.500                                   -0.20    385 350 
 BAZ1 BZ EPn  0   152316.220                                   -0.40    402  84 
 SHI  BE EPn  0   152319.560                                    0.10    423 304 
 HOQ  BZ EPn  0   152322.750                                   -0.10    452 165 
 KRVR BZ EPn  0   152323.880                                   -0.40    463   9 
 CHBR BZ EPn  0   152326.480                                   -0.20    483 115 
 TAFT BZ EPn  0   152329.020                                   -0.30    502 338 
 NGCH BZ EPn  0   152335.740                                    0.40    554 115 
 NHDN BZ EPn  4   152338.280                                    0.30    573  41 
 WBK  BZ EPn  0   152342.740                                   -0.30    615 152 
 SRVN BZ EPn  0   152344.060                                    0.30    620  90 
 ANAR BZ EPn  4   152348.760                                   -1.10    669 340 
 BRJ  SZ EPn  0   152350.240                                   -0.60    676 317 
 TSHB BZ EPn  4   152351.380                                   -0.30    684   3 
 AFRZ BZ EPn  4   152355.580                                    0.60    710  22 
 ZNGN BZ EPn  4   152356.640                                    0.30    720 316 
 JHBN BZ EPn  4   152357.520                                   -1.50    742 316 
 PIR  SZ EPn  4   152359.950                                   -1.70    762 320 
 KLH  SN EPn  0   1524 2.970                                   -0.40    777 327 
 SHRT BZ EPn  0   1524 5.160                                    0.70    787  29 
 SFB  BZ EPn  4   1524 9.880                                   -1.50    843 335 
 LAS  SZ EPn  4   152420.590                                   -0.60    921 342 
 FIR  BZ EPn  4   152423.840                                   -1.60    955 341 
 PAY  SZ EPn  4   152434.360                                    0.10   1026  15 
 PRN  SZ EPn  4   152434.740                                    0.00   1031 341 
 KKOM BZ EPn  4   152440.280                                   -3.70   1105 314 
 SNQR BZ EPn  4   152445.800                                   -3.50   1147 317 
 SNJK BZ EPn  4   152455.380                                   -3.80   1226 318 
 SAQZ BZ EPn  4   152510.580                                   -3.70   1349 318 
 AHRM BZ EPn  0   152330.180                                    0.40    512 286 
 ASAO BZ EPn  0   152425.960                                   -0.40    964 323 
 TBJM BZ EPn  0   152422.840                                    0.10    936  25 
 KHMZ BZ EPn  0   152417.540                                   -0.80    900 319 
 JSSH BZ EPn  0   152254.060                                   -0.30    227 147 
 KRBR BZ EPn  4   152257.800                                   -2.00    268  13 
 KAGH BZ EPn  0   152441.880                                   -0.30   1093  19 
 GHIR BZ EPn  0   1523 5.760                                   -0.30    320 283 
 MRVT BZ EPn  4   152441.250                                   -3.30   1112 360 
 GLO  BZ EPn  0   152431.580                                   -0.20   1008 347 
 LMD1 BZ EPn  0   1523 3.580                                    0.40    297 264 
 ABGH BZ EPn  0   152432.980                                    0.10   1018 353 
 YZKH BZ EPn  0   152335.410                                    0.70    549 344 
 GTMR BZ EPn  0   152412.700                                   -1.10    865 308 
 CHTH BZ EPn  0   152435.480                                    0.50   1034 333 
 TABS BZ EPn  0   152349.920                                   -0.20    674   8 
 BSRN BZ EPn  0   152335.870                                   -0.20    560  31 
 NASN BZ EPn  0   152348.050                                   -0.20    657 331 
 KLNJ BZ EPn  0   152338.220                                   -0.40    580 310 
                                                                                

