 2021 1114 1750 23.6 LQ 27.531  56.173 16.2  Teh 19 0.5 3.5LTeh                1
 GAP=111   Teh                                                                 E
 Action:ARG 22-08-22 18:16 OP:OBSP STATUS:               ID:20211114175023     I
 STAT SP IPHASW D HRMM SECON CODA AMPLIT PERI AZIMU VELO AIN AR TRES W  DIS CAZ7
 BAF  SZ E    0   175239.840       383.6 0.92                                   
 JASK BN E    0   175157.080      5555.5 0.76                                   
 MZN1 BZ E    0   175114.840      7797.0 0.56                                   
 KSHB BZ E    0   175227.560      1662.6 1.04                                   
 KANR BZ E    0   175228.100       824.8 0.76                                   
 BNDS BZ EPg  0   175027.400                                   -0.30   15.0 181 
 KHGB BZ E    0   175119.240       798.3 0.64                                   
 KBAM BZ E    0   175857.960      2176.8 0.28                                   
 KRVR BZ E    0   175253.100       -99.0 0.92                                   
 CHMN BZ E    0   175157.940       887.8 0.72                                   
 MZN1 BZ EPg  0   175050.400                                   -0.30    161 292 
 TAFT BZ E    0   175317.060       439.6 0.76                                   
 KBAM BZ EPn  0   1751 6.500                                    0.20    285  51 
 UOSS BZ EPn  0   1751 7.200                                    0.90    286 179 
 CHMN BZ EPn  0   1751 7.200                                    0.00    291  27 
 KHGB BZ EPn  0   175110.500                                    0.20    316   5 
 MZN1 BE ESg  0   175112.100                                    0.00    161 292 
 KANR BZ EPn  0   175118.700                                   -0.10    385 349 
 HOQ  BZ EPn  0   175126.000                                   -0.90    452 165 
 BAF  SZ EPn  4   175126.600                                   -0.60    454 353 
 KRVR BZ EPn  4   175127.900                                   -0.30    461   8 
 TAFT BZ EPn  0   175133.300                                   -0.20    502 338 
 NGCH BZ EPn  0   175140.000                                    1.00    550 115 
 NHDN BZ EPn  4   175141.400                                   -0.20    569  40 
 KLNJ BE EPn  0   175143.900                                   -0.30    589 312 
 TPRV BZ EPn  4   175146.400                                   -0.30    611   4 
 WBK  BZ EPn  0   175146.700                                   -0.30    613 152 
 ANAR BZ EPn  4   175153.200                                   -0.90    670 340 
 PIR  SZ EPn  0   1752 5.300                                   -0.70    765 320 
 KLH  SZ EPn  4   1752 6.800                                   -0.90    778 327 
                                                                                

 2021 1114 1758 13.0 LQ 27.594  56.188 11.3  Teh 16 0.4 3.7LTeh                1
 GAP=104   Teh                                                                 E
 Action:ARG 22-08-22 18:16 OP:OBSP STATUS:               ID:20211114175813     I
 STAT SP IPHASW D HRMM SECON CODA AMPLIT PERI AZIMU VELO AIN AR TRES W  DIS CAZ7
 KBAM BZ E    0   175943.080      4483.2 0.68                                   
 BNDS BZ EPg  0   175817.700                                    0.10   22.0 185 
 BAF  SZ E    0   175933.170       507.4 0.44                                   
 JASK BZ E    0   175940.400      7312.5 0.76                                   
 CHMN BZ E    0   175940.180      2459.7 0.48                                   
 KANR BZ E    0   175917.820      1075.0 0.52                                   
 TAFT BZ E    0   175925.120       603.4 0.24                                   
 KSHB BZ E    0   1759 9.780      1616.6 0.40                                   
 MZN1 BE EPg  0   175840.600                                    0.00    160 289 
 JASK BZ EPn  0   175852.600                                    0.10    254 139 
 KBAM BZ EPn  0   175856.200                                    0.30    280  52 
 CHMN BZ EPn  0   175856.400                                   -0.20    284  27 
 UOSS BZ EPn  0   175858.200                                    0.70    293 180 
 KSHB BZ EPn  0   1759 0.500                                    0.50    311 341 
 MZN1 BE ESg  0   1759 1.400                                   -0.10    160 289 
 KANR BZ EPn  0   1759 8.000                                   -0.20    379 349 
 BAF  SZ EPn  4   175915.500                                   -1.20    447 352 
 TAFT BZ EPn  0   175922.900                                   -0.10    497 337 
 NGCH BZ EPn  0   175928.800                                   -0.70    552 116 
 WBK  BZ EPn  0   175937.200                                   -0.70    619 152 
 SRVN BZ EPn  0   175937.900                                    0.50    614  91 
 ANAR BZ EPn  4   175942.500                                   -1.10    664 340 
 ZNGN BZ EPn  0   175950.400                                   -0.20    719 316 
 SHRT BZ EPn  4   175958.000                                    0.40    777  29 
                                                                                

 2021 1114 18 1 11.7 LQ 27.568  56.140  8.0  Teh 12 0.3 3.5LTeh                1
 GAP=113   Teh                                                                 E
 Action:ARG 22-08-22 18:16 OP:OBSP STATUS:               ID:20211114180111     I
 STAT SP IPHASW D HRMM SECON CODA AMPLIT PERI AZIMU VELO AIN AR TRES W  DIS CAZ7
 MZN1 BZ E    0   18 2 4.720      6717.5 0.60                                   
 BNDS BZ EPg  0   18 116.200                                   -0.40   19.0 171 
 KSHB BZ E    0   18 3 8.200      1364.1 0.68                                   
 CHMN BZ E    0   18 2 9.600      1010.8 0.64                                   
 BAF  SZ E    0   18 234.390       369.3 0.32                                   
 KBAM BZ E    0   18 241.240      1123.7 0.60                                   
 JASK BZ E    0   18 256.320      4622.8 1.04                                   
 MZN1 BZ EPg  0   18 139.400                                    0.10    156 291 
 KANR BZ E    0   18 312.980       923.5 0.68                                   
 TAFT BZ E    0   18 319.340       573.4 0.56                                   
 UOSS BZ EPn  0   18 157.100                                    0.20    290 179 
 KBAM BZ EPn  0   18 157.100                                    0.60    285  52 
 CHMN BZ EPn  0   18 157.500                                    0.20    288  28 
 MZN1 BZ ESg  0   18 159.700                                    0.20    156 291 
 KANR BZ EPn  0   18 2 8.200                                   -0.20    380 349 
 BAF  SZ EPn  0   18 216.800                                   -0.10    449 353 
 HOQ  BZ EPn  0   18 217.900                                    0.40    457 165 
 TAFT BZ EPn  0   18 223.400                                    0.40    497 338 
 KLNJ BN EPn  0   18 233.700                                   -0.10    583 312 
 ZNGN BZ EPn  0   18 250.300                                    0.10    717 316 
 JHBN BN EPn  4   18 252.500                                   -0.40    739 316 
                                                                                

 2021 1114 1818 38.6 LQ 27.578  56.162 20.0  Teh 15 0.4 3.6LTeh                1
 GAP=111   Teh                                                                 E
 Action:ARG 22-08-22 18:16 OP:OBSP STATUS:               ID:20211114181838     I
 STAT SP IPHASW D HRMM SECON CODA AMPLIT PERI AZIMU VELO AIN AR TRES W  DIS CAZ7
 CHMN BZ E    0   1820 1.020      1896.6 0.60                                   
 MZN1 BE E    0   181952.780      7478.7 0.76                                   
 KBAM BZ E    0   181921.980      3583.1 0.36                                   
 KSHB BZ E    0   182010.460      1527.7 0.80                                   
 JASK BZ E    0   182018.300      4968.7 0.64                                   
 KANR BZ E    0   182033.520      1065.5 0.64                                   
 BNDS BZ EPg  0   181843.900                                    0.60   20.0 178 
 TAFT BZ E    0   182011.320       462.3 0.52                                   
 MZN1 BE EPg  0   1819 5.400                                    0.70    158 290 
 BAF  SZ E    0   1820 5.240       428.4 0.36                                   
 KBAM BZ EPn  0   181920.500                                    0.10    283  52 
 CHMN BN EPn  0   181921.300                                    0.20    286  28 
 UOSS BZ EPn  0   181922.100                                    0.70    292 179 
 KSHB BZ EPn  0   181924.500                                    0.30    312 341 
 KANR BZ EPn  0   181932.600                                    0.10    380 349 
 BAF  SN EPn  0   181940.500                                   -0.40    448 353 
 HOQ  BZ EPn  0   181941.100                                   -0.80    457 165 
 TAFT BZ EPn  0   181947.300                                    0.10    497 338 
 NGCH BZ EPn  0   181954.000                                    0.20    553 115 
 NHDN BZ EPn  0   181955.400                                   -0.10    566  41 
 WBK  BZ EPn  0   1820 2.000                                    0.10    618 152 
 SRVN BZ EPn  0   1820 2.200                                    0.40    616  90 
 JHBN BN EPn  0   182017.400                                    0.10    740 316 
                                                                                

 2021 1114 1838 16.5 LQ 27.628  56.255  9.4  Teh 14 0.2 3.3LTeh                1
 GAP=90    Teh                                                                 E
 Action:ARG 22-08-22 18:16 OP:OBSP STATUS:               ID:20211114183816     I
 STAT SP IPHASW D HRMM SECON CODA AMPLIT PERI AZIMU VELO AIN AR TRES W  DIS CAZ7
 MZN1 BE E    0   183910.480      6237.9 0.64                                   
 KANR BZ E    0   184018.360       595.1 0.72                                   
 BNDS BZ EPg  0   183821.700                                   -0.10   27.0 198 
 CHMN BZ E    0   183944.160       841.0 0.80                                   
 KBAM BZ E    0   183943.940      1501.6 0.76                                   
 BAF  SZ E    0   184031.990       358.6 0.84                                   
 JASK BZ E    0   183945.560      2732.4 0.80                                   
 KSHB BZ E    0   1840 4.860      1097.9 0.68                                   
 MZN1 BZ EPg  0   183845.300                                    0.30    165 287 
 KLNJ BZ E    0   183944.320       223.9 0.48                                   
 KBAM BZ EPn  0   183858.800                                    0.10    272  52 
 CHMN BZ EPn  0   183859.700                                    0.20    277  27 
 UOSS BZ EPn  0   1839 1.700                                    0.00    297 181 
 MZN1 BE ESg  0   1839 6.200                                    0.00    165 287 
 KANR BE EPn  0   183911.800                                    0.10    376 348 
 BAF  SN EPn  0   183919.500                                   -0.60    444 352 
 TAFT BZ EPn  0   183926.500                                   -0.20    495 337 
 NHDN BZ EPn  0   183934.000                                    0.00    556  40 
 KLNJ BZ EPn  0   183938.000                                   -0.00    587 311 
 SRVN BZ EPn  0   183940.200                                   -0.10    607  91 
 ANAR BZ EPn  4   183946.700                                   -0.50    662 339 
 ZNGN BN EPn  0   183955.000                                    0.50    721 315 
 KLH  SZ EPn  0   1840 1.200                                    0.00    774 326 
                                                                                

 2021 1114 1846 38.3 LQ 27.551  56.128 13.1  Teh  6 0.2 2.8LTeh                1
 GAP=121   Teh                                                                 E
 Action:ARG 22-08-22 18:16 OP:OBSP STATUS:               ID:20211114184638     I
 STAT SP IPHASW D HRMM SECON CODA AMPLIT PERI AZIMU VELO AIN AR TRES W  DIS CAZ7
 BNDS BZ EPg  0   184643.200                                    0.00   17.0 166 
 MZN1 BZ E    0   184737.640      2532.3 0.80                                   
 MZN1 BZ EPg  0   1847 5.800                                   -0.00    156 291 
 JASK BZ E    0   1848 2.440      2567.0 0.76                                   
 JASK BZ EPn  0   184718.600                                    0.20    254 137 
 KBAM BZ E    0   1848 5.500      1166.0 0.40                                   
 UOSS BZ EPn  0   184722.600                                   -0.10    289 178 
 KBAM BZ EPn  0   184722.900                                    0.20    288  52 
 SRVN BZ E    0   1849 7.340        72.9 0.84                                   
 SRVN BZ EPn  0   1848 3.500                                   -0.30    620  90 
                                                                                

 2021 1114 1857 21.8 LQ 27.601  56.220 17.8  Teh  6 0.5 2.7LTeh                1
 GAP=109   Teh                                                                 E
 Action:ARG 22-08-22 18:16 OP:OBSP STATUS:               ID:20211114185721     I
 STAT SP IPHASW D HRMM SECON CODA AMPLIT PERI AZIMU VELO AIN AR TRES W  DIS CAZ7
 BNB  BZ E    0   185741.760     23069.8 0.32                                   
 BNB  BZ EPg  0   185728.600                                   -0.20   36.0 118 
 MZN1 BE E    0   185814.860      1254.1 0.60                                   
 MZN1 BE EPg  0   185749.500                                    0.20    163 289 
 UOSS BZ E    0   185858.290       722.5 0.46                                   
 CHMN BZ E    0   185818.920       182.8 0.40                                   
 JASK BZ E    0   185856.240       816.4 0.56                                   
 JASK BZ EPn  0   1858 1.000                                    0.80    252 139 
 CHMN BZ EPn  0   1858 4.000                                   -0.20    282  27 
 UOSS BZ EPn  0   1858 4.800                                   -0.70    294 180 
 KANR BZ E    0   185819.520       158.4 0.28                                   
 KANR BZ EPn  0   185816.000                                   -0.10    378 348 
                                                                                

 2021 1114 19 7  5.8 LQ 27.541  56.276 11.8  Teh 15 0.4 3.5LTeh                1
 GAP=77    Teh                                                                 E
 Action:ARG 22-08-22 18:16 OP:OBSP STATUS:               ID:20211114190705     I
 STAT SP IPHASW D HRMM SECON CODA AMPLIT PERI AZIMU VELO AIN AR TRES W  DIS CAZ7
 MZN1 BE E    0   19 8 3.600      6757.9 0.40                                   
 BNDS BZ EPg  0   19 7 9.500                                   -0.40   19.0 213 
 BNB  BZ EPg  0   19 711.500                                    0.30   28.0 111 
 BNDS BZ ESg  0   19 712.900                                   -0.20   19.0 213 
 KSHB BZ E    0   19 855.360       989.7 0.84                                   
 KBAM BZ E    0   19 823.680      2121.1 0.84                                   
 KANR BZ E    0   19 8 4.340       610.4 0.36                                   
 BAF  SZ E    0   19 920.350       284.6 0.60                                   
 MZN1 BE EPg  0   19 735.000                                    0.00    170 290 
 NHDN BZ E    0   19 952.280       649.8 0.60                                   
 KBAM BE EPn  0   19 748.900                                    0.70    277  50 
 CHMN BN EPn  0   19 749.300                                   -0.10    285  25 
 MZN1 BZ ESg  0   19 758.100                                    0.00    170 290 
 KANR BZ EPn  0   19 8 1.500                                   -0.40    386 348 
 BAF  SN EPn  0   19 8 9.500                                   -0.80    454 351 
 TAFT BZ EPn  0   19 816.600                                   -0.30    506 337 
 KLNJ BE EPn  0   19 827.700                                   -0.30    595 311 
 WBK  BZ EPn  0   19 829.400                                   -0.00    610 153 
 SRVN BN EPn  0   19 829.400                                    0.50    605  90 
 ANAR BZ EPn  4   19 836.700                                   -0.60    672 339 
 ZNGN BZ EPn  0   19 844.400                                   -0.20    729 315 
 JHBN BZ EPn  4   19 846.600                                   -0.60    750 315 
 PIR  SZ EPn  4   19 849.100                                   -0.60    770 319 
                                                                                

 2021 1114 1910  3.8 LQ 27.591  56.322 14.7  Teh  7 0.4 2.9LTeh                1
 GAP=97    Teh                                                                 E
 Action:ARG 22-08-22 18:16 OP:OBSP STATUS:               ID:20211114191003     I
 STAT SP IPHASW D HRMM SECON CODA AMPLIT PERI AZIMU VELO AIN AR TRES W  DIS CAZ7
 BNB  BZ E    0   191018.800      3464.0 0.44                                   
 BNDS BZ EPg  0   1910 9.400                                   -0.70   26.0 215 
 BNB  BZ EPg  0   191010.300                                    0.50   27.0 126 
 MZN1 BZ E    0   191110.900      2421.8 0.80                                   
 MZN1 BZ EPg  0   191033.900                                   -0.20    172 288 
 CHMN BZ E    0   191138.220       722.7 0.64                                   
 KBAM BZ E    0   191127.580      1189.9 0.44                                   
 JASK BZ EPn  0   191042.800                                    0.20    245 141 
 KBAM BZ EPn  0   191045.800                                   -0.10    270  50 
 CHMN BZ EPn  0   191047.000                                   -0.30    278  25 
 UOSS BZ EPn  0   191048.800                                    0.20    293 182 
 MZN1 BE ESg  0   191056.800                                    0.00    172 288 
                                                                                

 2021 1114 1918 31.5 LQ 27.541  56.140 19.4  Teh  7 0.4 2.7LTeh                1
 GAP=113   Teh                                                                 E
 Action:ARG 22-08-22 18:16 OP:OBSP STATUS:               ID:20211114191831     I
 STAT SP IPHASW D HRMM SECON CODA AMPLIT PERI AZIMU VELO AIN AR TRES W  DIS CAZ7
 KANR BZ E    0   191928.120       148.9 0.28                                   
 CHMN BZ E    0   1920 5.160       222.6 0.44                                   
 BNB  BZ E    0   191849.860     21557.5 0.24                                   
 BNB  BZ EPg  0   191839.300                                   -0.00   41.0 104 
 UOSS BZ E    0   191932.770       589.9 0.36                                   
 JASK BZ EPn  0   191910.000                                    0.20    253 137 
 KBAM BZ E    0   191922.940       396.5 0.36                                   
 UOSS BZ EPn  0   191913.900                                   -0.20    288 179 
 CHMN BZ EPn  0   191914.000                                   -0.80    291  28 
 KBAM BZ EPn  0   191914.600                                    0.50    287  52 
 MZN1 BE ESg  0   191918.300                                    0.00    157 292 
 KANR BZ EPn  0   191926.500                                    0.40    383 349 
                                                                                

